filename,category,file_path,Address,fov,Latitude,Longitude,nbhname,nbhid,block_id,district,division,divisionname
10147_N_GREEN_HILLS_RD_facing=90.jpg.Occupied.jpg,Occupied,LandBank_Data\10147_N_GREEN_HILLS_RD_facing=90.jpg.Occupied.jpg,10147 N GREEN HILLS RD,facing=90,39.27807,-94.63019,KCI & 2nd Creek,231,291650302011,2,4,North
103_W_19TH_ST_facing=60.jpg.Occupied.jpg,Occupied,LandBank_Data\103_W_19TH_ST_facing=60.jpg.Occupied.jpg,103 W 19TH ST,facing=60,39.09075,-94.58538,Crossroads,7,290950158001,4,1,Central
106_W_14th_St_facing=60.jpg.Occupied.jpg,Occupied,LandBank_Data\106_W_14th_St_facing=60.jpg.Occupied.jpg,106 W 14th St,facing=60,39.097570000000005,-94.58471999999999,CBD Downtown,4,290950157002,4,1,Central
1102_Agnes_Ave_facing=180.jpg.Abandoned.jpg,Abandoned,LandBank_Data\1102_Agnes_Ave_facing=180.jpg.Abandoned.jpg,1102 Agnes Ave,facing=180,39.100312,-94.547036,Independence Plaza,16,290950018003,4,3,East
1116_E_44th_St_facing=60.jpg.Occupied.jpg,Occupied,LandBank_Data\1116_E_44th_St_facing=60.jpg.Occupied.jpg,1116 E 44th St,facing=60,39.04743,-94.57181,Manheim Park,69,290950063001,3,1,Central
1120_E_Linwood_Blvd_facing=60.jpg.Occupied.jpg,Occupied,LandBank_Data\1120_E_Linwood_Blvd_facing=60.jpg.Occupied.jpg,1120 E Linwood Blvd,facing=60,39.06902,-94.57035,Center City,67,290950052002,3,1,Central
1120_E_Linwood_Blvd_facing=90.jpg.Occupied.jpg,Occupied,LandBank_Data\1120_E_Linwood_Blvd_facing=90.jpg.Occupied.jpg,1120 E Linwood Blvd,facing=90,39.06902,-94.57035,Center City,67,290950052002,3,1,Central
11217_Eastern_Ave_facing=180.jpg.Occupied.jpg,Occupied,LandBank_Data\11217_Eastern_Ave_facing=180.jpg.Occupied.jpg,11217 Eastern Ave,facing=180,38.91809,-94.50348000000001,Ruskin Heights,171,290950132033,6,5,South
11217_Eastern_Ave_facing=60.jpg.Occupied.jpg,Occupied,LandBank_Data\11217_Eastern_Ave_facing=60.jpg.Occupied.jpg,11217 Eastern Ave,facing=60,38.91809,-94.50348000000001,Ruskin Heights,171,290950132033,6,5,South
11256_Bales_Ave_facing=180.jpg.Occupied.jpg,Occupied,LandBank_Data\11256_Bales_Ave_facing=180.jpg.Occupied.jpg,11256 Bales Ave,facing=180,38.921690000000005,-94.55072,Calico Farms,160,290950102041,6,5,South
11513_N_Oak_Trfy_facing=60.jpg.Occupied.jpg,Occupied,LandBank_Data\11513_N_Oak_Trfy_facing=60.jpg.Occupied.jpg,11513 N Oak Trfy,facing=60,39.30214,-94.57481,Nashua,233,290470213054,2,6,Shoal Creek
11513_N_Oak_Trfy_facing=90.jpg.Occupied.jpg,Occupied,LandBank_Data\11513_N_Oak_Trfy_facing=90.jpg.Occupied.jpg,11513 N Oak Trfy,facing=90,39.30214,-94.57481,Nashua,233,290470213054,2,6,Shoal Creek
11520_Holiday_Dr_facing=180.jpg.Occupied.jpg,Occupied,LandBank_Data\11520_Holiday_Dr_facing=180.jpg.Occupied.jpg,11520 Holiday Dr,facing=180,38.91301,-94.51378000000001,Crossgates,172,290950132082,6,5,South
11520_Holiday_Dr_facing=60.jpg.Occupied.jpg,Occupied,LandBank_Data\11520_Holiday_Dr_facing=60.jpg.Occupied.jpg,11520 Holiday Dr,facing=60,38.91301,-94.51378000000001,Crossgates,172,290950132082,6,5,South
115_W_75th_St_facing=180.jpg.Occupied.jpg,Occupied,LandBank_Data\115_W_75th_St_facing=180.jpg.Occupied.jpg,115 W 75th St,facing=180,38.9918,-94.59156999999999,Tower Homes,106,290950091004,6,2,Metro
115_W_75th_St_facing=60.jpg.Occupied.jpg,Occupied,LandBank_Data\115_W_75th_St_facing=60.jpg.Occupied.jpg,115 W 75th St,facing=60,38.9918,-94.59156999999999,Tower Homes,106,290950091004,6,2,Metro
115_W_75th_St_facing=90.jpg.Occupied.jpg,Occupied,LandBank_Data\115_W_75th_St_facing=90.jpg.Occupied.jpg,115 W 75th St,facing=90,38.9918,-94.59156999999999,Tower Homes,106,290950091004,6,2,Metro
116_Topping_Ave_facing=60.jpg.Occupied.jpg,Occupied,LandBank_Data\116_Topping_Ave_facing=60.jpg.Occupied.jpg,116 Topping Ave,facing=60,39.111670000000004,-94.51442,South Indian Mound,20,290950155002,4,3,East
1300_BRUSH_CREEK_BLVD_facing=60.jpg.Abandoned.jpg,Abandoned,LandBank_Data\1300_BRUSH_CREEK_BLVD_facing=60.jpg.Abandoned.jpg,1300 BRUSH CREEK BLVD,facing=60,39.04368,-94.5701,Manheim Park,69,290950063001,3,1,Central
1300_NE_Parvin_Rd_CLUBHOUSE_facing=180.jpg.Occupied.jpg,Occupied,LandBank_Data\1300_NE_Parvin_Rd_CLUBHOUSE_facing=180.jpg.Occupied.jpg,1300 NE Parvin Rd CLUBHOUSE,facing=180,39.17068,-94.56475,Crestview,191,290470202012,4,6,Shoal Creek
1311_E_13th_St_facing=60.jpg.Occupied.jpg,Occupied,LandBank_Data\1311_E_13th_St_facing=60.jpg.Occupied.jpg,1311 E 13th St,facing=60,39.09789,-94.56658,Paseo West,5,290950154002,4,1,Central
1319_Wyandotte_St_facing=60.jpg.Occupied.jpg,Occupied,LandBank_Data\1319_Wyandotte_St_facing=60.jpg.Occupied.jpg,1319 Wyandotte St,facing=60,39.097970000000004,-94.58533,CBD Downtown,4,290950157002,4,1,Central
134_N_Hardesty_Ave_facing=60.jpg.Occupied.jpg,Occupied,LandBank_Data\134_N_Hardesty_Ave_facing=60.jpg.Occupied.jpg,134 N Hardesty Ave,facing=60,39.11403,-94.5192,North Indian Mound,19,290950007001,4,3,East
1403_COLLINS_AVE_facing=180.jpg.Occupied.jpg,Occupied,LandBank_Data\1403_COLLINS_AVE_facing=180.jpg.Occupied.jpg,1403 COLLINS AVE,facing=180,39.09579,-94.52085,West Blue Valley,33,290950022001,4,3,East
1406_E_45th_St_facing=180.jpg.Occupied.jpg,Occupied,LandBank_Data\1406_E_45th_St_facing=180.jpg.Occupied.jpg,1406 E 45th St,facing=180,39.0453,-94.56752,Ivanhoe Southwest,53,290950063002,3,1,Central
1410_St_Louis_Ave_facing=60.jpg.Occupied.jpg,Occupied,LandBank_Data\1410_St_Louis_Ave_facing=60.jpg.Occupied.jpg,1410 St Louis Ave,facing=60,39.10368,-94.60166,,0,290950152001,4,1,Central
1416_DENVER_AVE_facing=90.jpg.Abandoned.jpg,Abandoned,LandBank_Data\1416_DENVER_AVE_facing=90.jpg.Abandoned.jpg,1416 DENVER AVE,facing=90,,,N/A,N/A,N/A,N/A,N/A,N/A
1500_St_Louis_Ave_facing=180.jpg.Occupied.jpg,Occupied,LandBank_Data\1500_St_Louis_Ave_facing=180.jpg.Occupied.jpg,1500 St Louis Ave,facing=180,39.10344,-94.60305,,0,290950152001,4,1,Central
1500_St_Louis_Ave_facing=60.jpg.Occupied.jpg,Occupied,LandBank_Data\1500_St_Louis_Ave_facing=60.jpg.Occupied.jpg,1500 St Louis Ave,facing=60,39.10344,-94.60305,,0,290950152001,4,1,Central
1522_CYPRESS_AVE_facing=90.jpg.Abandoned.jpg,Abandoned,LandBank_Data\1522_CYPRESS_AVE_facing=90.jpg.Abandoned.jpg,1522 CYPRESS AVE,facing=90,39.093039000000005,-94.529995,East Community Team North,29,290950023001,4,3,East
1600_NE_Parvin_Rd_facing=60.jpg.Occupied.jpg,Occupied,LandBank_Data\1600_NE_Parvin_Rd_facing=60.jpg.Occupied.jpg,1600 NE Parvin Rd,facing=60,39.167429999999996,-94.56005,Crestview,191,290470202012,4,6,Shoal Creek
1613_LAWN_AVE_facing=90.jpg.Abandoned.jpg,Abandoned,LandBank_Data\1613_LAWN_AVE_facing=90.jpg.Abandoned.jpg,1613 LAWN AVE,facing=90,,,N/A,N/A,N/A,N/A,N/A,N/A
1617_LISTER_AVE_facing=300.jpg.Abandoned.jpg,Abandoned,LandBank_Data\1617_LISTER_AVE_facing=300.jpg.Abandoned.jpg,1617 LISTER AVE,facing=300,39.091703,-94.526836,East Community Team North,29,290950022003,4,3,East
1621_Westport_Rd_facing=180.jpg.Occupied.jpg,Occupied,LandBank_Data\1621_Westport_Rd_facing=180.jpg.Occupied.jpg,1621 Westport Rd,facing=180,39.04997,-94.60523,West Plaza,83,290950071002,4,1,Central
1621_Westport_Rd_facing=60.jpg.Occupied.jpg,Occupied,LandBank_Data\1621_Westport_Rd_facing=60.jpg.Occupied.jpg,1621 Westport Rd,facing=60,39.04997,-94.60523,West Plaza,83,290950071002,4,1,Central
1623_CORRINGTON_AVE_facing=180.jpg.Occupied.jpg,Occupied,LandBank_Data\1623_CORRINGTON_AVE_facing=180.jpg.Occupied.jpg,1623 CORRINGTON AVE,facing=180,39.09145,-94.49854,Blue Valley Industrial,35,290950021001,4,3,East
1627_Topping_Ave_facing=90.jpg.Occupied.jpg,Occupied,LandBank_Data\1627_Topping_Ave_facing=90.jpg.Occupied.jpg,1627 Topping Ave,facing=90,39.09114,-94.5146,West Blue Valley,33,290950021004,4,3,East
1628_BELMONT_AVE_facing=210.jpg.Abandoned.jpg,Abandoned,LandBank_Data\1628_BELMONT_AVE_facing=210.jpg.Abandoned.jpg,1628 BELMONT AVE,facing=210,39.090963,-94.51029399999999,N/A,N/A,N/A,4,3,East
1646_Corrington_Ave_facing=180.jpg.Occupied.jpg,Occupied,LandBank_Data\1646_Corrington_Ave_facing=180.jpg.Occupied.jpg,1646 Corrington Ave,facing=180,39.09048,-94.49923000000001,Blue Valley Industrial,35,290950021001,4,3,East
1646_Corrington_Ave_facing=60.jpg.Occupied.jpg,Occupied,LandBank_Data\1646_Corrington_Ave_facing=60.jpg.Occupied.jpg,1646 Corrington Ave,facing=60,39.09048,-94.49923000000001,Blue Valley Industrial,35,290950021001,4,3,East
1707_Locust_St_facing=60.jpg.Occupied.jpg,Occupied,LandBank_Data\1707_Locust_St_facing=60.jpg.Occupied.jpg,1707 Locust St,facing=60,39.09275,-94.57741,Hospital Hill,6,290950158002,4,1,Central
1708_E_51st_St_facing=180.jpg.Occupied.jpg,Occupied,LandBank_Data\1708_E_51st_St_facing=180.jpg.Occupied.jpg,1708 E 51st St,facing=180,39.03443,-94.56472,Blue Hills,119,290950075001,5,2,Metro
1735_Euclid_Ave_facing=180.jpg.Occupied.jpg,Occupied,LandBank_Data\1735_Euclid_Ave_facing=180.jpg.Occupied.jpg,1735 Euclid Ave,facing=180,39.091879999999996,-94.55835,18th And Vine And Downtown East,26,290950161001,4,1,Central
1735_Euclid_Ave_facing=60.jpg.Occupied.jpg,Occupied,LandBank_Data\1735_Euclid_Ave_facing=60.jpg.Occupied.jpg,1735 Euclid Ave,facing=60,39.091879999999996,-94.55835,18th And Vine And Downtown East,26,290950161001,4,1,Central
1825_Askew_Ave_facing=60.jpg.Occupied.jpg,Occupied,LandBank_Data\1825_Askew_Ave_facing=60.jpg.Occupied.jpg,1825 Askew Ave,facing=60,39.08938,-94.53998,East Community Team North,29,290950160002,4,3,East
1918_E_55TH_ST_facing=180.jpg.Abandoned.jpg,Abandoned,LandBank_Data\1918_E_55TH_ST_facing=180.jpg.Abandoned.jpg,1918 E 55TH ST,facing=180,39.026779,-94.562387,Blue Hills,119,290950080001,5,2,Metro
1926_LAWN_AVE_facing=60.jpg.Occupied.jpg,Occupied,LandBank_Data\1926_LAWN_AVE_facing=60.jpg.Occupied.jpg,1926 LAWN AVE,facing=60,39.08762,-94.52842,East Community Team North,29,290950023002,3,3,East
1929_Prospect_Ave_facing=180.jpg.Abandoned.jpg,Abandoned,LandBank_Data\1929_Prospect_Ave_facing=180.jpg.Abandoned.jpg,1929 Prospect Ave,facing=180,39.088224,-94.55196600000001,Wendell Phillips,27,290950161002,3,3,East
2000_E_12TH_ST_facing=90.jpg.Occupied.jpg,Occupied,LandBank_Data\2000_E_12TH_ST_facing=90.jpg.Occupied.jpg,2000 E 12TH ST,facing=90,39.099709999999995,-94.55773,Forgotten Homes,24,290950154003,4,1,Central
2004_Walrond_Ave_facing=180.jpg.Occupied.jpg,Occupied,LandBank_Data\2004_Walrond_Ave_facing=180.jpg.Occupied.jpg,2004 Walrond Ave,facing=180,39.087790000000005,-94.54587,Washington Wheatley,28,290950160002,3,3,East
2016_E_82nd_Ter_facing=60.jpg.Occupied.jpg,Occupied,LandBank_Data\2016_E_82nd_Ter_facing=60.jpg.Occupied.jpg,2016 E 82nd Ter,facing=60,38.97785,-94.5636,Marlborough Heights/Marlborough Pride,129,290950095001,5,2,Metro
2016_E_82nd_Ter_facing=90.jpg.Occupied.jpg,Occupied,LandBank_Data\2016_E_82nd_Ter_facing=90.jpg.Occupied.jpg,2016 E 82nd Ter,facing=90,38.97785,-94.5636,Marlborough Heights/Marlborough Pride,129,290950095001,5,2,Metro
2018_E_35TH_ST_facing=90.jpg.Abandoned.jpg,Abandoned,LandBank_Data\2018_E_35TH_ST_facing=90.jpg.Abandoned.jpg,2018 E 35TH ST,facing=90,39.062822,-94.55927199999999,N/A,N/A,N/A,3,1,Central
2044_SPRUCE_AVE_facing=60.jpg.Abandoned.jpg,Abandoned,LandBank_Data\2044_SPRUCE_AVE_facing=60.jpg.Abandoned.jpg,2044 SPRUCE AVE,facing=60,39.085563,-94.532574,East Community Team North,29,290950023002,3,3,East
206_N_Wheeling_Ave_facing=180.jpg.Occupied.jpg,Occupied,LandBank_Data\206_N_Wheeling_Ave_facing=180.jpg.Occupied.jpg,206 N Wheeling Ave,facing=180,39.113170000000004,-94.51086,North Indian Mound,19,290950155002,4,3,East
206_N_Wheeling_Ave_facing=60.jpg.Occupied.jpg,Occupied,LandBank_Data\206_N_Wheeling_Ave_facing=60.jpg.Occupied.jpg,206 N Wheeling Ave,facing=60,39.113170000000004,-94.51086,North Indian Mound,19,290950155002,4,3,East
206_N_Wheeling_Ave_facing=90.jpg.Occupied.jpg,Occupied,LandBank_Data\206_N_Wheeling_Ave_facing=90.jpg.Occupied.jpg,206 N Wheeling Ave,facing=90,39.113170000000004,-94.51086,North Indian Mound,19,290950155002,4,3,East
2100_E_59th_St_facing=90.jpg.Abandoned.jpg,Abandoned,LandBank_Data\2100_E_59th_St_facing=90.jpg.Abandoned.jpg,2100 E 59th St,facing=90,39.019498999999996,-94.56134499999999,N/A,N/A,N/A,5,2,Metro
215_W_Gregory_Blvd_facing=60.jpg.Occupied.jpg,Occupied,LandBank_Data\215_W_Gregory_Blvd_facing=60.jpg.Occupied.jpg,215 W Gregory Blvd,facing=60,38.99913,-94.59241,Tower Homes,106,290950091003,6,2,Metro
2213_Wabash_Ave_facing=90.jpg.Abandoned.jpg,Abandoned,LandBank_Data\2213_Wabash_Ave_facing=90.jpg.Abandoned.jpg,2213 Wabash Ave,facing=90,39.085019,-94.553271,Wendell Phillips,27,290950161002,3,3,East
2221_E_37TH_ST_facing=90.jpg.Abandoned.jpg,Abandoned,LandBank_Data\2221_E_37TH_ST_facing=90.jpg.Abandoned.jpg,2221 E 37TH ST,facing=90,39.059507,-94.556924,Ivanhoe Northeast,55,290950055001,3,1,Central
2223_Prospect_Ave_facing=180.jpg.Occupied.jpg,Occupied,LandBank_Data\2223_Prospect_Ave_facing=180.jpg.Occupied.jpg,2223 Prospect Ave,facing=180,39.084740000000004,-94.55187,Washington Wheatley,28,290950160002,3,3,East
2303_Jackson_Ave_facing=90.jpg.Abandoned.jpg,Abandoned,LandBank_Data\2303_Jackson_Ave_facing=90.jpg.Abandoned.jpg,2303 Jackson Ave,facing=90,39.083405,-94.533748,East Community Team South,30,N/A,3,3,East
2311_Hardesty_Ave_facing=90.jpg.Abandoned.jpg,Abandoned,LandBank_Data\2311_Hardesty_Ave_facing=90.jpg.Abandoned.jpg,2311 Hardesty Ave,facing=90,39.082774,-94.519929,South Blue Valley,31,290950034001,3,3,East
2315_POPLAR_AVE_facing=180.jpg.Abandoned.jpg,Abandoned,LandBank_Data\2315_POPLAR_AVE_facing=180.jpg.Abandoned.jpg,2315 POPLAR AVE,facing=180,,,N/A,N/A,N/A,N/A,N/A,N/A
2317_CHELSEA_AVE_facing=210.jpg.Abandoned.jpg,Abandoned,LandBank_Data\2317_CHELSEA_AVE_facing=210.jpg.Abandoned.jpg,2317 CHELSEA AVE,facing=210,,,N/A,N/A,N/A,N/A,N/A,N/A
2317_CHELSEA_AVE_facing=60.jpg.Abandoned.jpg,Abandoned,LandBank_Data\2317_CHELSEA_AVE_facing=60.jpg.Abandoned.jpg,2317 CHELSEA AVE,facing=60,,,N/A,N/A,N/A,N/A,N/A,N/A
2325_JACKSON_AVE_facing=180.jpg.Abandoned.jpg,Abandoned,LandBank_Data\2325_JACKSON_AVE_facing=180.jpg.Abandoned.jpg,2325 JACKSON AVE,facing=180,,,N/A,N/A,N/A,N/A,N/A,N/A
2325_JACKSON_AVE_facing=210.jpg.Abandoned.jpg,Abandoned,LandBank_Data\2325_JACKSON_AVE_facing=210.jpg.Abandoned.jpg,2325 JACKSON AVE,facing=210,,,N/A,N/A,N/A,N/A,N/A,N/A
2325_JACKSON_AVE_facing=60.jpg.Abandoned.jpg,Abandoned,LandBank_Data\2325_JACKSON_AVE_facing=60.jpg.Abandoned.jpg,2325 JACKSON AVE,facing=60,,,N/A,N/A,N/A,N/A,N/A,N/A
2325_JACKSON_AVE_facing=90.jpg.Abandoned.jpg,Abandoned,LandBank_Data\2325_JACKSON_AVE_facing=90.jpg.Abandoned.jpg,2325 JACKSON AVE,facing=90,,,N/A,N/A,N/A,N/A,N/A,N/A
2404_Monroe_Ave_facing=210.jpg.Abandoned.jpg,Abandoned,LandBank_Data\2404_Monroe_Ave_facing=210.jpg.Abandoned.jpg,2404 Monroe Ave,facing=210,39.082547,-94.539503,East Community Team South,30,290950165001,3,3,East
2412_Spruce_Ave_facing=300.jpg.Abandoned.jpg,Abandoned,LandBank_Data\2412_Spruce_Ave_facing=300.jpg.Abandoned.jpg,2412 Spruce Ave,facing=300,39.081623,-94.53279,East Community Team South,30,290950034004,3,3,East
2412_Spruce_Ave_facing=90.jpg.Abandoned.jpg,Abandoned,LandBank_Data\2412_Spruce_Ave_facing=90.jpg.Abandoned.jpg,2412 Spruce Ave,facing=90,39.081623,-94.53279,East Community Team South,30,290950034004,3,3,East
2423_Montgall_Ave_facing=90.jpg.Abandoned.jpg,Abandoned,LandBank_Data\2423_Montgall_Ave_facing=90.jpg.Abandoned.jpg,2423 Montgall Ave,facing=90,39.082209999999996,-94.551066,Washington Wheatley,28,290950037001,3,3,East
2504_Topping_Ave_facing=60.jpg.Occupied.jpg,Occupied,LandBank_Data\2504_Topping_Ave_facing=60.jpg.Occupied.jpg,2504 Topping Ave,facing=60,39.07907,-94.51584,South Blue Valley,31,290950034001,3,3,East
2504_Topping_Ave_facing=90.jpg.Occupied.jpg,Occupied,LandBank_Data\2504_Topping_Ave_facing=90.jpg.Occupied.jpg,2504 Topping Ave,facing=90,39.07907,-94.51584,South Blue Valley,31,290950034001,3,3,East
2508_E_46TH_ST_facing=90.jpg.Abandoned.jpg,Abandoned,LandBank_Data\2508_E_46TH_ST_facing=90.jpg.Abandoned.jpg,2508 E 46TH ST,facing=90,39.042840000000005,-94.55495400000001,Ivanhoe Southeast,54,290950063002,3,1,Central
2508_MYRTLE_AVE_facing=90.jpg.Abandoned.jpg,Abandoned,LandBank_Data\2508_MYRTLE_AVE_facing=90.jpg.Abandoned.jpg,2508 MYRTLE AVE,facing=90,39.079784000000004,-94.536238,East Community Team South,30,290950165001,3,3,East
2511_E_37th_St_facing=60.jpg.Occupied.jpg,Occupied,LandBank_Data\2511_E_37th_St_facing=60.jpg.Occupied.jpg,2511 E 37th St,facing=60,39.05918,-94.55388,Ivanhoe Northeast,55,290950055001,3,3,East
2513_Spruce_facing=60.jpg.Abandoned.jpg,Abandoned,LandBank_Data\2513_Spruce_facing=60.jpg.Abandoned.jpg,2513 Spruce,facing=60,,,N/A,N/A,N/A,N/A,N/A,N/A
2515_WALROND_AVE_facing=300.jpg.Abandoned.jpg,Abandoned,LandBank_Data\2515_WALROND_AVE_facing=300.jpg.Abandoned.jpg,2515 WALROND AVE,facing=300,,,N/A,N/A,N/A,N/A,N/A,N/A
2515_WALROND_AVE_facing=90.jpg.Abandoned.jpg,Abandoned,LandBank_Data\2515_WALROND_AVE_facing=90.jpg.Abandoned.jpg,2515 WALROND AVE,facing=90,,,N/A,N/A,N/A,N/A,N/A,N/A
2524_ELMWOOD_AVE_facing=90.jpg.Abandoned.jpg,Abandoned,LandBank_Data\2524_ELMWOOD_AVE_facing=90.jpg.Abandoned.jpg,2524 ELMWOOD AVE,facing=90,39.079133,-94.529772,East Community Team South,30,290950034004,3,3,East
2528_Park_Ave_facing=60.jpg.Occupied.jpg,Occupied,LandBank_Data\2528_Park_Ave_facing=60.jpg.Occupied.jpg,2528 Park Ave,facing=60,39.07976,-94.55614,Wendell Phillips,27,290950166001,3,1,Central
2528_Park_Ave_facing=90.jpg.Occupied.jpg,Occupied,LandBank_Data\2528_Park_Ave_facing=90.jpg.Occupied.jpg,2528 Park Ave,facing=90,39.07976,-94.55614,Wendell Phillips,27,290950166001,3,1,Central
2531_Prospect_Ave_facing=60.jpg.Occupied.jpg,Occupied,LandBank_Data\2531_Prospect_Ave_facing=60.jpg.Occupied.jpg,2531 Prospect Ave,facing=60,39.07949,-94.55202,Washington Wheatley,28,290950037001,3,3,East
2531_Prospect_Ave_facing=90.jpg.Occupied.jpg,Occupied,LandBank_Data\2531_Prospect_Ave_facing=90.jpg.Occupied.jpg,2531 Prospect Ave,facing=90,39.07949,-94.55202,Washington Wheatley,28,290950037001,3,3,East
2535_Flora_Ave_facing=180.jpg.Occupied.jpg,Occupied,LandBank_Data\2535_Flora_Ave_facing=180.jpg.Occupied.jpg,2535 Flora Ave,facing=180,39.07963,-94.56464,Wendell Phillips,27,290950162002,3,1,Central
2539_AGNES_AVE_facing=180.jpg.Occupied.jpg,Occupied,LandBank_Data\2539_AGNES_AVE_facing=180.jpg.Occupied.jpg,2539 AGNES AVE,facing=180,39.07902,-94.54738,Washington Wheatley,28,290950037001,3,3,East
2605_E_24TH_TER_facing=60.jpg.Occupied.jpg,Occupied,LandBank_Data\2605_E_24TH_TER_facing=60.jpg.Occupied.jpg,2605 E 24TH TER,facing=60,39.08167,-94.55181,Washington Wheatley,28,290950037001,3,3,East
2606_Bales_Ave_facing=60.jpg.Abandoned.jpg,Abandoned,LandBank_Data\2606_Bales_Ave_facing=60.jpg.Abandoned.jpg,2606 Bales Ave,facing=60,39.078198,-94.542063,Washington Wheatley,28,290950165003,3,3,East
2611_CYPRESS_AVE_facing=90.jpg.Abandoned.jpg,Abandoned,LandBank_Data\2611_CYPRESS_AVE_facing=90.jpg.Abandoned.jpg,2611 CYPRESS AVE,facing=90,39.077828000000004,-94.530884,East Community Team South,30,290950034004,3,3,East
2611_E_27th_St_facing=180.jpg.Occupied.jpg,Occupied,LandBank_Data\2611_E_27th_St_facing=180.jpg.Occupied.jpg,2611 E 27th St,facing=180,39.07676,-94.55195,Santa Fe,57,290950038001,3,3,East
2616_Spruce_Ave_facing=90.jpg.Abandoned.jpg,Abandoned,LandBank_Data\2616_Spruce_Ave_facing=90.jpg.Abandoned.jpg,2616 Spruce Ave,facing=90,39.077646,-94.532976,East Community Team South,30,290950034004,3,3,East
2623_BELLEFONTAINE_AVE_facing=300.jpg.Abandoned.jpg,Abandoned,LandBank_Data\2623_BELLEFONTAINE_AVE_facing=300.jpg.Abandoned.jpg,2623 BELLEFONTAINE AVE,facing=300,,,N/A,N/A,N/A,N/A,N/A,N/A
2629_Drury_Ave_facing=300.jpg.Abandoned.jpg,Abandoned,LandBank_Data\2629_Drury_Ave_facing=300.jpg.Abandoned.jpg,2629 Drury Ave,facing=300,39.076708,-94.51906899999999,South Blue Valley,31,290950034001,3,3,East
2640_Askew_Ave_facing=60.jpg.Abandoned.jpg,Abandoned,LandBank_Data\2640_Askew_Ave_facing=60.jpg.Abandoned.jpg,2640 Askew Ave,facing=60,39.077051000000004,-94.54099699999999,Washington Wheatley,28,290950165003,3,3,East
2643_MONTGALL_AVE_facing=90.jpg.Abandoned.jpg,Abandoned,LandBank_Data\2643_MONTGALL_AVE_facing=90.jpg.Abandoned.jpg,2643 MONTGALL AVE,facing=90,39.077315000000006,-94.551302,Washington Wheatley,28,290950037001,3,3,East
2704_E_LINWOOD_BLVD_facing=180.jpg.Occupied.jpg,Occupied,LandBank_Data\2704_E_LINWOOD_BLVD_facing=180.jpg.Occupied.jpg,2704 E LINWOOD BLVD,facing=180,39.06834,-94.55119,Santa Fe,57,290950056011,3,3,East
2706_Independence_Blvd_facing=60.jpg.Occupied.jpg,Occupied,LandBank_Data\2706_Independence_Blvd_facing=60.jpg.Occupied.jpg,2706 Independence Blvd,facing=60,39.106629999999996,-94.54876999999999,Pendleton Heights,15,290950010002,4,1,Central
2714_CYPRESS_AVE_facing=180.jpg.Abandoned.jpg,Abandoned,LandBank_Data\2714_CYPRESS_AVE_facing=180.jpg.Abandoned.jpg,2714 CYPRESS AVE,facing=180,39.075713,-94.530557,East Community Team South,30,290950164002,3,3,East
2714_KENSINGTON_AVE_facing=60.jpg.Abandoned.jpg,Abandoned,LandBank_Data\2714_KENSINGTON_AVE_facing=60.jpg.Abandoned.jpg,2714 KENSINGTON AVE,facing=60,39.075738,-94.5315,East Community Team South,30,290950164002,3,3,East
2719_OLIVE_ST_facing=60.jpg.Occupied.jpg,Occupied,LandBank_Data\2719_OLIVE_ST_facing=60.jpg.Occupied.jpg,2719 OLIVE ST,facing=60,39.07646,-94.55449,Key Coalition,56,290950166002,3,1,Central
2719_OLIVE_ST_facing=90.jpg.Occupied.jpg,Occupied,LandBank_Data\2719_OLIVE_ST_facing=90.jpg.Occupied.jpg,2719 OLIVE ST,facing=90,39.07646,-94.55449,Key Coalition,56,290950166002,3,1,Central
2730_Brighton_Ave_facing=90.jpg.Abandoned.jpg,Abandoned,LandBank_Data\2730_Brighton_Ave_facing=90.jpg.Abandoned.jpg,2730 Brighton Ave,facing=90,39.07502,-94.525035,East Community Team South,30,290950164002,3,3,East
2732_Spruce_Ave_facing=60.jpg.Occupied.jpg,Occupied,LandBank_Data\2732_Spruce_Ave_facing=60.jpg.Occupied.jpg,2732 Spruce Ave,facing=60,39.07522,-94.53356,East Community Team South,30,290950164002,3,3,East
2732_Spruce_Ave_facing=90.jpg.Occupied.jpg,Occupied,LandBank_Data\2732_Spruce_Ave_facing=90.jpg.Occupied.jpg,2732 Spruce Ave,facing=90,39.07522,-94.53356,East Community Team South,30,290950164002,3,3,East
2736_BROOKLYN_AVE_facing=180.jpg.Occupied.jpg,Occupied,LandBank_Data\2736_BROOKLYN_AVE_facing=180.jpg.Occupied.jpg,2736 BROOKLYN AVE,facing=180,39.07593,-94.55754,Key Coalition,56,290950166002,3,1,Central
2736_BROOKLYN_AVE_facing=60.jpg.Occupied.jpg,Occupied,LandBank_Data\2736_BROOKLYN_AVE_facing=60.jpg.Occupied.jpg,2736 BROOKLYN AVE,facing=60,39.07593,-94.55754,Key Coalition,56,290950166002,3,1,Central
2736_BROOKLYN_AVE_facing=90.jpg.Occupied.jpg,Occupied,LandBank_Data\2736_BROOKLYN_AVE_facing=90.jpg.Occupied.jpg,2736 BROOKLYN AVE,facing=90,39.07593,-94.55754,Key Coalition,56,290950166002,3,1,Central
2736_Brooklyn_facing=180.jpg.Abandoned.jpg,Abandoned,LandBank_Data\2736_Brooklyn_facing=180.jpg.Abandoned.jpg,2736 Brooklyn,facing=180,,,N/A,N/A,N/A,N/A,N/A,N/A
2744_MERSINGTON_AVE_facing=60.jpg.Abandoned.jpg,Abandoned,LandBank_Data\2744_MERSINGTON_AVE_facing=60.jpg.Abandoned.jpg,2744 MERSINGTON AVE,facing=60,39.074962,-94.537586,Ingleside,63,290950165002,3,3,East
2801_E_39th_St_facing=90.jpg.Abandoned.jpg,Abandoned,LandBank_Data\2801_E_39th_St_facing=90.jpg.Abandoned.jpg,2801 E 39th St,facing=90,39.055359,-94.55118900000001,Oak Park Northwest,58,N/A,3,3,East
2801_Holmes_St_facing=60.jpg.Occupied.jpg,Occupied,LandBank_Data\2801_Holmes_St_facing=60.jpg.Occupied.jpg,2801 Holmes St,facing=60,39.075309999999995,-94.57601,Longfellow,12,290950043002,4,1,Central
2805_SPRUCE_AVE_facing=90.jpg.Abandoned.jpg,Abandoned,LandBank_Data\2805_SPRUCE_AVE_facing=90.jpg.Abandoned.jpg,2805 SPRUCE AVE,facing=90,39.074409,-94.533323,East Community Team South,30,290950164002,3,3,East
2826_ELMWOOD_AVE_facing=180.jpg.Abandoned.jpg,Abandoned,LandBank_Data\2826_ELMWOOD_AVE_facing=180.jpg.Abandoned.jpg,2826 ELMWOOD AVE,facing=180,,,N/A,N/A,N/A,N/A,N/A,N/A
2855_Southwest_Blvd_facing=90.jpg.Occupied.jpg,Occupied,LandBank_Data\2855_Southwest_Blvd_facing=90.jpg.Occupied.jpg,2855 Southwest Blvd,facing=90,39.07544,-94.60255,Westside South,9,290950153002,4,1,Central
2905_OAKLEY_AVE_facing=90.jpg.Abandoned.jpg,Abandoned,LandBank_Data\2905_OAKLEY_AVE_facing=90.jpg.Abandoned.jpg,2905 OAKLEY AVE,facing=90,39.072177,-94.518151,South Blue Valley,31,290950164002,3,3,East
2916_E_40th_St_facing=60.jpg.Abandoned.jpg,Abandoned,LandBank_Data\2916_E_40th_St_facing=60.jpg.Abandoned.jpg,2916 E 40th St,facing=60,39.053490000000004,-94.54938100000001,Oak Park Southwest,59,290950061001,3,3,East
2922_Highland_Ave_facing=90.jpg.Occupied.jpg,Occupied,LandBank_Data\2922_Highland_Ave_facing=90.jpg.Occupied.jpg,2922 Highland Ave,facing=90,39.07294,-94.56344,Mount Hope,51,290950162002,3,1,Central
2929_PARK_AVE_facing=300.jpg.Abandoned.jpg,Abandoned,LandBank_Data\2929_PARK_AVE_facing=300.jpg.Abandoned.jpg,2929 PARK AVE,facing=300,39.0726,-94.556168,Key Coalition,56,290950166002,3,1,Central
2939_WABASH_AVE_facing=90.jpg.Abandoned.jpg,Abandoned,LandBank_Data\2939_WABASH_AVE_facing=90.jpg.Abandoned.jpg,2939 WABASH AVE,facing=90,,,N/A,N/A,N/A,N/A,N/A,N/A
3001_CYPRESS_AVE_facing=90.jpg.Abandoned.jpg,Abandoned,LandBank_Data\3001_CYPRESS_AVE_facing=90.jpg.Abandoned.jpg,3001 CYPRESS AVE,facing=90,39.070814,-94.530695,Knoches Park,64,290950164001,3,3,East
3009_AGNES_AVE_facing=120.jpg.Abandoned.jpg,Abandoned,LandBank_Data\3009_AGNES_AVE_facing=120.jpg.Abandoned.jpg,3009 AGNES AVE,facing=120,39.070995,-94.548164,Santa Fe,57,290950038002,3,3,East
3011_MONTGALL_AVE_facing=90.jpg.Abandoned.jpg,Abandoned,LandBank_Data\3011_MONTGALL_AVE_facing=90.jpg.Abandoned.jpg,3011 MONTGALL AVE,facing=90,,,N/A,N/A,N/A,N/A,N/A,N/A
3012_Cleveland_Ave_facing=180.jpg.Abandoned.jpg,Abandoned,LandBank_Data\3012_Cleveland_Ave_facing=180.jpg.Abandoned.jpg,3012 Cleveland Ave,facing=180,,,N/A,N/A,N/A,N/A,N/A,N/A
3014_POPLAR_AVE_facing=180.jpg.Abandoned.jpg,Abandoned,LandBank_Data\3014_POPLAR_AVE_facing=180.jpg.Abandoned.jpg,3014 POPLAR AVE,facing=180,,,N/A,N/A,N/A,N/A,N/A,N/A
3014_POPLAR_AVE_facing=60.jpg.Abandoned.jpg,Abandoned,LandBank_Data\3014_POPLAR_AVE_facing=60.jpg.Abandoned.jpg,3014 POPLAR AVE,facing=60,,,N/A,N/A,N/A,N/A,N/A,N/A
3017_E_60TH_ST_facing=210.jpg.Abandoned.jpg,Abandoned,LandBank_Data\3017_E_60TH_ST_facing=210.jpg.Abandoned.jpg,3017 E 60TH ST,facing=210,39.017444,-94.550211,South Town Fork Creek,117,290950079004,5,2,Metro
301_NE_115th_St_facing=60.jpg.Occupied.jpg,Occupied,LandBank_Data\301_NE_115th_St_facing=60.jpg.Occupied.jpg,301 NE 115th St,facing=60,39.30194,-94.57651,Meadowbrook Heights,234,290470213053,2,4,North
301_NE_115th_St_facing=90.jpg.Occupied.jpg,Occupied,LandBank_Data\301_NE_115th_St_facing=90.jpg.Occupied.jpg,301 NE 115th St,facing=90,39.30194,-94.57651,Meadowbrook Heights,234,290470213053,2,4,North
301_W_Blue_Ridge_Blvd_facing=180.jpg.Occupied.jpg,Occupied,LandBank_Data\301_W_Blue_Ridge_Blvd_facing=180.jpg.Occupied.jpg,301 W Blue Ridge Blvd,facing=180,38.8898,-94.59692,Martin City,184,290950134052,6,5,South
3021_Woodland_Avenue_facing=60.jpg.Abandoned.jpg,Abandoned,LandBank_Data\3021_Woodland_Avenue_facing=60.jpg.Abandoned.jpg,3021 Woodland Avenue,facing=60,39.071246,-94.562026,N/A,N/A,290950166002,3,1,Central
3027_E_27th_St_facing=60.jpg.Occupied.jpg,Occupied,LandBank_Data\3027_E_27th_St_facing=60.jpg.Occupied.jpg,3027 E 27th St,facing=60,39.07658,-94.54661,Santa Fe,57,290950038001,3,3,East
3033_E_59th_St_facing=300.jpg.Abandoned.jpg,Abandoned,LandBank_Data\3033_E_59th_St_facing=300.jpg.Abandoned.jpg,3033 E 59th St,facing=300,39.019087,-94.549581,N/A,N/A,N/A,5,2,Metro
305_BELLAIRE_AVE_facing=90.jpg.Abandoned.jpg,Abandoned,LandBank_Data\305_BELLAIRE_AVE_facing=90.jpg.Abandoned.jpg,305 BELLAIRE AVE,facing=90,39.110269,-94.513191,South Indian Mound,20,290950155002,4,3,East
308_Drury_Ave_facing=60.jpg.Occupied.jpg,Occupied,LandBank_Data\308_Drury_Ave_facing=60.jpg.Occupied.jpg,308 Drury Ave,facing=60,39.110279999999996,-94.51798000000001,South Indian Mound,20,290950006002,4,3,East
309_Lydia_Ave_facing=60.jpg.Occupied.jpg,Occupied,LandBank_Data\309_Lydia_Ave_facing=60.jpg.Occupied.jpg,309 Lydia Ave,facing=60,39.11224,-94.56536,Columbus Park,14,290950003001,4,1,Central
3108_NE_39th_St_facing=60.jpg.Occupied.jpg,Occupied,LandBank_Data\3108_NE_39th_St_facing=60.jpg.Occupied.jpg,3108 NE 39th St,facing=60,39.1654,-94.54302,Chaumiere,194,290470205001,1,6,Shoal Creek
3108_NE_39th_St_facing=90.jpg.Occupied.jpg,Occupied,LandBank_Data\3108_NE_39th_St_facing=90.jpg.Occupied.jpg,3108 NE 39th St,facing=90,39.1654,-94.54302,Chaumiere,194,290470205001,1,6,Shoal Creek
3114_CHELSEA_AVE_facing=90.jpg.Abandoned.jpg,Abandoned,LandBank_Data\3114_CHELSEA_AVE_facing=90.jpg.Abandoned.jpg,3114 CHELSEA AVE,facing=90,39.068424,-94.527824,Knoches Park,64,290950058013,3,3,East
3130_Troost_Ave_facing=90.jpg.Occupied.jpg,Occupied,LandBank_Data\3130_Troost_Ave_facing=90.jpg.Occupied.jpg,3130 Troost Ave,facing=90,39.06945,-94.5717,North Hyde Park,76,290950178003,4,1,Central
3142_Troost_Ave_facing=180.jpg.Occupied.jpg,Occupied,LandBank_Data\3142_Troost_Ave_facing=180.jpg.Occupied.jpg,3142 Troost Ave,facing=180,39.06917,-94.5718,North Hyde Park,76,290950178003,4,1,Central
3142_Troost_Ave_facing=60.jpg.Occupied.jpg,Occupied,LandBank_Data\3142_Troost_Ave_facing=60.jpg.Occupied.jpg,3142 Troost Ave,facing=60,39.06917,-94.5718,North Hyde Park,76,290950178003,4,1,Central
3144_TROOST_AVE_facing=180.jpg.Occupied.jpg,Occupied,LandBank_Data\3144_TROOST_AVE_facing=180.jpg.Occupied.jpg,3144 TROOST AVE,facing=180,39.06917,-94.5718,North Hyde Park,76,290950178003,4,1,Central
3200_E_28TH_ST_facing=90.jpg.Abandoned.jpg,Abandoned,LandBank_Data\3200_E_28TH_ST_facing=90.jpg.Abandoned.jpg,3200 E 28TH ST,facing=90,39.074611,-94.545816,Santa Fe,57,290950038001,3,3,East
3201_BRIGHTON_AVE_facing=90.jpg.Occupied.jpg,Occupied,LandBank_Data\3201_BRIGHTON_AVE_facing=90.jpg.Occupied.jpg,3201 BRIGHTON AVE,facing=90,35.79752,-103.89058,N/A,N/A,N/A,N/A,N/A,N/A
3205_COLLEGE_AVE_facing=90.jpg.Abandoned.jpg,Abandoned,LandBank_Data\3205_COLLEGE_AVE_facing=90.jpg.Abandoned.jpg,3205 COLLEGE AVE,facing=90,,,N/A,N/A,N/A,N/A,N/A,N/A
3208_Spruce_Ave_facing=180.jpg.Abandoned.jpg,Abandoned,LandBank_Data\3208_Spruce_Ave_facing=180.jpg.Abandoned.jpg,3208 Spruce Ave,facing=180,39.066946,-94.533405,Knoches Park,64,290950058012,3,3,East
3211_E_33RD_ST_facing=180.jpg.Abandoned.jpg,Abandoned,LandBank_Data\3211_E_33RD_ST_facing=180.jpg.Abandoned.jpg,3211 E 33RD ST,facing=180,,,N/A,N/A,N/A,N/A,N/A,N/A
3213_E_59th_St_facing=180.jpg.Occupied.jpg,Occupied,LandBank_Data\3213_E_59th_St_facing=180.jpg.Occupied.jpg,3213 E 59th St,facing=180,39.01879,-94.54796,South Town Fork Creek,117,290950079005,5,2,Metro
3222_COLLEGE_AVE_facing=210.jpg.Abandoned.jpg,Abandoned,LandBank_Data\3222_COLLEGE_AVE_facing=210.jpg.Abandoned.jpg,3222 COLLEGE AVE,facing=210,,,N/A,N/A,N/A,N/A,N/A,N/A
3222_COLLEGE_AVE_facing=60.jpg.Abandoned.jpg,Abandoned,LandBank_Data\3222_COLLEGE_AVE_facing=60.jpg.Abandoned.jpg,3222 COLLEGE AVE,facing=60,,,N/A,N/A,N/A,N/A,N/A,N/A
3222_COLLEGE_AVE_facing=90.jpg.Abandoned.jpg,Abandoned,LandBank_Data\3222_COLLEGE_AVE_facing=90.jpg.Abandoned.jpg,3222 COLLEGE AVE,facing=90,,,N/A,N/A,N/A,N/A,N/A,N/A
3222_E_Linwood_Blvd_facing=300.jpg.Abandoned.jpg,Abandoned,LandBank_Data\3222_E_Linwood_Blvd_facing=300.jpg.Abandoned.jpg,3222 E Linwood Blvd,facing=300,39.067783,-94.545022,N/A,N/A,290950056012,3,3,East
3222_E_Linwood_Blvd_facing=90.jpg.Abandoned.jpg,Abandoned,LandBank_Data\3222_E_Linwood_Blvd_facing=90.jpg.Abandoned.jpg,3222 E Linwood Blvd,facing=90,39.067783,-94.545022,N/A,N/A,290950056012,3,3,East
3228_COLLEGE_AVE_facing=90.jpg.Abandoned.jpg,Abandoned,LandBank_Data\3228_COLLEGE_AVE_facing=90.jpg.Abandoned.jpg,3228 COLLEGE AVE,facing=90,,,N/A,N/A,N/A,N/A,N/A,N/A
3230_Troost_Ave_facing=180.jpg.Occupied.jpg,Occupied,LandBank_Data\3230_Troost_Ave_facing=180.jpg.Occupied.jpg,3230 Troost Ave,facing=180,39.06729,-94.57188000000001,North Hyde Park,76,290950178003,4,1,Central
3230_Troost_Ave_facing=60.jpg.Occupied.jpg,Occupied,LandBank_Data\3230_Troost_Ave_facing=60.jpg.Occupied.jpg,3230 Troost Ave,facing=60,39.06729,-94.57188000000001,North Hyde Park,76,290950178003,4,1,Central
3237_PARK_AVE_facing=180.jpg.Abandoned.jpg,Abandoned,LandBank_Data\3237_PARK_AVE_facing=180.jpg.Abandoned.jpg,3237 PARK AVE,facing=180,,,N/A,N/A,N/A,N/A,N/A,N/A
3250_N_Ameristar_Dr_facing=60.jpg.Occupied.jpg,Occupied,LandBank_Data\3250_N_Ameristar_Dr_facing=60.jpg.Occupied.jpg,3250 N Ameristar Dr,facing=60,39.15307,-94.48325,Birmingham Bottoms,213,290470222002,1,6,Shoal Creek
3303_E_27th_ST_facing=180.jpg.Abandoned.jpg,Abandoned,LandBank_Data\3303_E_27th_ST_facing=180.jpg.Abandoned.jpg,3303 E 27th ST,facing=180,39.076811,-94.54414200000001,N/A,N/A,N/A,3,3,East
3307_BALES_facing=90.jpg.Abandoned.jpg,Abandoned,LandBank_Data\3307_BALES_facing=90.jpg.Abandoned.jpg,3307 BALES,facing=90,39.065658,-94.54279,Palestine West And Oak Park Northeast,61,290950057004,3,3,East
3307_PARK_AVE_facing=90.jpg.Abandoned.jpg,Abandoned,LandBank_Data\3307_PARK_AVE_facing=90.jpg.Abandoned.jpg,3307 PARK AVE,facing=90,39.066009,-94.556501,Key Coalition,56,290950054001,3,1,Central
3309_E_62ND_ST_facing=60.jpg.Occupied.jpg,Occupied,LandBank_Data\3309_E_62ND_ST_facing=60.jpg.Occupied.jpg,3309 E 62ND ST,facing=60,39.01363,-94.54748000000001,South Town Fork Creek,117,290950079005,5,2,Metro
3312_Norton_Ave_facing=300.jpg.Abandoned.jpg,Abandoned,LandBank_Data\3312_Norton_Ave_facing=300.jpg.Abandoned.jpg,3312 Norton Ave,facing=300,39.065165,-94.53580799999999,Palestine East,62,290950057001,3,3,East
3314_Spruce_Ave_facing=60.jpg.Occupied.jpg,Occupied,LandBank_Data\3314_Spruce_Ave_facing=60.jpg.Occupied.jpg,3314 Spruce Ave,facing=60,39.06507,-94.53383000000001,Knoches Park,64,290950058012,3,3,East
3315_SPRUCE_AVE_facing=90.jpg.Abandoned.jpg,Abandoned,LandBank_Data\3315_SPRUCE_AVE_facing=90.jpg.Abandoned.jpg,3315 SPRUCE AVE,facing=90,,,N/A,N/A,N/A,N/A,N/A,N/A
3318_GARFIELD_AVE_facing=90.jpg.Abandoned.jpg,Abandoned,LandBank_Data\3318_GARFIELD_AVE_facing=90.jpg.Abandoned.jpg,3318 GARFIELD AVE,facing=90,39.065652,-94.558848,Key Coalition,56,290950054001,3,1,Central
3325_Chestnut_Ave_facing=60.jpg.Occupied.jpg,Occupied,LandBank_Data\3325_Chestnut_Ave_facing=60.jpg.Occupied.jpg,3325 Chestnut Ave,facing=60,39.0653,-94.55044000000001,Oak Park Northwest,58,290950056011,3,3,East
3325_Chestnut_Ave_facing=90.jpg.Occupied.jpg,Occupied,LandBank_Data\3325_Chestnut_Ave_facing=90.jpg.Occupied.jpg,3325 Chestnut Ave,facing=90,39.0653,-94.55044000000001,Oak Park Northwest,58,290950056011,3,3,East
3330_Park_Ave_facing=60.jpg.Occupied.jpg,Occupied,LandBank_Data\3330_Park_Ave_facing=60.jpg.Occupied.jpg,3330 Park Ave,facing=60,39.06524,-94.55689,Key Coalition,56,290950054001,3,1,Central
3331_COLLEGE_AVE_facing=90.jpg.Abandoned.jpg,Abandoned,LandBank_Data\3331_COLLEGE_AVE_facing=90.jpg.Abandoned.jpg,3331 COLLEGE AVE,facing=90,,,N/A,N/A,N/A,N/A,N/A,N/A
3331_PARK_AVE_facing=90.jpg.Abandoned.jpg,Abandoned,LandBank_Data\3331_PARK_AVE_facing=90.jpg.Abandoned.jpg,3331 PARK AVE,facing=90,39.065262,-94.55655,Key Coalition,56,290950054001,3,1,Central
3343_Woodland_facing=90.jpg.Abandoned.jpg,Abandoned,LandBank_Data\3343_Woodland_facing=90.jpg.Abandoned.jpg,3343 Woodland,facing=90,39.064909,-94.562359,Linwood Homeowners-Ivanhoe,52,N/A,3,1,Central
3345_Chestnut_Ave_facing=90.jpg.Abandoned.jpg,Abandoned,LandBank_Data\3345_Chestnut_Ave_facing=90.jpg.Abandoned.jpg,3345 Chestnut Ave,facing=90,39.064628000000006,-94.550801,Oak Park Northwest,58,290950056011,3,3,East
3401_E_62nd_St_facing=180.jpg.Occupied.jpg,Occupied,LandBank_Data\3401_E_62nd_St_facing=180.jpg.Occupied.jpg,3401 E 62nd St,facing=180,39.01358,-94.54661999999999,South Town Fork Creek,117,290950079005,5,2,Metro
3401_E_62nd_St_facing=60.jpg.Occupied.jpg,Occupied,LandBank_Data\3401_E_62nd_St_facing=60.jpg.Occupied.jpg,3401 E 62nd St,facing=60,39.01358,-94.54661999999999,South Town Fork Creek,117,290950079005,5,2,Metro
3414_E_27TH_ST_facing=60.jpg.Occupied.jpg,Occupied,LandBank_Data\3414_E_27TH_ST_facing=60.jpg.Occupied.jpg,3414 E 27TH ST,facing=60,39.07692,-94.54253,Washington Wheatley,28,290950165003,3,3,East
3417_Highland_Ave_facing=300.jpg.Abandoned.jpg,Abandoned,LandBank_Data\3417_Highland_Ave_facing=300.jpg.Abandoned.jpg,3417 Highland Ave,facing=300,39.064001,-94.563507,Linwood Homeowners-Ivanhoe,52,290950052001,3,1,Central
3423_Brooklyn_Ave_facing=90.jpg.Abandoned.jpg,Abandoned,LandBank_Data\3423_Brooklyn_Ave_facing=90.jpg.Abandoned.jpg,3423 Brooklyn Ave,facing=90,39.063748,-94.557792,Key Coalition,56,290950054001,3,1,Central
3429_Chestnut_Ave_facing=180.jpg.Abandoned.jpg,Abandoned,LandBank_Data\3429_Chestnut_Ave_facing=180.jpg.Abandoned.jpg,3429 Chestnut Ave,facing=180,39.063259,-94.550865,Oak Park Northwest,58,290950056011,3,3,East
3429_Woodland_Ave_facing=90.jpg.Abandoned.jpg,Abandoned,LandBank_Data\3429_Woodland_Ave_facing=90.jpg.Abandoned.jpg,3429 Woodland Ave,facing=90,39.063639,-94.562431,Linwood Homeowners-Ivanhoe,52,N/A,3,1,Central
3431_JACKSON_AVE_facing=90.jpg.Abandoned.jpg,Abandoned,LandBank_Data\3431_JACKSON_AVE_facing=90.jpg.Abandoned.jpg,3431 JACKSON AVE,facing=90,39.062778,-94.534769,N/A,N/A,N/A,3,3,East
3435_HOLMES_ST_facing=60.jpg.Occupied.jpg,Occupied,LandBank_Data\3435_HOLMES_ST_facing=60.jpg.Occupied.jpg,3435 HOLMES ST,facing=60,39.064440000000005,-94.57596,North Hyde Park,76,290950178004,4,1,Central
3435_HOLMES_ST_facing=90.jpg.Occupied.jpg,Occupied,LandBank_Data\3435_HOLMES_ST_facing=90.jpg.Occupied.jpg,3435 HOLMES ST,facing=90,39.064440000000005,-94.57596,North Hyde Park,76,290950178004,4,1,Central
3440_BELLEFONTAINE_AVE_facing=60.jpg.Abandoned.jpg,Abandoned,LandBank_Data\3440_BELLEFONTAINE_AVE_facing=60.jpg.Abandoned.jpg,3440 BELLEFONTAINE AVE,facing=60,39.062745,-94.547507,Oak Park Northwest,58,290950056012,3,3,East
3508_E_36TH_ST_facing=180.jpg.Abandoned.jpg,Abandoned,LandBank_Data\3508_E_36TH_ST_facing=180.jpg.Abandoned.jpg,3508 E 36TH ST,facing=180,39.060544,-94.542475,Palestine West And Oak Park Northeast,61,290950057003,3,3,East
3515_COLLEGE_AVE_facing=60.jpg.Abandoned.jpg,Abandoned,LandBank_Data\3515_COLLEGE_AVE_facing=60.jpg.Abandoned.jpg,3515 COLLEGE AVE,facing=60,,,N/A,N/A,N/A,N/A,N/A,N/A
3524_PARK_AVE_facing=180.jpg.Occupied.jpg,Occupied,LandBank_Data\3524_PARK_AVE_facing=180.jpg.Occupied.jpg,3524 PARK AVE,facing=180,39.06198,-94.55705,Ivanhoe Northeast,55,290950055001,3,1,Central
3615_FREMONT_AVE_facing=180.jpg.Abandoned.jpg,Abandoned,LandBank_Data\3615_FREMONT_AVE_facing=180.jpg.Abandoned.jpg,3615 FREMONT AVE,facing=180,,,N/A,N/A,N/A,N/A,N/A,N/A
3618_SOUTH_BENTON_AVE_facing=90.jpg.Abandoned.jpg,Abandoned,LandBank_Data\3618_SOUTH_BENTON_AVE_facing=90.jpg.Abandoned.jpg,3618 SOUTH BENTON AVE,facing=90,39.059567,-94.549911,Oak Park Northwest,58,290950056022,3,3,East
3647_OLIVE_ST_facing=90.jpg.Abandoned.jpg,Abandoned,LandBank_Data\3647_OLIVE_ST_facing=90.jpg.Abandoned.jpg,3647 OLIVE ST,facing=90,39.059441,-94.555638,Ivanhoe Northeast,55,290950055001,3,1,Central
3700_PROSPECT_AVE_facing=60.jpg.Occupied.jpg,Occupied,LandBank_Data\3700_PROSPECT_AVE_facing=60.jpg.Occupied.jpg,3700 PROSPECT AVE,facing=60,39.05917,-94.55366,Ivanhoe Northeast,55,290950055001,3,3,East
3700_PROSPECT_AVE_facing=90.jpg.Occupied.jpg,Occupied,LandBank_Data\3700_PROSPECT_AVE_facing=90.jpg.Occupied.jpg,3700 PROSPECT AVE,facing=90,39.05917,-94.55366,Ivanhoe Northeast,55,290950055001,3,3,East
3709_Askew_Ave_facing=300.jpg.Abandoned.jpg,Abandoned,LandBank_Data\3709_Askew_Ave_facing=300.jpg.Abandoned.jpg,3709 Askew Ave,facing=300,39.058305,-94.541942,Palestine West And Oak Park Northeast,61,290950057003,3,3,East
3742_Askew_Ave_facing=60.jpg.Abandoned.jpg,Abandoned,LandBank_Data\3742_Askew_Ave_facing=60.jpg.Abandoned.jpg,3742 Askew Ave,facing=60,39.057165000000005,-94.541984,Palestine West And Oak Park Northeast,61,290950057003,3,3,East
3801_E_12th_Ter_facing=60.jpg.Occupied.jpg,Occupied,LandBank_Data\3801_E_12th_Ter_facing=60.jpg.Occupied.jpg,3801 E 12th Ter,facing=60,39.0973,-94.53749,Lykins,17,290950023001,4,3,East
3801_E_12th_Ter_facing=90.jpg.Occupied.jpg,Occupied,LandBank_Data\3801_E_12th_Ter_facing=90.jpg.Occupied.jpg,3801 E 12th Ter,facing=90,39.0973,-94.53749,Lykins,17,290950023001,4,3,East
3801_E_Gregory_Blvd_facing=180.jpg.Occupied.jpg,Occupied,LandBank_Data\3801_E_Gregory_Blvd_facing=180.jpg.Occupied.jpg,3801 E Gregory Blvd,facing=180,38.99803,-94.54243000000001,Noble And Gregory Ridge,126,290950089001,5,2,Metro
3801_E_Gregory_Blvd_facing=60.jpg.Occupied.jpg,Occupied,LandBank_Data\3801_E_Gregory_Blvd_facing=60.jpg.Occupied.jpg,3801 E Gregory Blvd,facing=60,38.99803,-94.54243000000001,Noble And Gregory Ridge,126,290950089001,5,2,Metro
3803_SOUTH_BENTON_AVE_facing=90.jpg.Abandoned.jpg,Abandoned,LandBank_Data\3803_SOUTH_BENTON_AVE_facing=90.jpg.Abandoned.jpg,3803 SOUTH BENTON AVE,facing=90,39.056981,-94.550045,Oak Park Northwest,58,290950056022,3,3,East
3806_MONTGALL_AVE_facing=300.jpg.Abandoned.jpg,Abandoned,LandBank_Data\3806_MONTGALL_AVE_facing=300.jpg.Abandoned.jpg,3806 MONTGALL AVE,facing=300,39.056891,-94.552363,Oak Park Northwest,58,290950056022,3,3,East
3807_E_68th_St_facing=180.jpg.Abandoned.jpg,Abandoned,LandBank_Data\3807_E_68th_St_facing=180.jpg.Abandoned.jpg,3807 E 68th St,facing=180,39.002815999999996,-94.542079,Foxtown East,125,290950088004,5,2,Metro
3807_E_68th_St_facing=90.jpg.Abandoned.jpg,Abandoned,LandBank_Data\3807_E_68th_St_facing=90.jpg.Abandoned.jpg,3807 E 68th St,facing=90,39.002815999999996,-94.542079,Foxtown East,125,290950088004,5,2,Metro
3813_Central_St_facing=90.jpg.Occupied.jpg,Occupied,LandBank_Data\3813_Central_St_facing=90.jpg.Occupied.jpg,3813 Central St,facing=90,39.058009999999996,-94.58915,Hanover Place,74,290950167002,4,1,Central
3816_BELLEFONTAINE_AVE_facing=60.jpg.Abandoned.jpg,Abandoned,LandBank_Data\3816_BELLEFONTAINE_AVE_facing=60.jpg.Abandoned.jpg,3816 BELLEFONTAINE AVE,facing=60,,,N/A,N/A,N/A,N/A,N/A,N/A
3817_Central_St_facing=60.jpg.Occupied.jpg,Occupied,LandBank_Data\3817_Central_St_facing=60.jpg.Occupied.jpg,3817 Central St,facing=60,39.0578,-94.58915999999999,Hanover Place,74,290950167002,4,1,Central
3819_E_9th_Ter_facing=60.jpg.Occupied.jpg,Occupied,LandBank_Data\3819_E_9th_Ter_facing=60.jpg.Occupied.jpg,3819 E 9th Ter,facing=60,39.10092,-94.53666,Lykins,17,290950019003,4,3,East
3825_CHESTNUT_AVE_facing=210.jpg.Abandoned.jpg,Abandoned,LandBank_Data\3825_CHESTNUT_AVE_facing=210.jpg.Abandoned.jpg,3825 CHESTNUT AVE,facing=210,,,N/A,N/A,N/A,N/A,N/A,N/A
3825_CHESTNUT_AVE_facing=90.jpg.Abandoned.jpg,Abandoned,LandBank_Data\3825_CHESTNUT_AVE_facing=90.jpg.Abandoned.jpg,3825 CHESTNUT AVE,facing=90,,,N/A,N/A,N/A,N/A,N/A,N/A
3825_OLIVE_ST_facing=90.jpg.Abandoned.jpg,Abandoned,LandBank_Data\3825_OLIVE_ST_facing=90.jpg.Abandoned.jpg,3825 OLIVE ST,facing=90,39.056422,-94.555743,Ivanhoe Northeast,55,290950055001,3,1,Central
3853_E_59th_St_facing=210.jpg.Abandoned.jpg,Abandoned,LandBank_Data\3853_E_59th_St_facing=210.jpg.Abandoned.jpg,3853 E 59th St,facing=210,39.018713,-94.539168,Swope Parkway-Elmwood,116,290950079001,5,2,Metro
3871_E_59TH_TER_facing=90.jpg.Abandoned.jpg,Abandoned,LandBank_Data\3871_E_59TH_TER_facing=90.jpg.Abandoned.jpg,3871 E 59TH TER,facing=90,39.017841,-94.53867199999999,Swope Parkway-Elmwood,116,290950079001,5,2,Metro
3900_BENTON_BLVD_facing=300.jpg.Abandoned.jpg,Abandoned,LandBank_Data\3900_BENTON_BLVD_facing=300.jpg.Abandoned.jpg,3900 BENTON BLVD,facing=300,39.055066,-94.546735,Oak Park Southwest,59,N/A,3,3,East
3910_E_58TH_TER_facing=180.jpg.Abandoned.jpg,Abandoned,LandBank_Data\3910_E_58TH_TER_facing=180.jpg.Abandoned.jpg,3910 E 58TH TER,facing=180,39.019753,-94.539908,Swope Parkway-Elmwood,116,290950079001,5,2,Metro
3910_E_58TH_TER_facing=90.jpg.Abandoned.jpg,Abandoned,LandBank_Data\3910_E_58TH_TER_facing=90.jpg.Abandoned.jpg,3910 E 58TH TER,facing=90,39.019753,-94.539908,Swope Parkway-Elmwood,116,290950079001,5,2,Metro
3911_E_60th_Ter_facing=300.jpg.Abandoned.jpg,Abandoned,LandBank_Data\3911_E_60th_Ter_facing=300.jpg.Abandoned.jpg,3911 E 60th Ter,facing=300,39.016126,-94.538044,Swope Parkway-Elmwood,116,290950079001,5,2,Metro
3924_SPRUCE_AVE_facing=180.jpg.Abandoned.jpg,Abandoned,LandBank_Data\3924_SPRUCE_AVE_facing=180.jpg.Abandoned.jpg,3924 SPRUCE AVE,facing=180,39.053621,-94.53406899999999,Vineyard Northwest,48,290950171004,3,3,East
3927_Cleveland_Ave_facing=60.jpg.Abandoned.jpg,Abandoned,LandBank_Data\3927_Cleveland_Ave_facing=60.jpg.Abandoned.jpg,3927 Cleveland Ave,facing=60,39.053884000000004,-94.539835,N/A,N/A,N/A,3,3,East
3929_E_58th_St_facing=210.jpg.Abandoned.jpg,Abandoned,LandBank_Data\3929_E_58th_St_facing=210.jpg.Abandoned.jpg,3929 E 58th St,facing=210,39.020542,-94.53966700000001,Swope Parkway-Elmwood,116,290950079001,5,2,Metro
4016_HIGHLAND_AVE_facing=90.jpg.Abandoned.jpg,Abandoned,LandBank_Data\4016_HIGHLAND_AVE_facing=90.jpg.Abandoned.jpg,4016 HIGHLAND AVE,facing=90,,,N/A,N/A,N/A,N/A,N/A,N/A
4030_AGNES_AVE_facing=90.jpg.Abandoned.jpg,Abandoned,LandBank_Data\4030_AGNES_AVE_facing=90.jpg.Abandoned.jpg,4030 AGNES AVE,facing=90,39.052299,-94.549173,Oak Park Southwest,59,290950061001,3,3,East
4036_E_67TH_TER_facing=60.jpg.Abandoned.jpg,Abandoned,LandBank_Data\4036_E_67TH_TER_facing=60.jpg.Abandoned.jpg,4036 E 67TH TER,facing=60,39.003555,-94.538583,Foxtown East,125,290959801011,5,2,Metro
4045_WALNUT_ST_110_facing=180.jpg.Occupied.jpg,Occupied,LandBank_Data\4045_WALNUT_ST_110_facing=180.jpg.Occupied.jpg,4045 WALNUT ST 110,facing=180,39.05247,-94.58495,Southmoreland,80,290950067002,4,1,Central
406_Monroe_Ave_facing=60.jpg.Occupied.jpg,Occupied,LandBank_Data\406_Monroe_Ave_facing=60.jpg.Occupied.jpg,406 Monroe Ave,facing=60,39.10918,-94.5378,Scarritt Point,18,290950009002,4,3,East
4108_E_35TH_ST_facing=300.jpg.Abandoned.jpg,Abandoned,LandBank_Data\4108_E_35TH_ST_facing=300.jpg.Abandoned.jpg,4108 E 35TH ST,facing=300,39.062090000000005,-94.53554399999999,Palestine East,62,N/A,3,3,East
4108_E_35TH_ST_facing=60.jpg.Abandoned.jpg,Abandoned,LandBank_Data\4108_E_35TH_ST_facing=60.jpg.Abandoned.jpg,4108 E 35TH ST,facing=60,39.062090000000005,-94.53554399999999,Palestine East,62,N/A,3,3,East
4109_E_39TH_ST_facing=300.jpg.Abandoned.jpg,Abandoned,LandBank_Data\4109_E_39TH_ST_facing=300.jpg.Abandoned.jpg,4109 E 39TH ST,facing=300,39.054871,-94.535726,Palestine East,62,N/A,3,3,East
4116_PARK_AVE_facing=300.jpg.Abandoned.jpg,Abandoned,LandBank_Data\4116_PARK_AVE_facing=300.jpg.Abandoned.jpg,4116 PARK AVE,facing=300,,,N/A,N/A,N/A,N/A,N/A,N/A
4119_Tracy_facing=90.jpg.Abandoned.jpg,Abandoned,LandBank_Data\4119_Tracy_facing=90.jpg.Abandoned.jpg,4119 Tracy,facing=90,39.05169,-94.569869,Manheim Park,69,290950169001,3,1,Central
4120_BENTON_BLVD_facing=300.jpg.Abandoned.jpg,Abandoned,LandBank_Data\4120_BENTON_BLVD_facing=300.jpg.Abandoned.jpg,4120 BENTON BLVD,facing=300,,,N/A,N/A,N/A,N/A,N/A,N/A
4122_WABASH_AVE_facing=60.jpg.Occupied.jpg,Occupied,LandBank_Data\4122_WABASH_AVE_facing=60.jpg.Occupied.jpg,4122 WABASH AVE,facing=60,39.050990000000006,-94.55530999999999,Ivanhoe Southeast,54,290950169003,3,1,Central
4124_Chestnut_Ave_facing=90.jpg.Abandoned.jpg,Abandoned,LandBank_Data\4124_Chestnut_Ave_facing=90.jpg.Abandoned.jpg,4124 Chestnut Ave,facing=90,39.050847,-94.55153299999999,Oak Park Southwest,59,290950061001,3,3,East
4131_McGee_St_facing=180.jpg.Occupied.jpg,Occupied,LandBank_Data\4131_McGee_St_facing=180.jpg.Occupied.jpg,4131 McGee St,facing=180,39.05048,-94.58261,Southmoreland,80,290950067001,4,1,Central
417_SPRUCE_AVE_facing=60.jpg.Occupied.jpg,Occupied,LandBank_Data\417_SPRUCE_AVE_facing=60.jpg.Occupied.jpg,417 SPRUCE AVE,facing=60,39.10857,-94.5314,South Indian Mound,20,290950008002,4,3,East
417_SPRUCE_AVE_facing=90.jpg.Occupied.jpg,Occupied,LandBank_Data\417_SPRUCE_AVE_facing=90.jpg.Occupied.jpg,417 SPRUCE AVE,facing=90,39.10857,-94.5314,South Indian Mound,20,290950008002,4,3,East
4200_Troost_Ave_facing=180.jpg.Occupied.jpg,Occupied,LandBank_Data\4200_Troost_Ave_facing=180.jpg.Occupied.jpg,4200 Troost Ave,facing=180,39.05053,-94.57276999999999,South Hyde Park,78,290950065002,4,1,Central
420_LAWNDALE_AVE_facing=60.jpg.Occupied.jpg,Occupied,LandBank_Data\420_LAWNDALE_AVE_facing=60.jpg.Occupied.jpg,420 LAWNDALE AVE,facing=60,39.10792,-94.51576999999999,South Indian Mound,20,290950006003,4,3,East
4220_E_56th_St_facing=180.jpg.Abandoned.jpg,Abandoned,LandBank_Data\4220_E_56th_St_facing=180.jpg.Abandoned.jpg,4220 E 56th St,facing=180,39.024045,-94.535823,Swope Parkway-Elmwood,116,290950078022,5,2,Metro
4237_EUCLID_AVE_facing=90.jpg.Abandoned.jpg,Abandoned,LandBank_Data\4237_EUCLID_AVE_facing=90.jpg.Abandoned.jpg,4237 EUCLID AVE,facing=90,39.048927,-94.560901,Ivanhoe Southeast,54,290950169003,3,1,Central
424_Colorado_Ave_facing=60.jpg.Occupied.jpg,Occupied,LandBank_Data\424_Colorado_Ave_facing=60.jpg.Occupied.jpg,424 Colorado Ave,facing=60,39.10794,-94.52046,South Indian Mound,20,290950007003,4,3,East
424_Colorado_Ave_facing=90.jpg.Occupied.jpg,Occupied,LandBank_Data\424_Colorado_Ave_facing=90.jpg.Occupied.jpg,424 Colorado Ave,facing=90,39.10794,-94.52046,South Indian Mound,20,290950007003,4,3,East
427_N_Colorado_Ave_facing=60.jpg.Occupied.jpg,Occupied,LandBank_Data\427_N_Colorado_Ave_facing=60.jpg.Occupied.jpg,427 N Colorado Ave,facing=60,39.117059999999995,-94.51926999999999,North Indian Mound,19,290950155002,4,3,East
4301_N_Corrington_Ave_facing=60.jpg.Occupied.jpg,Occupied,LandBank_Data\4301_N_Corrington_Ave_facing=60.jpg.Occupied.jpg,4301 N Corrington Ave,facing=60,39.1719,-94.49443000000001,Winnetonka,209,290470206041,1,6,Shoal Creek
4301_N_Corrington_Ave_facing=90.jpg.Occupied.jpg,Occupied,LandBank_Data\4301_N_Corrington_Ave_facing=90.jpg.Occupied.jpg,4301 N Corrington Ave,facing=90,39.1719,-94.49443000000001,Winnetonka,209,290470206041,1,6,Shoal Creek
4304_BELL_ST_facing=60.jpg.Occupied.jpg,Occupied,LandBank_Data\4304_BELL_ST_facing=60.jpg.Occupied.jpg,4304 BELL ST,facing=60,39.04999,-94.6067,West Plaza,83,290950071002,4,1,Central
4304_BELL_ST_facing=90.jpg.Occupied.jpg,Occupied,LandBank_Data\4304_BELL_ST_facing=90.jpg.Occupied.jpg,4304 BELL ST,facing=90,39.04999,-94.6067,West Plaza,83,290950071002,4,1,Central
4311_WAYNE_AVE_facing=90.jpg.Abandoned.jpg,Abandoned,LandBank_Data\4311_WAYNE_AVE_facing=90.jpg.Abandoned.jpg,4311 WAYNE AVE,facing=90,39.048164,-94.565599,Ivanhoe Southwest,53,290950063002,3,1,Central
4318_CLEVELAND_AVE_facing=180.jpg.Abandoned.jpg,Abandoned,LandBank_Data\4318_CLEVELAND_AVE_facing=180.jpg.Abandoned.jpg,4318 CLEVELAND AVE,facing=180,39.047082,-94.540183,N/A,N/A,N/A,3,3,East
431_WALLACE_AVE_facing=60.jpg.Abandoned.jpg,Abandoned,LandBank_Data\431_WALLACE_AVE_facing=60.jpg.Abandoned.jpg,431 WALLACE AVE,facing=60,,,N/A,N/A,N/A,N/A,N/A,N/A
4329_Chestnut_Ave_facing=90.jpg.Occupied.jpg,Occupied,LandBank_Data\4329_Chestnut_Ave_facing=90.jpg.Occupied.jpg,4329 Chestnut Ave,facing=90,39.04722,-94.55138000000001,Oak Park Southwest,59,290950061003,3,3,East
4333_ASKEW_AVE_facing=210.jpg.Abandoned.jpg,Abandoned,LandBank_Data\4333_ASKEW_AVE_facing=210.jpg.Abandoned.jpg,4333 ASKEW AVE,facing=210,,,N/A,N/A,N/A,N/A,N/A,N/A
4333_ASKEW_AVE_facing=60.jpg.Abandoned.jpg,Abandoned,LandBank_Data\4333_ASKEW_AVE_facing=60.jpg.Abandoned.jpg,4333 ASKEW AVE,facing=60,,,N/A,N/A,N/A,N/A,N/A,N/A
4333_ASKEW_AVE_facing=90.jpg.Abandoned.jpg,Abandoned,LandBank_Data\4333_ASKEW_AVE_facing=90.jpg.Abandoned.jpg,4333 ASKEW AVE,facing=90,,,N/A,N/A,N/A,N/A,N/A,N/A
4334_ASKEW_AVE_facing=90.jpg.Abandoned.jpg,Abandoned,LandBank_Data\4334_ASKEW_AVE_facing=90.jpg.Abandoned.jpg,4334 ASKEW AVE,facing=90,39.046638,-94.542511,Oak Park Southeast,60,290950060002,3,3,East
4341_GARFIELD_AVE_facing=60.jpg.Abandoned.jpg,Abandoned,LandBank_Data\4341_GARFIELD_AVE_facing=60.jpg.Abandoned.jpg,4341 GARFIELD AVE,facing=60,39.046895,-94.559865,Ivanhoe Southeast,54,290950063002,3,1,Central
4341_NORTON_AVE_facing=90.jpg.Abandoned.jpg,Abandoned,LandBank_Data\4341_NORTON_AVE_facing=90.jpg.Abandoned.jpg,4341 NORTON AVE,facing=90,39.046172999999996,-94.536771,Vineyard Northwest,48,290950060001,3,3,East
4401_GARFIELD_AVE_facing=210.jpg.Abandoned.jpg,Abandoned,LandBank_Data\4401_GARFIELD_AVE_facing=210.jpg.Abandoned.jpg,4401 GARFIELD AVE,facing=210,,,N/A,N/A,N/A,N/A,N/A,N/A
4404_Independence_Ave_facing=60.jpg.Occupied.jpg,Occupied,LandBank_Data\4404_Independence_Ave_facing=60.jpg.Occupied.jpg,4404 Independence Ave,facing=60,39.105909999999994,-94.53039,South Indian Mound,20,290950008002,4,3,East
4405_GARFIELD_AVE_facing=90.jpg.Abandoned.jpg,Abandoned,LandBank_Data\4405_GARFIELD_AVE_facing=90.jpg.Abandoned.jpg,4405 GARFIELD AVE,facing=90,39.046309,-94.559894,Ivanhoe Southeast,54,290950063002,3,1,Central
4416_GARFIELD_AVE_facing=180.jpg.Abandoned.jpg,Abandoned,LandBank_Data\4416_GARFIELD_AVE_facing=180.jpg.Abandoned.jpg,4416 GARFIELD AVE,facing=180,39.045907,-94.559914,Ivanhoe Southeast,54,290950063002,3,1,Central
4420_Wayne_Ave_facing=60.jpg.Occupied.jpg,Occupied,LandBank_Data\4420_Wayne_Ave_facing=60.jpg.Occupied.jpg,4420 Wayne Ave,facing=60,39.045790000000004,-94.56608,Ivanhoe Southwest,53,290950063002,3,1,Central
4420_Wayne_Ave_facing=90.jpg.Occupied.jpg,Occupied,LandBank_Data\4420_Wayne_Ave_facing=90.jpg.Occupied.jpg,4420 Wayne Ave,facing=90,39.045790000000004,-94.56608,Ivanhoe Southwest,53,290950063002,3,1,Central
4426_Bales_Ave_facing=60.jpg.Occupied.jpg,Occupied,LandBank_Data\4426_Bales_Ave_facing=60.jpg.Occupied.jpg,4426 Bales Ave,facing=60,39.04513,-94.54406,Oak Park Southeast,60,290950060002,3,3,East
4428_PARK_AVE_facing=60.jpg.Abandoned.jpg,Abandoned,LandBank_Data\4428_PARK_AVE_facing=60.jpg.Abandoned.jpg,4428 PARK AVE,facing=60,39.045433,-94.557618,Ivanhoe Southeast,54,290950063002,3,1,Central
4438_MONTGALL_AVE_facing=60.jpg.Occupied.jpg,Occupied,LandBank_Data\4438_MONTGALL_AVE_facing=60.jpg.Occupied.jpg,4438 MONTGALL AVE,facing=60,39.044909999999994,-94.55331,Oak Park Southwest,59,290950061003,3,3,East
4438_MONTGALL_AVE_facing=90.jpg.Occupied.jpg,Occupied,LandBank_Data\4438_MONTGALL_AVE_facing=90.jpg.Occupied.jpg,4438 MONTGALL AVE,facing=90,39.044909999999994,-94.55331,Oak Park Southwest,59,290950061003,3,3,East
4503_E_59TH_ST_facing=210.jpg.Abandoned.jpg,Abandoned,LandBank_Data\4503_E_59TH_ST_facing=210.jpg.Abandoned.jpg,4503 E 59TH ST,facing=210,39.018525,-94.533467,Swope Parkway-Elmwood,116,290950078021,5,2,Metro
4507_E_59TH_ST_facing=210.jpg.Abandoned.jpg,Abandoned,LandBank_Data\4507_E_59TH_ST_facing=210.jpg.Abandoned.jpg,4507 E 59TH ST,facing=210,39.018516999999996,-94.533286,Swope Parkway-Elmwood,116,290950078021,5,2,Metro
4511_Prospect_Ave_facing=90.jpg.Abandoned.jpg,Abandoned,LandBank_Data\4511_Prospect_Ave_facing=90.jpg.Abandoned.jpg,4511 Prospect Ave,facing=90,39.044166,-94.55419,N/A,N/A,N/A,3,3,East
4523_CHESTNUT_AVE_facing=90.jpg.Abandoned.jpg,Abandoned,LandBank_Data\4523_CHESTNUT_AVE_facing=90.jpg.Abandoned.jpg,4523 CHESTNUT AVE,facing=90,,,N/A,N/A,N/A,N/A,N/A,N/A
4525_Prospect_Ave_facing=180.jpg.Occupied.jpg,Occupied,LandBank_Data\4525_Prospect_Ave_facing=180.jpg.Occupied.jpg,4525 Prospect Ave,facing=180,39.04354,-94.55385,Oak Park Southwest,59,290950061003,3,3,East
4528_Troost_Ave_facing=60.jpg.Occupied.jpg,Occupied,LandBank_Data\4528_Troost_Ave_facing=60.jpg.Occupied.jpg,4528 Troost Ave,facing=60,39.0442,-94.57319,South Hyde Park,78,290950066002,4,1,Central
4528_Troost_Ave_facing=90.jpg.Occupied.jpg,Occupied,LandBank_Data\4528_Troost_Ave_facing=90.jpg.Occupied.jpg,4528 Troost Ave,facing=90,39.0442,-94.57319,South Hyde Park,78,290950066002,4,1,Central
4545_Wornall_Rd_facing=60.jpg.Occupied.jpg,Occupied,LandBank_Data\4545_Wornall_Rd_facing=60.jpg.Occupied.jpg,4545 Wornall Rd,facing=60,39.04448,-94.58935,Plaza Westport,82,290950069001,4,1,Central
4601_Prospect_Ave_facing=60.jpg.Occupied.jpg,Occupied,LandBank_Data\4601_Prospect_Ave_facing=60.jpg.Occupied.jpg,4601 Prospect Ave,facing=60,39.04262,-94.55398000000001,Oak Park Southwest,59,290950061003,3,3,East
4607_SOUTH_BENTON_AVE_facing=90.jpg.Abandoned.jpg,Abandoned,LandBank_Data\4607_SOUTH_BENTON_AVE_facing=90.jpg.Abandoned.jpg,4607 SOUTH BENTON AVE,facing=90,39.042375,-94.551051,Oak Park Southwest,59,290950061003,3,3,East
4609_E_30TH_ST_facing=60.jpg.Abandoned.jpg,Abandoned,LandBank_Data\4609_E_30TH_ST_facing=60.jpg.Abandoned.jpg,4609 E 30TH ST,facing=60,39.070902000000004,-94.529306,Knoches Park,64,290950164001,3,3,East
4611_E_31st_St_facing=210.jpg.Abandoned.jpg,Abandoned,LandBank_Data\4611_E_31st_St_facing=210.jpg.Abandoned.jpg,4611 E 31st St,facing=210,39.069114,-94.529322,Knoches Park,64,N/A,3,3,East
4612_Chestnut_Ave_facing=90.jpg.Abandoned.jpg,Abandoned,LandBank_Data\4612_Chestnut_Ave_facing=90.jpg.Abandoned.jpg,4612 Chestnut Ave,facing=90,39.042207,-94.551998,Oak Park Southwest,59,290950061003,3,3,East
4617_Lawn_Ave_facing=90.jpg.Abandoned.jpg,Abandoned,LandBank_Data\4617_Lawn_Ave_facing=90.jpg.Abandoned.jpg,4617 Lawn Ave,facing=90,39.041258,-94.530084,Vineyard,49,290950171004,3,3,East
4629_ELMWOOD_AVE_facing=300.jpg.Abandoned.jpg,Abandoned,LandBank_Data\4629_ELMWOOD_AVE_facing=300.jpg.Abandoned.jpg,4629 ELMWOOD AVE,facing=300,39.040893,-94.531266,Vineyard,49,290950171004,3,3,East
4634_CHESTNUT_AVE_facing=60.jpg.Abandoned.jpg,Abandoned,LandBank_Data\4634_CHESTNUT_AVE_facing=60.jpg.Abandoned.jpg,4634 CHESTNUT AVE,facing=60,39.041468,-94.552038,Oak Park Southwest,59,290950061003,3,3,East
4645_SOUTH_BENTON_AVE_facing=300.jpg.Abandoned.jpg,Abandoned,LandBank_Data\4645_SOUTH_BENTON_AVE_facing=300.jpg.Abandoned.jpg,4645 SOUTH BENTON AVE,facing=300,,,N/A,N/A,N/A,N/A,N/A,N/A
4663_E_37th_Ter_facing=180.jpg.Abandoned.jpg,Abandoned,LandBank_Data\4663_E_37th_Ter_facing=180.jpg.Abandoned.jpg,4663 E 37th Ter,facing=180,39.056189,-94.528072,Knoches Park,64,290950058011,3,3,East
4710_E_16TH_ST_facing=180.jpg.Abandoned.jpg,Abandoned,LandBank_Data\4710_E_16TH_ST_facing=180.jpg.Abandoned.jpg,4710 E 16TH ST,facing=180,39.092459999999996,-94.52722800000001,East Community Team North,29,290950023001,4,3,East
4812_E_45th_St_facing=180.jpg.Abandoned.jpg,Abandoned,LandBank_Data\4812_E_45th_St_facing=180.jpg.Abandoned.jpg,4812 E 45th St,facing=180,39.043703,-94.52829399999999,Vineyard,49,290950171004,3,3,East
4904_Agnes_Ave_facing=210.jpg.Abandoned.jpg,Abandoned,LandBank_Data\4904_Agnes_Ave_facing=210.jpg.Abandoned.jpg,4904 Agnes Ave,facing=210,39.036995000000005,-94.549945,North Town Fork Creek,118,290950077001,5,2,Metro
4919_OLIVE_facing=180.jpg.Abandoned.jpg,Abandoned,LandBank_Data\4919_OLIVE_facing=180.jpg.Abandoned.jpg,4919 OLIVE,facing=180,,,N/A,N/A,N/A,N/A,N/A,N/A
4920_College_Ave_facing=60.jpg.Occupied.jpg,Occupied,LandBank_Data\4920_College_Ave_facing=60.jpg.Occupied.jpg,4920 College Ave,facing=60,39.0363,-94.54682,North Town Fork Creek,118,290950077001,5,2,Metro
4930_Bellefontaine_Ave_facing=90.jpg.Abandoned.jpg,Abandoned,LandBank_Data\4930_Bellefontaine_Ave_facing=90.jpg.Abandoned.jpg,4930 Bellefontaine Ave,facing=90,39.035958,-94.548822,North Town Fork Creek,118,290950077001,5,2,Metro
4945_AGNES_AVE_facing=90.jpg.Abandoned.jpg,Abandoned,LandBank_Data\4945_AGNES_AVE_facing=90.jpg.Abandoned.jpg,4945 AGNES AVE,facing=90,39.035578,-94.550027,North Town Fork Creek,118,290950077001,5,2,Metro
5017_NE_Vivion_Rd_facing=180.jpg.Occupied.jpg,Occupied,LandBank_Data\5017_NE_Vivion_Rd_facing=180.jpg.Occupied.jpg,5017 NE Vivion Rd,facing=180,39.18748,-94.52033,Glenhaven,201,290470209021,1,6,Shoal Creek
5026_PARK_AVE_facing=180.jpg.Abandoned.jpg,Abandoned,LandBank_Data\5026_PARK_AVE_facing=180.jpg.Abandoned.jpg,5026 PARK AVE,facing=180,39.034667,-94.558194,Blue Hills,119,290950076001,5,2,Metro
5026_PARK_AVE_facing=90.jpg.Abandoned.jpg,Abandoned,LandBank_Data\5026_PARK_AVE_facing=90.jpg.Abandoned.jpg,5026 PARK AVE,facing=90,39.034667,-94.558194,Blue Hills,119,290950076001,5,2,Metro
5033_WALNUT_ST_facing=60.jpg.Occupied.jpg,Occupied,LandBank_Data\5033_WALNUT_ST_facing=60.jpg.Occupied.jpg,5033 WALNUT ST,facing=60,39.035379999999996,-94.58577,South Plaza,91,290950074002,4,2,Metro
5033_WALNUT_ST_facing=90.jpg.Occupied.jpg,Occupied,LandBank_Data\5033_WALNUT_ST_facing=90.jpg.Occupied.jpg,5033 WALNUT ST,facing=90,39.035379999999996,-94.58577,South Plaza,91,290950074002,4,2,Metro
5103_NE_44th_Ter_facing=60.jpg.Occupied.jpg,Occupied,LandBank_Data\5103_NE_44th_Ter_facing=60.jpg.Occupied.jpg,5103 NE 44th Ter,facing=60,39.17432,-94.51984,Winnwood Gardens,207,290470206042,1,6,Shoal Creek
5103_NE_44th_Ter_facing=90.jpg.Occupied.jpg,Occupied,LandBank_Data\5103_NE_44th_Ter_facing=90.jpg.Occupied.jpg,5103 NE 44th Ter,facing=90,39.17432,-94.51984,Winnwood Gardens,207,290470206042,1,6,Shoal Creek
5111_Walrond_Ave_facing=60.jpg.Occupied.jpg,Occupied,LandBank_Data\5111_Walrond_Ave_facing=60.jpg.Occupied.jpg,5111 Walrond Ave,facing=60,39.03303,-94.5475,North Town Fork Creek,118,290950077002,5,2,Metro
5111_Walrond_Ave_facing=90.jpg.Occupied.jpg,Occupied,LandBank_Data\5111_Walrond_Ave_facing=90.jpg.Occupied.jpg,5111 Walrond Ave,facing=90,39.03303,-94.5475,North Town Fork Creek,118,290950077002,5,2,Metro
511_Cherry_St_facing=90.jpg.Occupied.jpg,Occupied,LandBank_Data\511_Cherry_St_facing=90.jpg.Occupied.jpg,511 Cherry St,facing=90,39.10935,-94.57644,Columbus Park,14,290950003001,4,1,Central
5128_College_Ave_facing=180.jpg.Abandoned.jpg,Abandoned,LandBank_Data\5128_College_Ave_facing=180.jpg.Abandoned.jpg,5128 College Ave,facing=180,39.032509999999995,-94.54704,North Town Fork Creek,118,290950077002,5,2,Metro
5128_College_Ave_facing=180.jpg.Abandoned.jpg,Abandoned,LandBank_Data\5128_College_Ave_facing=180.jpg.Abandoned.jpg,5128 College Ave,facing=180,39.032512,-94.546726,North Town Fork Creek,118,290950077002,5,2,Metro
5149_SWOPE_PKWY_facing=300.jpg.Abandoned.jpg,Abandoned,LandBank_Data\5149_SWOPE_PKWY_facing=300.jpg.Abandoned.jpg,5149 SWOPE PKWY,facing=300,39.031514,-94.542298,North Town Fork Creek,118,290950078023,5,2,Metro
517_E_97th_Ter_facing=90.jpg.Occupied.jpg,Occupied,LandBank_Data\517_E_97th_Ter_facing=90.jpg.Occupied.jpg,517 E 97th Ter,facing=90,38.950390000000006,-94.58503,Willow Creek,143,290950100021,6,5,South
5217_FRANKLIN_AVE_facing=60.jpg.Occupied.jpg,Occupied,LandBank_Data\5217_FRANKLIN_AVE_facing=60.jpg.Occupied.jpg,5217 FRANKLIN AVE,facing=60,39.030879999999996,-94.53274,Sheraton Estates,115,290950078023,5,2,Metro
5219_E_28th_Ter_facing=180.jpg.Abandoned.jpg,Abandoned,LandBank_Data\5219_E_28th_Ter_facing=180.jpg.Abandoned.jpg,5219 E 28th Ter,facing=180,39.073271000000005,-94.52194300000001,East Community Team South,30,290950164002,3,3,East
5234_Norton_Ave_facing=90.jpg.Abandoned.jpg,Abandoned,LandBank_Data\5234_Norton_Ave_facing=90.jpg.Abandoned.jpg,5234 Norton Ave,facing=90,,,N/A,N/A,N/A,N/A,N/A,N/A
5320_Michigan_Ave_facing=90.jpg.Occupied.jpg,Occupied,LandBank_Data\5320_Michigan_Ave_facing=90.jpg.Occupied.jpg,5320 Michigan Ave,facing=90,39.029740000000004,-94.56349,Blue Hills,119,290950076003,5,2,Metro
5415_BONITA_ST_facing=300.jpg.Abandoned.jpg,Abandoned,LandBank_Data\5415_BONITA_ST_facing=300.jpg.Abandoned.jpg,5415 BONITA ST,facing=300,39.073857000000004,-94.519587,South Blue Valley,31,290950164002,3,3,East
5421_E_28TH_ST_facing=60.jpg.Abandoned.jpg,Abandoned,LandBank_Data\5421_E_28TH_ST_facing=60.jpg.Abandoned.jpg,5421 E 28TH ST,facing=60,39.074576,-94.519417,South Blue Valley,31,290950164002,3,3,East
5421_E_28TH_ST_facing=90.jpg.Abandoned.jpg,Abandoned,LandBank_Data\5421_E_28TH_ST_facing=90.jpg.Abandoned.jpg,5421 E 28TH ST,facing=90,39.074576,-94.519417,South Blue Valley,31,290950164002,3,3,East
5426_NORTON_AVE_facing=90.jpg.Abandoned.jpg,Abandoned,LandBank_Data\5426_NORTON_AVE_facing=90.jpg.Abandoned.jpg,5426 NORTON AVE,facing=90,39.026821999999996,-94.537809,Swope Parkway-Elmwood,116,290950078022,5,2,Metro
5432_NW_Waukomis_Dr_facing=60.jpg.Occupied.jpg,Occupied,LandBank_Data\5432_NW_Waukomis_Dr_facing=60.jpg.Occupied.jpg,5432 NW Waukomis Dr,facing=60,39.19428,-94.60797,Line Creek And Northern Heights,230,291650300011,2,4,North
5432_NW_Waukomis_Dr_facing=90.jpg.Occupied.jpg,Occupied,LandBank_Data\5432_NW_Waukomis_Dr_facing=90.jpg.Occupied.jpg,5432 NW Waukomis Dr,facing=90,39.19428,-94.60797,Line Creek And Northern Heights,230,291650300011,2,4,North
5500_Agnes_Ave_facing=60.jpg.Occupied.jpg,Occupied,LandBank_Data\5500_Agnes_Ave_facing=60.jpg.Occupied.jpg,5500 Agnes Ave,facing=60,39.0262,-94.55134,North Town Fork Creek,118,290950079003,5,2,Metro
5529_Chestnut_Ave_facing=90.jpg.Occupied.jpg,Occupied,LandBank_Data\5529_Chestnut_Ave_facing=90.jpg.Occupied.jpg,5529 Chestnut Ave,facing=90,39.025490000000005,-94.55283,North Town Fork Creek,118,290950079003,5,2,Metro
5536_SOUTH_BENTON_AVE_facing=60.jpg.Occupied.jpg,Occupied,LandBank_Data\5536_SOUTH_BENTON_AVE_facing=60.jpg.Occupied.jpg,5536 SOUTH BENTON AVE,facing=60,39.025090000000006,-94.55244,North Town Fork Creek,118,290950079003,5,2,Metro
5600_JAUDON_AVE_facing=90.jpg.Abandoned.jpg,Abandoned,LandBank_Data\5600_JAUDON_AVE_facing=90.jpg.Abandoned.jpg,5600 JAUDON AVE,facing=90,39.024428,-94.55014399999999,North Town Fork Creek,118,290950079003,5,2,Metro
5604_Brooklyn_Ave_facing=60.jpg.Occupied.jpg,Occupied,LandBank_Data\5604_Brooklyn_Ave_facing=60.jpg.Occupied.jpg,5604 Brooklyn Ave,facing=60,39.0246,-94.5603,Blue Hills,119,290950080001,5,2,Metro
5610_E_28TH_TER_facing=60.jpg.Abandoned.jpg,Abandoned,LandBank_Data\5610_E_28TH_TER_facing=60.jpg.Abandoned.jpg,5610 E 28TH TER,facing=60,39.073074,-94.517448,South Blue Valley,31,290950164002,3,3,East
5611_E_36th_St_facing=90.jpg.Abandoned.jpg,Abandoned,LandBank_Data\5611_E_36th_St_facing=90.jpg.Abandoned.jpg,5611 E 36th St,facing=90,39.059896,-94.517424,Dunbar,66,290950058013,3,3,East
5612_E_27TH_TER_facing=180.jpg.Abandoned.jpg,Abandoned,LandBank_Data\5612_E_27TH_TER_facing=180.jpg.Abandoned.jpg,5612 E 27TH TER,facing=180,39.075239,-94.517274,South Blue Valley,31,290950164002,3,3,East
5616_PROSPECT_AVE_facing=180.jpg.Abandoned.jpg,Abandoned,LandBank_Data\5616_PROSPECT_AVE_facing=180.jpg.Abandoned.jpg,5616 PROSPECT AVE,facing=180,39.023956,-94.55533199999999,N/A,N/A,N/A,5,2,Metro
5617_Euclid_Ave_facing=300.jpg.Abandoned.jpg,Abandoned,LandBank_Data\5617_Euclid_Ave_facing=300.jpg.Abandoned.jpg,5617 Euclid Ave,facing=300,39.024428,-94.562288,Blue Hills,119,290950080001,5,2,Metro
5632_Highland_Ave_facing=60.jpg.Occupied.jpg,Occupied,LandBank_Data\5632_Highland_Ave_facing=60.jpg.Occupied.jpg,5632 Highland Ave,facing=60,39.02382,-94.56617,Blue Hills,119,290950081001,5,2,Metro
5632_Highland_Ave_facing=90.jpg.Occupied.jpg,Occupied,LandBank_Data\5632_Highland_Ave_facing=90.jpg.Occupied.jpg,5632 Highland Ave,facing=90,39.02382,-94.56617,Blue Hills,119,290950081001,5,2,Metro
5701_MICHIGAN_AVE_facing=300.jpg.Abandoned.jpg,Abandoned,LandBank_Data\5701_MICHIGAN_AVE_facing=300.jpg.Abandoned.jpg,5701 MICHIGAN AVE,facing=300,39.023066,-94.56355400000001,Blue Hills,119,290950080001,5,2,Metro
5701_MICHIGAN_AVE_facing=90.jpg.Abandoned.jpg,Abandoned,LandBank_Data\5701_MICHIGAN_AVE_facing=90.jpg.Abandoned.jpg,5701 MICHIGAN AVE,facing=90,39.023066,-94.56355400000001,Blue Hills,119,290950080001,5,2,Metro
5721_MYRTLE_AVE_facing=90.jpg.Abandoned.jpg,Abandoned,LandBank_Data\5721_MYRTLE_AVE_facing=90.jpg.Abandoned.jpg,5721 MYRTLE AVE,facing=90,39.021609999999995,-94.53925799999999,Swope Parkway-Elmwood,116,290950079001,5,2,Metro
5728_OLIVE_ST_facing=90.jpg.Abandoned.jpg,Abandoned,LandBank_Data\5728_OLIVE_ST_facing=90.jpg.Abandoned.jpg,5728 OLIVE ST,facing=90,39.021802,-94.55779799999999,Blue Hills,119,290950080002,5,2,Metro
5729_NE_Compton_Ave_facing=90.jpg.Occupied.jpg,Occupied,LandBank_Data\5729_NE_Compton_Ave_facing=90.jpg.Occupied.jpg,5729 NE Compton Ave,facing=90,39.19096,-94.5119,Maple Park West,206,290470206031,1,6,Shoal Creek
5816_SWOPE_PKWY_facing=60.jpg.Occupied.jpg,Occupied,LandBank_Data\5816_SWOPE_PKWY_facing=60.jpg.Occupied.jpg,5816 SWOPE PKWY,facing=60,39.02041,-94.54225,North Town Fork Creek,118,290950079002,5,2,Metro
5821_PARK_AVE_facing=90.jpg.Abandoned.jpg,Abandoned,LandBank_Data\5821_PARK_AVE_facing=90.jpg.Abandoned.jpg,5821 PARK AVE,facing=90,39.020354,-94.559067,Blue Hills,119,290950080002,5,2,Metro
5921_WALROND_AVE_facing=90.jpg.Abandoned.jpg,Abandoned,LandBank_Data\5921_WALROND_AVE_facing=90.jpg.Abandoned.jpg,5921 WALROND AVE,facing=90,39.018223,-94.548877,South Town Fork Creek,117,N/A,5,2,Metro
6000_E_13th_St_facing=60.jpg.Occupied.jpg,Occupied,LandBank_Data\6000_E_13th_St_facing=60.jpg.Occupied.jpg,6000 E 13th St,facing=60,39.09596,-94.51219,West Blue Valley,33,290950021004,4,3,East
6041_CHESTNUT_AVE_facing=90.jpg.Abandoned.jpg,Abandoned,LandBank_Data\6041_CHESTNUT_AVE_facing=90.jpg.Abandoned.jpg,6041 CHESTNUT AVE,facing=90,39.016118,-94.553679,South Town Fork Creek,117,290950079004,5,2,Metro
6233_E_16th_St_facing=210.jpg.Abandoned.jpg,Abandoned,LandBank_Data\6233_E_16th_St_facing=210.jpg.Abandoned.jpg,6233 E 16th St,facing=210,39.092005,-94.508684,East Blue Valley,34,290950021003,4,3,East
6301_East_35th_Terrace_facing=210.jpg.Abandoned.jpg,Abandoned,LandBank_Data\6301_East_35th_Terrace_facing=210.jpg.Abandoned.jpg,6301 East 35th Terrace,facing=210,,,N/A,N/A,N/A,N/A,N/A,N/A
6419_E_12th_St_facing=300.jpg.Abandoned.jpg,Abandoned,LandBank_Data\6419_E_12th_St_facing=300.jpg.Abandoned.jpg,6419 E 12th St,facing=300,39.097429999999996,-94.506801,N/A,N/A,N/A,4,3,East
6513_E_12th_St_facing=60.jpg.Occupied.jpg,Occupied,LandBank_Data\6513_E_12th_St_facing=60.jpg.Occupied.jpg,6513 E 12th St,facing=60,39.09711,-94.50578,East Blue Valley,34,290950021003,4,3,East
6601_E_100TH_TER_facing=60.jpg.Occupied.jpg,Occupied,LandBank_Data\6601_E_100TH_TER_facing=60.jpg.Occupied.jpg,6601 E 100TH TER,facing=60,38.942640000000004,-94.51213,Fairlane,162,290950130032,5,5,South
6601_E_100TH_TER_facing=90.jpg.Occupied.jpg,Occupied,LandBank_Data\6601_E_100TH_TER_facing=90.jpg.Occupied.jpg,6601 E 100TH TER,facing=90,38.942640000000004,-94.51213,Fairlane,162,290950130032,5,5,South
6601_Richmond_Ave_facing=180.jpg.Occupied.jpg,Occupied,LandBank_Data\6601_Richmond_Ave_facing=180.jpg.Occupied.jpg,6601 Richmond Ave,facing=180,39.004540000000006,-94.49807,East Swope Highlands,134,290950175003,5,2,Metro
6601_Richmond_Ave_facing=60.jpg.Occupied.jpg,Occupied,LandBank_Data\6601_Richmond_Ave_facing=60.jpg.Occupied.jpg,6601 Richmond Ave,facing=60,39.004540000000006,-94.49807,East Swope Highlands,134,290950175003,5,2,Metro
6618_Swope_Pkwy_facing=60.jpg.Occupied.jpg,Occupied,LandBank_Data\6618_Swope_Pkwy_facing=60.jpg.Occupied.jpg,6618 Swope Pkwy,facing=60,39.006190000000004,-94.54292,Swope Park Campus,123,290950088002,5,2,Metro
6710_Walrond_Ave_facing=60.jpg.Occupied.jpg,Occupied,LandBank_Data\6710_Walrond_Ave_facing=60.jpg.Occupied.jpg,6710 Walrond Ave,facing=60,39.004490000000004,-94.54992,Self Help Neighborhood Council,124,290950088005,5,2,Metro
6719_South_Benton_Ave_facing=90.jpg.Abandoned.jpg,Abandoned,LandBank_Data\6719_South_Benton_Ave_facing=90.jpg.Abandoned.jpg,6719 South Benton Ave,facing=90,39.00448,-94.553089,Self Help Neighborhood Council,124,290950088003,5,2,Metro
6801_E_LONGVIEW_RD_facing=60.jpg.Occupied.jpg,Occupied,LandBank_Data\6801_E_LONGVIEW_RD_facing=60.jpg.Occupied.jpg,6801 E LONGVIEW RD,facing=60,38.91231,-94.51364000000001,Crossgates,172,290950132082,6,5,South
6819_E_12th_St_facing=180.jpg.Occupied.jpg,Occupied,LandBank_Data\6819_E_12th_St_facing=180.jpg.Occupied.jpg,6819 E 12th St,facing=180,39.09702,-94.50224,East Blue Valley,34,290950021003,4,3,East
6825_Cleveland_Ave_facing=90.jpg.Abandoned.jpg,Abandoned,LandBank_Data\6825_Cleveland_Ave_facing=90.jpg.Abandoned.jpg,6825 Cleveland Ave,facing=90,39.001769,-94.542746,N/A,N/A,N/A,5,2,Metro
6830_Bellefontaine_Ave_facing=300.jpg.Abandoned.jpg,Abandoned,LandBank_Data\6830_Bellefontaine_Ave_facing=300.jpg.Abandoned.jpg,6830 Bellefontaine Ave,facing=300,39.002061,-94.55085799999999,Self Help Neighborhood Council,124,N/A,5,2,Metro
6901_Jackson_Ave_facing=60.jpg.Occupied.jpg,Occupied,LandBank_Data\6901_Jackson_Ave_facing=60.jpg.Occupied.jpg,6901 Jackson Ave,facing=60,39.00059,-94.53775999999999,Foxtown East,125,290959801011,5,2,Metro
6901_Troost_Ave_facing=180.jpg.Occupied.jpg,Occupied,LandBank_Data\6901_Troost_Ave_facing=180.jpg.Occupied.jpg,6901 Troost Ave,facing=180,39.00223,-94.57034,Neighbors United For Action,121,290950087002,5,2,Metro
6901_Troost_Ave_facing=60.jpg.Occupied.jpg,Occupied,LandBank_Data\6901_Troost_Ave_facing=60.jpg.Occupied.jpg,6901 Troost Ave,facing=60,39.00223,-94.57034,Neighbors United For Action,121,290950087002,5,2,Metro
6910_MONROE_AVE_facing=180.jpg.Occupied.jpg,Occupied,LandBank_Data\6910_MONROE_AVE_facing=180.jpg.Occupied.jpg,6910 MONROE AVE,facing=180,39.00063,-94.54429,Self Help Neighborhood Council,124,290950088005,5,2,Metro
7021_Chestnut_Ave_facing=90.jpg.Abandoned.jpg,Abandoned,LandBank_Data\7021_Chestnut_Ave_facing=90.jpg.Abandoned.jpg,7021 Chestnut Ave,facing=90,38.998971000000004,-94.55452199999999,Self Help Neighborhood Council,124,290950088003,5,2,Metro
705_E_75TH_ST_facing=60.jpg.Occupied.jpg,Occupied,LandBank_Data\705_E_75TH_ST_facing=60.jpg.Occupied.jpg,705 E 75TH ST,facing=60,38.991409999999995,-94.57972,Tower Homes,106,290950091001,6,2,Metro
717_W_101st_Ter_CLUBHOUSE_facing=60.jpg.Occupied.jpg,Occupied,LandBank_Data\717_W_101st_Ter_CLUBHOUSE_facing=60.jpg.Occupied.jpg,717 W 101st Ter CLUBHOUSE,facing=60,38.94377,-94.60051,Lea Manor,144,290950100012,6,5,South
717_W_101st_Ter_CLUBHOUSE_facing=90.jpg.Occupied.jpg,Occupied,LandBank_Data\717_W_101st_Ter_CLUBHOUSE_facing=90.jpg.Occupied.jpg,717 W 101st Ter CLUBHOUSE,facing=90,38.94377,-94.60051,Lea Manor,144,290950100012,6,5,South
7228_WALROND_AVE_facing=210.jpg.Abandoned.jpg,Abandoned,LandBank_Data\7228_WALROND_AVE_facing=210.jpg.Abandoned.jpg,7228 WALROND AVE,facing=210,38.994844,-94.550076,Noble And Gregory Ridge,126,290950089002,5,2,Metro
7316_Bellefontaine_Ave_facing=90.jpg.Occupied.jpg,Occupied,LandBank_Data\7316_Bellefontaine_Ave_facing=90.jpg.Occupied.jpg,7316 Bellefontaine Ave,facing=90,38.9935,-94.55163,Noble And Gregory Ridge,126,290950089002,5,2,Metro
7317_Cleveland_Ave_facing=90.jpg.Occupied.jpg,Occupied,LandBank_Data\7317_Cleveland_Ave_facing=90.jpg.Occupied.jpg,7317 Cleveland Ave,facing=90,38.9931,-94.54285,Noble And Gregory Ridge,126,290950089001,5,2,Metro
7344_Forest_Ave_facing=60.jpg.Occupied.jpg,Occupied,LandBank_Data\7344_Forest_Ave_facing=60.jpg.Occupied.jpg,7344 Forest Ave,facing=60,38.99355,-94.57475,East Meyer 6,128,290950090003,6,2,Metro
7404_Park_Ave_facing=180.jpg.Occupied.jpg,Occupied,LandBank_Data\7404_Park_Ave_facing=180.jpg.Occupied.jpg,7404 Park Ave,facing=180,38.992490000000004,-94.56099,East Meyer 7,127,290950090002,5,2,Metro
7404_Park_Ave_facing=60.jpg.Occupied.jpg,Occupied,LandBank_Data\7404_Park_Ave_facing=60.jpg.Occupied.jpg,7404 Park Ave,facing=60,38.992490000000004,-94.56099,East Meyer 7,127,290950090002,5,2,Metro
7410_CHESTNUT_AVE_facing=300.jpg.Abandoned.jpg,Abandoned,LandBank_Data\7410_CHESTNUT_AVE_facing=300.jpg.Abandoned.jpg,7410 CHESTNUT AVE,facing=300,38.992020000000004,-94.554902,Noble And Gregory Ridge,126,290950089002,5,2,Metro
7560_Prospect_Ave_facing=60.jpg.Occupied.jpg,Occupied,LandBank_Data\7560_Prospect_Ave_facing=60.jpg.Occupied.jpg,7560 Prospect Ave,facing=60,38.98833,-94.55813,East Meyer 7,127,290950090001,5,2,Metro
7602_E_111TH_TER_facing=180.jpg.Occupied.jpg,Occupied,LandBank_Data\7602_E_111TH_TER_facing=180.jpg.Occupied.jpg,7602 E 111TH TER,facing=180,38.924859999999995,-94.50171999999999,Ruskin Heights,171,290950132032,6,5,South
7602_E_111TH_TER_facing=60.jpg.Occupied.jpg,Occupied,LandBank_Data\7602_E_111TH_TER_facing=60.jpg.Occupied.jpg,7602 E 111TH TER,facing=60,38.924859999999995,-94.50171999999999,Ruskin Heights,171,290950132032,6,5,South
7607_E_113th_St_facing=60.jpg.Occupied.jpg,Occupied,LandBank_Data\7607_E_113th_St_facing=60.jpg.Occupied.jpg,7607 E 113th St,facing=60,38.92017,-94.5017,Ruskin Heights,171,290950132032,6,5,South
7807_AGNES_AVE_facing=60.jpg.Occupied.jpg,Occupied,LandBank_Data\7807_AGNES_AVE_facing=60.jpg.Occupied.jpg,7807 AGNES AVE,facing=60,38.984190000000005,-94.55275999999999,Marlborough East,130,290950096001,5,2,Metro
8101_Wornall_Rd_facing=60.jpg.Occupied.jpg,Occupied,LandBank_Data\8101_Wornall_Rd_facing=60.jpg.Occupied.jpg,8101 Wornall Rd,facing=60,38.9812,-94.59441,Waldo Homes,110,290950094003,6,2,Metro
814_Beacon_Ave_facing=90.jpg.Occupied.jpg,Occupied,LandBank_Data\814_Beacon_Ave_facing=90.jpg.Occupied.jpg,814 Beacon Ave,facing=90,39.101690000000005,-94.5089,Sheffield,21,290950020001,4,3,East
8151_Holmes_Rd_facing=60.jpg.Occupied.jpg,Occupied,LandBank_Data\8151_Holmes_Rd_facing=60.jpg.Occupied.jpg,8151 Holmes Rd,facing=60,38.979729999999996,-94.57970999999999,Rockhill Manor,112,290950094002,6,2,Metro
815_Cherry_St_facing=60.jpg.Occupied.jpg,Occupied,LandBank_Data\815_Cherry_St_facing=60.jpg.Occupied.jpg,815 Cherry St,facing=60,39.10375,-94.57575,CBD Downtown,4,290950159001,4,1,Central
815_Cherry_St_facing=90.jpg.Occupied.jpg,Occupied,LandBank_Data\815_Cherry_St_facing=90.jpg.Occupied.jpg,815 Cherry St,facing=90,39.10375,-94.57575,CBD Downtown,4,290950159001,4,1,Central
8224_N_Oak_Trfy_facing=60.jpg.Occupied.jpg,Occupied,LandBank_Data\8224_N_Oak_Trfy_facing=60.jpg.Occupied.jpg,8224 N Oak Trfy,facing=60,39.24345,-94.57635,Jefferson Highlands,238,290470212083,2,4,North
8224_N_Oak_Trfy_facing=90.jpg.Occupied.jpg,Occupied,LandBank_Data\8224_N_Oak_Trfy_facing=90.jpg.Occupied.jpg,8224 N Oak Trfy,facing=90,39.24345,-94.57635,Jefferson Highlands,238,290470212083,2,4,North
8233_Tracy_Ave_facing=60.jpg.Occupied.jpg,Occupied,LandBank_Data\8233_Tracy_Ave_facing=60.jpg.Occupied.jpg,8233 Tracy Ave,facing=60,38.97783,-94.57345,Marlborough Heights/Marlborough Pride,129,290950095004,5,2,Metro
8303_E_114th_St_facing=60.jpg.Occupied.jpg,Occupied,LandBank_Data\8303_E_114th_St_facing=60.jpg.Occupied.jpg,8303 E 114th St,facing=60,38.91591,-94.49548,Ruskin Hills,170,290950132102,6,5,South
8430_Holmes_Rd_facing=90.jpg.Occupied.jpg,Occupied,LandBank_Data\8430_Holmes_Rd_facing=90.jpg.Occupied.jpg,8430 Holmes Rd,facing=90,38.97403,-94.58152,Rolling Meadows,111,290950094004,6,2,Metro
8619_E_61st_Ter_facing=90.jpg.Occupied.jpg,Occupied,LandBank_Data\8619_E_61st_Ter_facing=90.jpg.Occupied.jpg,8619 E 61st Ter,facing=90,39.01275,-94.48674,Lewis Heights,45,290950105005,5,2,Metro
8748_DANIEL_BOONE_RD_facing=60.jpg.Occupied.jpg,Occupied,LandBank_Data\8748_DANIEL_BOONE_RD_facing=60.jpg.Occupied.jpg,8748 DANIEL BOONE RD,facing=60,38.96887,-94.5934,Santa Fe Hills,139,290950098002,6,2,Metro
8950_LEE'S_SUMMIT_RD_facing=180.jpg.Occupied.jpg,Occupied,LandBank_Data\8950_LEE'S_SUMMIT_RD_facing=180.jpg.Occupied.jpg,8950 LEE'S SUMMIT RD,facing=180,38.96069,-94.38884,Little Blue,178,290950143003,5,5,South
9209_Cleveland_Ave_facing=60.jpg.Occupied.jpg,Occupied,LandBank_Data\9209_Cleveland_Ave_facing=60.jpg.Occupied.jpg,9209 Cleveland Ave,facing=60,38.95867,-94.54372,Hidden Valley,154,290950102011,5,2,Metro
9209_Cleveland_Ave_facing=90.jpg.Occupied.jpg,Occupied,LandBank_Data\9209_Cleveland_Ave_facing=90.jpg.Occupied.jpg,9209 Cleveland Ave,facing=90,38.95867,-94.54372,Hidden Valley,154,290950102011,5,2,Metro
9300_Old_Santa_Fe_Rd_facing=60.jpg.Occupied.jpg,Occupied,LandBank_Data\9300_Old_Santa_Fe_Rd_facing=60.jpg.Occupied.jpg,9300 Old Santa Fe Rd,facing=60,38.955459999999995,-94.5084,Loma Vista,161,290950174002,5,5,South
9300_Old_Santa_Fe_Rd_facing=90.jpg.Occupied.jpg,Occupied,LandBank_Data\9300_Old_Santa_Fe_Rd_facing=90.jpg.Occupied.jpg,9300 Old Santa Fe Rd,facing=90,38.955459999999995,-94.5084,Loma Vista,161,290950174002,5,5,South
9301_N_Main_St_facing=60.jpg.Occupied.jpg,Occupied,LandBank_Data\9301_N_Main_St_facing=60.jpg.Occupied.jpg,9301 N Main St,facing=60,39.26262,-94.57919,Sherrydale,237,290470212071,2,4,North
9322_Myrtle_Ave_facing=60.jpg.Occupied.jpg,Occupied,LandBank_Data\9322_Myrtle_Ave_facing=60.jpg.Occupied.jpg,9322 Myrtle Ave,facing=60,38.95642,-94.54271,Hidden Valley,154,290950102011,5,2,Metro
9322_Myrtle_Ave_facing=90.jpg.Occupied.jpg,Occupied,LandBank_Data\9322_Myrtle_Ave_facing=90.jpg.Occupied.jpg,9322 Myrtle Ave,facing=90,38.95642,-94.54271,Hidden Valley,154,290950102011,5,2,Metro
9327_Cleveland_Ave_facing=60.jpg.Occupied.jpg,Occupied,LandBank_Data\9327_Cleveland_Ave_facing=60.jpg.Occupied.jpg,9327 Cleveland Ave,facing=60,38.9568,-94.54383,Hidden Valley,154,290950102011,5,2,Metro
935_Broadway_Blvd_facing=90.jpg.Occupied.jpg,Occupied,LandBank_Data\935_Broadway_Blvd_facing=90.jpg.Occupied.jpg,935 Broadway Blvd,facing=90,39.10256,-94.58803,CBD Downtown,4,290950157002,4,1,Central
9533_Charlotte_St_facing=60.jpg.Occupied.jpg,Occupied,LandBank_Data\9533_Charlotte_St_facing=60.jpg.Occupied.jpg,9533 Charlotte St,facing=60,38.95436,-94.57899,Linden Hills And Indian Heights,142,290950101032,6,5,South
9533_Charlotte_St_facing=90.jpg.Occupied.jpg,Occupied,LandBank_Data\9533_Charlotte_St_facing=90.jpg.Occupied.jpg,9533 Charlotte St,facing=90,38.95436,-94.57899,Linden Hills And Indian Heights,142,290950101032,6,5,South
