,Unnamed: 0,filename,category,file_path,Address,fov,Latitude,Longitude
0,0,10147_N_GREEN_HILLS_RD_facing=90.jpg.Occupied.jpg,Occupied,LandBank_Data\10147_N_GREEN_HILLS_RD_facing=90.jpg.Occupied.jpg,10147 N GREEN HILLS RD,facing=90,39.27807,-94.63019
1,1,103_W_19TH_ST_facing=60.jpg.Occupied.jpg,Occupied,LandBank_Data\103_W_19TH_ST_facing=60.jpg.Occupied.jpg,103 W 19TH ST,facing=60,39.09075,-94.58538
2,2,106_W_14th_St_facing=60.jpg.Occupied.jpg,Occupied,LandBank_Data\106_W_14th_St_facing=60.jpg.Occupied.jpg,106 W 14th St,facing=60,39.09757,-94.58472
3,3,1102_Agnes_Ave_facing=180.jpg.Abandoned.jpg,Abandoned,LandBank_Data\1102_Agnes_Ave_facing=180.jpg.Abandoned.jpg,1102 Agnes Ave,facing=180,39.100312,-94.547036
4,4,1116_E_44th_St_facing=60.jpg.Occupied.jpg,Occupied,LandBank_Data\1116_E_44th_St_facing=60.jpg.Occupied.jpg,1116 E 44th St,facing=60,39.04743,-94.57181
5,5,1120_E_Linwood_Blvd_facing=60.jpg.Occupied.jpg,Occupied,LandBank_Data\1120_E_Linwood_Blvd_facing=60.jpg.Occupied.jpg,1120 E Linwood Blvd,facing=60,39.06902,-94.57035
6,6,1120_E_Linwood_Blvd_facing=90.jpg.Occupied.jpg,Occupied,LandBank_Data\1120_E_Linwood_Blvd_facing=90.jpg.Occupied.jpg,1120 E Linwood Blvd,facing=90,39.06902,-94.57035
7,7,11217_Eastern_Ave_facing=180.jpg.Occupied.jpg,Occupied,LandBank_Data\11217_Eastern_Ave_facing=180.jpg.Occupied.jpg,11217 Eastern Ave,facing=180,38.91809,-94.50348
8,8,11217_Eastern_Ave_facing=60.jpg.Occupied.jpg,Occupied,LandBank_Data\11217_Eastern_Ave_facing=60.jpg.Occupied.jpg,11217 Eastern Ave,facing=60,38.91809,-94.50348
9,9,11256_Bales_Ave_facing=180.jpg.Occupied.jpg,Occupied,LandBank_Data\11256_Bales_Ave_facing=180.jpg.Occupied.jpg,11256 Bales Ave,facing=180,38.92169,-94.55072
10,10,11513_N_Oak_Trfy_facing=60.jpg.Occupied.jpg,Occupied,LandBank_Data\11513_N_Oak_Trfy_facing=60.jpg.Occupied.jpg,11513 N Oak Trfy,facing=60,39.30214,-94.57481
11,11,11513_N_Oak_Trfy_facing=90.jpg.Occupied.jpg,Occupied,LandBank_Data\11513_N_Oak_Trfy_facing=90.jpg.Occupied.jpg,11513 N Oak Trfy,facing=90,39.30214,-94.57481
12,12,11520_Holiday_Dr_facing=180.jpg.Occupied.jpg,Occupied,LandBank_Data\11520_Holiday_Dr_facing=180.jpg.Occupied.jpg,11520 Holiday Dr,facing=180,38.91301,-94.51378
13,13,11520_Holiday_Dr_facing=60.jpg.Occupied.jpg,Occupied,LandBank_Data\11520_Holiday_Dr_facing=60.jpg.Occupied.jpg,11520 Holiday Dr,facing=60,38.91301,-94.51378
14,14,115_W_75th_St_facing=180.jpg.Occupied.jpg,Occupied,LandBank_Data\115_W_75th_St_facing=180.jpg.Occupied.jpg,115 W 75th St,facing=180,38.9918,-94.59157
15,15,115_W_75th_St_facing=60.jpg.Occupied.jpg,Occupied,LandBank_Data\115_W_75th_St_facing=60.jpg.Occupied.jpg,115 W 75th St,facing=60,38.9918,-94.59157
16,16,115_W_75th_St_facing=90.jpg.Occupied.jpg,Occupied,LandBank_Data\115_W_75th_St_facing=90.jpg.Occupied.jpg,115 W 75th St,facing=90,38.9918,-94.59157
17,17,116_Topping_Ave_facing=60.jpg.Occupied.jpg,Occupied,LandBank_Data\116_Topping_Ave_facing=60.jpg.Occupied.jpg,116 Topping Ave,facing=60,39.11167,-94.51442
18,18,1300_BRUSH_CREEK_BLVD_facing=60.jpg.Abandoned.jpg,Abandoned,LandBank_Data\1300_BRUSH_CREEK_BLVD_facing=60.jpg.Abandoned.jpg,1300 BRUSH CREEK BLVD,facing=60,39.04368,-94.5701
19,19,1300_NE_Parvin_Rd_CLUBHOUSE_facing=180.jpg.Occupied.jpg,Occupied,LandBank_Data\1300_NE_Parvin_Rd_CLUBHOUSE_facing=180.jpg.Occupied.jpg,1300 NE Parvin Rd CLUBHOUSE,facing=180,39.17068,-94.56475
20,20,1311_E_13th_St_facing=60.jpg.Occupied.jpg,Occupied,LandBank_Data\1311_E_13th_St_facing=60.jpg.Occupied.jpg,1311 E 13th St,facing=60,39.09789,-94.56658
21,21,1319_Wyandotte_St_facing=60.jpg.Occupied.jpg,Occupied,LandBank_Data\1319_Wyandotte_St_facing=60.jpg.Occupied.jpg,1319 Wyandotte St,facing=60,39.09797,-94.58533
22,22,134_N_Hardesty_Ave_facing=60.jpg.Occupied.jpg,Occupied,LandBank_Data\134_N_Hardesty_Ave_facing=60.jpg.Occupied.jpg,134 N Hardesty Ave,facing=60,39.11403,-94.5192
23,23,1403_COLLINS_AVE_facing=180.jpg.Occupied.jpg,Occupied,LandBank_Data\1403_COLLINS_AVE_facing=180.jpg.Occupied.jpg,1403 COLLINS AVE,facing=180,39.09579,-94.52085
24,24,1406_E_45th_St_facing=180.jpg.Occupied.jpg,Occupied,LandBank_Data\1406_E_45th_St_facing=180.jpg.Occupied.jpg,1406 E 45th St,facing=180,39.0453,-94.56752
25,25,1410_St_Louis_Ave_facing=60.jpg.Occupied.jpg,Occupied,LandBank_Data\1410_St_Louis_Ave_facing=60.jpg.Occupied.jpg,1410 St Louis Ave,facing=60,39.10368,-94.60166
26,26,1416_DENVER_AVE_facing=90.jpg.Abandoned.jpg,Abandoned,LandBank_Data\1416_DENVER_AVE_facing=90.jpg.Abandoned.jpg,1416 DENVER AVE,facing=90,,
27,27,1500_St_Louis_Ave_facing=180.jpg.Occupied.jpg,Occupied,LandBank_Data\1500_St_Louis_Ave_facing=180.jpg.Occupied.jpg,1500 St Louis Ave,facing=180,39.10344,-94.60305
28,28,1500_St_Louis_Ave_facing=60.jpg.Occupied.jpg,Occupied,LandBank_Data\1500_St_Louis_Ave_facing=60.jpg.Occupied.jpg,1500 St Louis Ave,facing=60,39.10344,-94.60305
29,29,1522_CYPRESS_AVE_facing=90.jpg.Abandoned.jpg,Abandoned,LandBank_Data\1522_CYPRESS_AVE_facing=90.jpg.Abandoned.jpg,1522 CYPRESS AVE,facing=90,39.093039,-94.529995
30,30,1600_NE_Parvin_Rd_facing=60.jpg.Occupied.jpg,Occupied,LandBank_Data\1600_NE_Parvin_Rd_facing=60.jpg.Occupied.jpg,1600 NE Parvin Rd,facing=60,39.16743,-94.56005
31,31,1613_LAWN_AVE_facing=90.jpg.Abandoned.jpg,Abandoned,LandBank_Data\1613_LAWN_AVE_facing=90.jpg.Abandoned.jpg,1613 LAWN AVE,facing=90,,
32,32,1617_LISTER_AVE_facing=300.jpg.Abandoned.jpg,Abandoned,LandBank_Data\1617_LISTER_AVE_facing=300.jpg.Abandoned.jpg,1617 LISTER AVE,facing=300,39.091703,-94.526836
33,33,1621_Westport_Rd_facing=180.jpg.Occupied.jpg,Occupied,LandBank_Data\1621_Westport_Rd_facing=180.jpg.Occupied.jpg,1621 Westport Rd,facing=180,39.04997,-94.60523
34,34,1621_Westport_Rd_facing=60.jpg.Occupied.jpg,Occupied,LandBank_Data\1621_Westport_Rd_facing=60.jpg.Occupied.jpg,1621 Westport Rd,facing=60,39.04997,-94.60523
35,35,1623_CORRINGTON_AVE_facing=180.jpg.Occupied.jpg,Occupied,LandBank_Data\1623_CORRINGTON_AVE_facing=180.jpg.Occupied.jpg,1623 CORRINGTON AVE,facing=180,39.09145,-94.49854
36,36,1627_Topping_Ave_facing=90.jpg.Occupied.jpg,Occupied,LandBank_Data\1627_Topping_Ave_facing=90.jpg.Occupied.jpg,1627 Topping Ave,facing=90,39.09114,-94.5146
37,37,1628_BELMONT_AVE_facing=210.jpg.Abandoned.jpg,Abandoned,LandBank_Data\1628_BELMONT_AVE_facing=210.jpg.Abandoned.jpg,1628 BELMONT AVE,facing=210,39.090963,-94.510294
38,38,1646_Corrington_Ave_facing=180.jpg.Occupied.jpg,Occupied,LandBank_Data\1646_Corrington_Ave_facing=180.jpg.Occupied.jpg,1646 Corrington Ave,facing=180,39.09048,-94.49923
39,39,1646_Corrington_Ave_facing=60.jpg.Occupied.jpg,Occupied,LandBank_Data\1646_Corrington_Ave_facing=60.jpg.Occupied.jpg,1646 Corrington Ave,facing=60,39.09048,-94.49923
40,40,1707_Locust_St_facing=60.jpg.Occupied.jpg,Occupied,LandBank_Data\1707_Locust_St_facing=60.jpg.Occupied.jpg,1707 Locust St,facing=60,39.09275,-94.57741
41,41,1708_E_51st_St_facing=180.jpg.Occupied.jpg,Occupied,LandBank_Data\1708_E_51st_St_facing=180.jpg.Occupied.jpg,1708 E 51st St,facing=180,39.03443,-94.56472
42,42,1735_Euclid_Ave_facing=180.jpg.Occupied.jpg,Occupied,LandBank_Data\1735_Euclid_Ave_facing=180.jpg.Occupied.jpg,1735 Euclid Ave,facing=180,39.09188,-94.55835
43,43,1735_Euclid_Ave_facing=60.jpg.Occupied.jpg,Occupied,LandBank_Data\1735_Euclid_Ave_facing=60.jpg.Occupied.jpg,1735 Euclid Ave,facing=60,39.09188,-94.55835
44,44,1825_Askew_Ave_facing=60.jpg.Occupied.jpg,Occupied,LandBank_Data\1825_Askew_Ave_facing=60.jpg.Occupied.jpg,1825 Askew Ave,facing=60,39.08938,-94.53998
45,45,1918_E_55TH_ST_facing=180.jpg.Abandoned.jpg,Abandoned,LandBank_Data\1918_E_55TH_ST_facing=180.jpg.Abandoned.jpg,1918 E 55TH ST,facing=180,39.026779,-94.562387
46,46,1926_LAWN_AVE_facing=60.jpg.Occupied.jpg,Occupied,LandBank_Data\1926_LAWN_AVE_facing=60.jpg.Occupied.jpg,1926 LAWN AVE,facing=60,39.08762,-94.52842
47,47,1929_Prospect_Ave_facing=180.jpg.Abandoned.jpg,Abandoned,LandBank_Data\1929_Prospect_Ave_facing=180.jpg.Abandoned.jpg,1929 Prospect Ave,facing=180,39.088224,-94.551966
48,48,2000_E_12TH_ST_facing=90.jpg.Occupied.jpg,Occupied,LandBank_Data\2000_E_12TH_ST_facing=90.jpg.Occupied.jpg,2000 E 12TH ST,facing=90,39.09971,-94.55773
49,49,2004_Walrond_Ave_facing=180.jpg.Occupied.jpg,Occupied,LandBank_Data\2004_Walrond_Ave_facing=180.jpg.Occupied.jpg,2004 Walrond Ave,facing=180,39.08779,-94.54587
50,50,2016_E_82nd_Ter_facing=60.jpg.Occupied.jpg,Occupied,LandBank_Data\2016_E_82nd_Ter_facing=60.jpg.Occupied.jpg,2016 E 82nd Ter,facing=60,38.97785,-94.5636
51,51,2016_E_82nd_Ter_facing=90.jpg.Occupied.jpg,Occupied,LandBank_Data\2016_E_82nd_Ter_facing=90.jpg.Occupied.jpg,2016 E 82nd Ter,facing=90,38.97785,-94.5636
52,52,2018_E_35TH_ST_facing=90.jpg.Abandoned.jpg,Abandoned,LandBank_Data\2018_E_35TH_ST_facing=90.jpg.Abandoned.jpg,2018 E 35TH ST,facing=90,39.062822,-94.559272
53,53,2044_SPRUCE_AVE_facing=60.jpg.Abandoned.jpg,Abandoned,LandBank_Data\2044_SPRUCE_AVE_facing=60.jpg.Abandoned.jpg,2044 SPRUCE AVE,facing=60,39.085563,-94.532574
54,54,206_N_Wheeling_Ave_facing=180.jpg.Occupied.jpg,Occupied,LandBank_Data\206_N_Wheeling_Ave_facing=180.jpg.Occupied.jpg,206 N Wheeling Ave,facing=180,39.11317,-94.51086
55,55,206_N_Wheeling_Ave_facing=60.jpg.Occupied.jpg,Occupied,LandBank_Data\206_N_Wheeling_Ave_facing=60.jpg.Occupied.jpg,206 N Wheeling Ave,facing=60,39.11317,-94.51086
56,56,206_N_Wheeling_Ave_facing=90.jpg.Occupied.jpg,Occupied,LandBank_Data\206_N_Wheeling_Ave_facing=90.jpg.Occupied.jpg,206 N Wheeling Ave,facing=90,39.11317,-94.51086
57,57,2100_E_59th_St_facing=90.jpg.Abandoned.jpg,Abandoned,LandBank_Data\2100_E_59th_St_facing=90.jpg.Abandoned.jpg,2100 E 59th St,facing=90,39.019499,-94.561345
58,58,215_W_Gregory_Blvd_facing=60.jpg.Occupied.jpg,Occupied,LandBank_Data\215_W_Gregory_Blvd_facing=60.jpg.Occupied.jpg,215 W Gregory Blvd,facing=60,38.99913,-94.59241
59,59,2213_Wabash_Ave_facing=90.jpg.Abandoned.jpg,Abandoned,LandBank_Data\2213_Wabash_Ave_facing=90.jpg.Abandoned.jpg,2213 Wabash Ave,facing=90,39.085019,-94.553271
60,60,2221_E_37TH_ST_facing=90.jpg.Abandoned.jpg,Abandoned,LandBank_Data\2221_E_37TH_ST_facing=90.jpg.Abandoned.jpg,2221 E 37TH ST,facing=90,39.059507,-94.556924
61,61,2223_Prospect_Ave_facing=180.jpg.Occupied.jpg,Occupied,LandBank_Data\2223_Prospect_Ave_facing=180.jpg.Occupied.jpg,2223 Prospect Ave,facing=180,39.08474,-94.55187
62,62,2303_Jackson_Ave_facing=90.jpg.Abandoned.jpg,Abandoned,LandBank_Data\2303_Jackson_Ave_facing=90.jpg.Abandoned.jpg,2303 Jackson Ave,facing=90,39.083405,-94.533748
63,63,2311_Hardesty_Ave_facing=90.jpg.Abandoned.jpg,Abandoned,LandBank_Data\2311_Hardesty_Ave_facing=90.jpg.Abandoned.jpg,2311 Hardesty Ave,facing=90,39.082774,-94.519929
64,64,2315_POPLAR_AVE_facing=180.jpg.Abandoned.jpg,Abandoned,LandBank_Data\2315_POPLAR_AVE_facing=180.jpg.Abandoned.jpg,2315 POPLAR AVE,facing=180,,
65,65,2317_CHELSEA_AVE_facing=210.jpg.Abandoned.jpg,Abandoned,LandBank_Data\2317_CHELSEA_AVE_facing=210.jpg.Abandoned.jpg,2317 CHELSEA AVE,facing=210,,
66,66,2317_CHELSEA_AVE_facing=60.jpg.Abandoned.jpg,Abandoned,LandBank_Data\2317_CHELSEA_AVE_facing=60.jpg.Abandoned.jpg,2317 CHELSEA AVE,facing=60,,
67,67,2325_JACKSON_AVE_facing=180.jpg.Abandoned.jpg,Abandoned,LandBank_Data\2325_JACKSON_AVE_facing=180.jpg.Abandoned.jpg,2325 JACKSON AVE,facing=180,,
68,68,2325_JACKSON_AVE_facing=210.jpg.Abandoned.jpg,Abandoned,LandBank_Data\2325_JACKSON_AVE_facing=210.jpg.Abandoned.jpg,2325 JACKSON AVE,facing=210,,
69,69,2325_JACKSON_AVE_facing=60.jpg.Abandoned.jpg,Abandoned,LandBank_Data\2325_JACKSON_AVE_facing=60.jpg.Abandoned.jpg,2325 JACKSON AVE,facing=60,,
70,70,2325_JACKSON_AVE_facing=90.jpg.Abandoned.jpg,Abandoned,LandBank_Data\2325_JACKSON_AVE_facing=90.jpg.Abandoned.jpg,2325 JACKSON AVE,facing=90,,
71,71,2404_Monroe_Ave_facing=210.jpg.Abandoned.jpg,Abandoned,LandBank_Data\2404_Monroe_Ave_facing=210.jpg.Abandoned.jpg,2404 Monroe Ave,facing=210,39.082547,-94.539503
72,72,2412_Spruce_Ave_facing=300.jpg.Abandoned.jpg,Abandoned,LandBank_Data\2412_Spruce_Ave_facing=300.jpg.Abandoned.jpg,2412 Spruce Ave,facing=300,39.081623,-94.53279
73,73,2412_Spruce_Ave_facing=90.jpg.Abandoned.jpg,Abandoned,LandBank_Data\2412_Spruce_Ave_facing=90.jpg.Abandoned.jpg,2412 Spruce Ave,facing=90,39.081623,-94.53279
74,74,2423_Montgall_Ave_facing=90.jpg.Abandoned.jpg,Abandoned,LandBank_Data\2423_Montgall_Ave_facing=90.jpg.Abandoned.jpg,2423 Montgall Ave,facing=90,39.08221,-94.551066
75,75,2504_Topping_Ave_facing=60.jpg.Occupied.jpg,Occupied,LandBank_Data\2504_Topping_Ave_facing=60.jpg.Occupied.jpg,2504 Topping Ave,facing=60,39.07907,-94.51584
76,76,2504_Topping_Ave_facing=90.jpg.Occupied.jpg,Occupied,LandBank_Data\2504_Topping_Ave_facing=90.jpg.Occupied.jpg,2504 Topping Ave,facing=90,39.07907,-94.51584
77,77,2508_E_46TH_ST_facing=90.jpg.Abandoned.jpg,Abandoned,LandBank_Data\2508_E_46TH_ST_facing=90.jpg.Abandoned.jpg,2508 E 46TH ST,facing=90,39.04284,-94.554954
78,78,2508_MYRTLE_AVE_facing=90.jpg.Abandoned.jpg,Abandoned,LandBank_Data\2508_MYRTLE_AVE_facing=90.jpg.Abandoned.jpg,2508 MYRTLE AVE,facing=90,39.079784,-94.536238
79,79,2511_E_37th_St_facing=60.jpg.Occupied.jpg,Occupied,LandBank_Data\2511_E_37th_St_facing=60.jpg.Occupied.jpg,2511 E 37th St,facing=60,39.05918,-94.55388
80,80,2513_Spruce_facing=60.jpg.Abandoned.jpg,Abandoned,LandBank_Data\2513_Spruce_facing=60.jpg.Abandoned.jpg,2513 Spruce,facing=60,,
81,81,2515_WALROND_AVE_facing=300.jpg.Abandoned.jpg,Abandoned,LandBank_Data\2515_WALROND_AVE_facing=300.jpg.Abandoned.jpg,2515 WALROND AVE,facing=300,,
82,82,2515_WALROND_AVE_facing=90.jpg.Abandoned.jpg,Abandoned,LandBank_Data\2515_WALROND_AVE_facing=90.jpg.Abandoned.jpg,2515 WALROND AVE,facing=90,,
83,83,2524_ELMWOOD_AVE_facing=90.jpg.Abandoned.jpg,Abandoned,LandBank_Data\2524_ELMWOOD_AVE_facing=90.jpg.Abandoned.jpg,2524 ELMWOOD AVE,facing=90,39.079133,-94.529772
84,84,2528_Park_Ave_facing=60.jpg.Occupied.jpg,Occupied,LandBank_Data\2528_Park_Ave_facing=60.jpg.Occupied.jpg,2528 Park Ave,facing=60,39.07976,-94.55614
85,85,2528_Park_Ave_facing=90.jpg.Occupied.jpg,Occupied,LandBank_Data\2528_Park_Ave_facing=90.jpg.Occupied.jpg,2528 Park Ave,facing=90,39.07976,-94.55614
86,86,2531_Prospect_Ave_facing=60.jpg.Occupied.jpg,Occupied,LandBank_Data\2531_Prospect_Ave_facing=60.jpg.Occupied.jpg,2531 Prospect Ave,facing=60,39.07949,-94.55202
87,87,2531_Prospect_Ave_facing=90.jpg.Occupied.jpg,Occupied,LandBank_Data\2531_Prospect_Ave_facing=90.jpg.Occupied.jpg,2531 Prospect Ave,facing=90,39.07949,-94.55202
88,88,2535_Flora_Ave_facing=180.jpg.Occupied.jpg,Occupied,LandBank_Data\2535_Flora_Ave_facing=180.jpg.Occupied.jpg,2535 Flora Ave,facing=180,39.07963,-94.56464
89,89,2539_AGNES_AVE_facing=180.jpg.Occupied.jpg,Occupied,LandBank_Data\2539_AGNES_AVE_facing=180.jpg.Occupied.jpg,2539 AGNES AVE,facing=180,39.07902,-94.54738
90,90,2605_E_24TH_TER_facing=60.jpg.Occupied.jpg,Occupied,LandBank_Data\2605_E_24TH_TER_facing=60.jpg.Occupied.jpg,2605 E 24TH TER,facing=60,39.08167,-94.55181
91,91,2606_Bales_Ave_facing=60.jpg.Abandoned.jpg,Abandoned,LandBank_Data\2606_Bales_Ave_facing=60.jpg.Abandoned.jpg,2606 Bales Ave,facing=60,39.078198,-94.542063
92,92,2611_CYPRESS_AVE_facing=90.jpg.Abandoned.jpg,Abandoned,LandBank_Data\2611_CYPRESS_AVE_facing=90.jpg.Abandoned.jpg,2611 CYPRESS AVE,facing=90,39.077828,-94.530884
93,93,2611_E_27th_St_facing=180.jpg.Occupied.jpg,Occupied,LandBank_Data\2611_E_27th_St_facing=180.jpg.Occupied.jpg,2611 E 27th St,facing=180,39.07676,-94.55195
94,94,2616_Spruce_Ave_facing=90.jpg.Abandoned.jpg,Abandoned,LandBank_Data\2616_Spruce_Ave_facing=90.jpg.Abandoned.jpg,2616 Spruce Ave,facing=90,39.077646,-94.532976
95,95,2623_BELLEFONTAINE_AVE_facing=300.jpg.Abandoned.jpg,Abandoned,LandBank_Data\2623_BELLEFONTAINE_AVE_facing=300.jpg.Abandoned.jpg,2623 BELLEFONTAINE AVE,facing=300,,
96,96,2629_Drury_Ave_facing=300.jpg.Abandoned.jpg,Abandoned,LandBank_Data\2629_Drury_Ave_facing=300.jpg.Abandoned.jpg,2629 Drury Ave,facing=300,39.076708,-94.519069
97,97,2640_Askew_Ave_facing=60.jpg.Abandoned.jpg,Abandoned,LandBank_Data\2640_Askew_Ave_facing=60.jpg.Abandoned.jpg,2640 Askew Ave,facing=60,39.077051,-94.540997
98,98,2643_MONTGALL_AVE_facing=90.jpg.Abandoned.jpg,Abandoned,LandBank_Data\2643_MONTGALL_AVE_facing=90.jpg.Abandoned.jpg,2643 MONTGALL AVE,facing=90,39.077315,-94.551302
99,99,2704_E_LINWOOD_BLVD_facing=180.jpg.Occupied.jpg,Occupied,LandBank_Data\2704_E_LINWOOD_BLVD_facing=180.jpg.Occupied.jpg,2704 E LINWOOD BLVD,facing=180,39.06834,-94.55119
100,100,2706_Independence_Blvd_facing=60.jpg.Occupied.jpg,Occupied,LandBank_Data\2706_Independence_Blvd_facing=60.jpg.Occupied.jpg,2706 Independence Blvd,facing=60,39.10663,-94.54877
101,101,2714_CYPRESS_AVE_facing=180.jpg.Abandoned.jpg,Abandoned,LandBank_Data\2714_CYPRESS_AVE_facing=180.jpg.Abandoned.jpg,2714 CYPRESS AVE,facing=180,39.075713,-94.530557
102,102,2714_KENSINGTON_AVE_facing=60.jpg.Abandoned.jpg,Abandoned,LandBank_Data\2714_KENSINGTON_AVE_facing=60.jpg.Abandoned.jpg,2714 KENSINGTON AVE,facing=60,39.075738,-94.5315
103,103,2719_OLIVE_ST_facing=60.jpg.Occupied.jpg,Occupied,LandBank_Data\2719_OLIVE_ST_facing=60.jpg.Occupied.jpg,2719 OLIVE ST,facing=60,39.07646,-94.55449
104,104,2719_OLIVE_ST_facing=90.jpg.Occupied.jpg,Occupied,LandBank_Data\2719_OLIVE_ST_facing=90.jpg.Occupied.jpg,2719 OLIVE ST,facing=90,39.07646,-94.55449
105,105,2730_Brighton_Ave_facing=90.jpg.Abandoned.jpg,Abandoned,LandBank_Data\2730_Brighton_Ave_facing=90.jpg.Abandoned.jpg,2730 Brighton Ave,facing=90,39.07502,-94.525035
106,106,2732_Spruce_Ave_facing=60.jpg.Occupied.jpg,Occupied,LandBank_Data\2732_Spruce_Ave_facing=60.jpg.Occupied.jpg,2732 Spruce Ave,facing=60,39.07522,-94.53356
107,107,2732_Spruce_Ave_facing=90.jpg.Occupied.jpg,Occupied,LandBank_Data\2732_Spruce_Ave_facing=90.jpg.Occupied.jpg,2732 Spruce Ave,facing=90,39.07522,-94.53356
108,108,2736_BROOKLYN_AVE_facing=180.jpg.Occupied.jpg,Occupied,LandBank_Data\2736_BROOKLYN_AVE_facing=180.jpg.Occupied.jpg,2736 BROOKLYN AVE,facing=180,39.07593,-94.55754
109,109,2736_BROOKLYN_AVE_facing=60.jpg.Occupied.jpg,Occupied,LandBank_Data\2736_BROOKLYN_AVE_facing=60.jpg.Occupied.jpg,2736 BROOKLYN AVE,facing=60,39.07593,-94.55754
110,110,2736_BROOKLYN_AVE_facing=90.jpg.Occupied.jpg,Occupied,LandBank_Data\2736_BROOKLYN_AVE_facing=90.jpg.Occupied.jpg,2736 BROOKLYN AVE,facing=90,39.07593,-94.55754
111,111,2736_Brooklyn_facing=180.jpg.Abandoned.jpg,Abandoned,LandBank_Data\2736_Brooklyn_facing=180.jpg.Abandoned.jpg,2736 Brooklyn,facing=180,,
112,112,2744_MERSINGTON_AVE_facing=60.jpg.Abandoned.jpg,Abandoned,LandBank_Data\2744_MERSINGTON_AVE_facing=60.jpg.Abandoned.jpg,2744 MERSINGTON AVE,facing=60,39.074962,-94.537586
113,113,2801_E_39th_St_facing=90.jpg.Abandoned.jpg,Abandoned,LandBank_Data\2801_E_39th_St_facing=90.jpg.Abandoned.jpg,2801 E 39th St,facing=90,39.055359,-94.551189
114,114,2801_Holmes_St_facing=60.jpg.Occupied.jpg,Occupied,LandBank_Data\2801_Holmes_St_facing=60.jpg.Occupied.jpg,2801 Holmes St,facing=60,39.07531,-94.57601
115,115,2805_SPRUCE_AVE_facing=90.jpg.Abandoned.jpg,Abandoned,LandBank_Data\2805_SPRUCE_AVE_facing=90.jpg.Abandoned.jpg,2805 SPRUCE AVE,facing=90,39.074409,-94.533323
116,116,2826_ELMWOOD_AVE_facing=180.jpg.Abandoned.jpg,Abandoned,LandBank_Data\2826_ELMWOOD_AVE_facing=180.jpg.Abandoned.jpg,2826 ELMWOOD AVE,facing=180,,
117,117,2855_Southwest_Blvd_facing=90.jpg.Occupied.jpg,Occupied,LandBank_Data\2855_Southwest_Blvd_facing=90.jpg.Occupied.jpg,2855 Southwest Blvd,facing=90,39.07544,-94.60255
118,118,2905_OAKLEY_AVE_facing=90.jpg.Abandoned.jpg,Abandoned,LandBank_Data\2905_OAKLEY_AVE_facing=90.jpg.Abandoned.jpg,2905 OAKLEY AVE,facing=90,39.072177,-94.518151
119,119,2916_E_40th_St_facing=60.jpg.Abandoned.jpg,Abandoned,LandBank_Data\2916_E_40th_St_facing=60.jpg.Abandoned.jpg,2916 E 40th St,facing=60,39.05349,-94.549381
120,120,2922_Highland_Ave_facing=90.jpg.Occupied.jpg,Occupied,LandBank_Data\2922_Highland_Ave_facing=90.jpg.Occupied.jpg,2922 Highland Ave,facing=90,39.07294,-94.56344
121,121,2929_PARK_AVE_facing=300.jpg.Abandoned.jpg,Abandoned,LandBank_Data\2929_PARK_AVE_facing=300.jpg.Abandoned.jpg,2929 PARK AVE,facing=300,39.0726,-94.556168
122,122,2939_WABASH_AVE_facing=90.jpg.Abandoned.jpg,Abandoned,LandBank_Data\2939_WABASH_AVE_facing=90.jpg.Abandoned.jpg,2939 WABASH AVE,facing=90,,
123,123,3001_CYPRESS_AVE_facing=90.jpg.Abandoned.jpg,Abandoned,LandBank_Data\3001_CYPRESS_AVE_facing=90.jpg.Abandoned.jpg,3001 CYPRESS AVE,facing=90,39.070814,-94.530695
124,124,3009_AGNES_AVE_facing=120.jpg.Abandoned.jpg,Abandoned,LandBank_Data\3009_AGNES_AVE_facing=120.jpg.Abandoned.jpg,3009 AGNES AVE,facing=120,39.070995,-94.548164
125,125,3011_MONTGALL_AVE_facing=90.jpg.Abandoned.jpg,Abandoned,LandBank_Data\3011_MONTGALL_AVE_facing=90.jpg.Abandoned.jpg,3011 MONTGALL AVE,facing=90,,
126,126,3012_Cleveland_Ave_facing=180.jpg.Abandoned.jpg,Abandoned,LandBank_Data\3012_Cleveland_Ave_facing=180.jpg.Abandoned.jpg,3012 Cleveland Ave,facing=180,,
127,127,3014_POPLAR_AVE_facing=180.jpg.Abandoned.jpg,Abandoned,LandBank_Data\3014_POPLAR_AVE_facing=180.jpg.Abandoned.jpg,3014 POPLAR AVE,facing=180,,
128,128,3014_POPLAR_AVE_facing=60.jpg.Abandoned.jpg,Abandoned,LandBank_Data\3014_POPLAR_AVE_facing=60.jpg.Abandoned.jpg,3014 POPLAR AVE,facing=60,,
129,129,3017_E_60TH_ST_facing=210.jpg.Abandoned.jpg,Abandoned,LandBank_Data\3017_E_60TH_ST_facing=210.jpg.Abandoned.jpg,3017 E 60TH ST,facing=210,39.017444,-94.550211
130,130,301_NE_115th_St_facing=60.jpg.Occupied.jpg,Occupied,LandBank_Data\301_NE_115th_St_facing=60.jpg.Occupied.jpg,301 NE 115th St,facing=60,39.30194,-94.57651
131,131,301_NE_115th_St_facing=90.jpg.Occupied.jpg,Occupied,LandBank_Data\301_NE_115th_St_facing=90.jpg.Occupied.jpg,301 NE 115th St,facing=90,39.30194,-94.57651
132,132,301_W_Blue_Ridge_Blvd_facing=180.jpg.Occupied.jpg,Occupied,LandBank_Data\301_W_Blue_Ridge_Blvd_facing=180.jpg.Occupied.jpg,301 W Blue Ridge Blvd,facing=180,38.8898,-94.59692
133,133,3021_Woodland_Avenue_facing=60.jpg.Abandoned.jpg,Abandoned,LandBank_Data\3021_Woodland_Avenue_facing=60.jpg.Abandoned.jpg,3021 Woodland Avenue,facing=60,39.071246,-94.562026
134,134,3027_E_27th_St_facing=60.jpg.Occupied.jpg,Occupied,LandBank_Data\3027_E_27th_St_facing=60.jpg.Occupied.jpg,3027 E 27th St,facing=60,39.07658,-94.54661
135,135,3033_E_59th_St_facing=300.jpg.Abandoned.jpg,Abandoned,LandBank_Data\3033_E_59th_St_facing=300.jpg.Abandoned.jpg,3033 E 59th St,facing=300,39.019087,-94.549581
136,136,305_BELLAIRE_AVE_facing=90.jpg.Abandoned.jpg,Abandoned,LandBank_Data\305_BELLAIRE_AVE_facing=90.jpg.Abandoned.jpg,305 BELLAIRE AVE,facing=90,39.110269,-94.513191
137,137,308_Drury_Ave_facing=60.jpg.Occupied.jpg,Occupied,LandBank_Data\308_Drury_Ave_facing=60.jpg.Occupied.jpg,308 Drury Ave,facing=60,39.11028,-94.51798
138,138,309_Lydia_Ave_facing=60.jpg.Occupied.jpg,Occupied,LandBank_Data\309_Lydia_Ave_facing=60.jpg.Occupied.jpg,309 Lydia Ave,facing=60,39.11224,-94.56536
139,139,3108_NE_39th_St_facing=60.jpg.Occupied.jpg,Occupied,LandBank_Data\3108_NE_39th_St_facing=60.jpg.Occupied.jpg,3108 NE 39th St,facing=60,39.1654,-94.54302
140,140,3108_NE_39th_St_facing=90.jpg.Occupied.jpg,Occupied,LandBank_Data\3108_NE_39th_St_facing=90.jpg.Occupied.jpg,3108 NE 39th St,facing=90,39.1654,-94.54302
141,141,3114_CHELSEA_AVE_facing=90.jpg.Abandoned.jpg,Abandoned,LandBank_Data\3114_CHELSEA_AVE_facing=90.jpg.Abandoned.jpg,3114 CHELSEA AVE,facing=90,39.068424,-94.527824
142,142,3130_Troost_Ave_facing=90.jpg.Occupied.jpg,Occupied,LandBank_Data\3130_Troost_Ave_facing=90.jpg.Occupied.jpg,3130 Troost Ave,facing=90,39.06945,-94.5717
143,143,3142_Troost_Ave_facing=180.jpg.Occupied.jpg,Occupied,LandBank_Data\3142_Troost_Ave_facing=180.jpg.Occupied.jpg,3142 Troost Ave,facing=180,39.06917,-94.5718
144,144,3142_Troost_Ave_facing=60.jpg.Occupied.jpg,Occupied,LandBank_Data\3142_Troost_Ave_facing=60.jpg.Occupied.jpg,3142 Troost Ave,facing=60,39.06917,-94.5718
145,145,3144_TROOST_AVE_facing=180.jpg.Occupied.jpg,Occupied,LandBank_Data\3144_TROOST_AVE_facing=180.jpg.Occupied.jpg,3144 TROOST AVE,facing=180,39.06917,-94.5718
146,146,3200_E_28TH_ST_facing=90.jpg.Abandoned.jpg,Abandoned,LandBank_Data\3200_E_28TH_ST_facing=90.jpg.Abandoned.jpg,3200 E 28TH ST,facing=90,39.074611,-94.545816
147,147,3201_BRIGHTON_AVE_facing=90.jpg.Occupied.jpg,Occupied,LandBank_Data\3201_BRIGHTON_AVE_facing=90.jpg.Occupied.jpg,3201 BRIGHTON AVE,facing=90,35.79752,-103.89058
148,148,3205_COLLEGE_AVE_facing=90.jpg.Abandoned.jpg,Abandoned,LandBank_Data\3205_COLLEGE_AVE_facing=90.jpg.Abandoned.jpg,3205 COLLEGE AVE,facing=90,,
149,149,3208_Spruce_Ave_facing=180.jpg.Abandoned.jpg,Abandoned,LandBank_Data\3208_Spruce_Ave_facing=180.jpg.Abandoned.jpg,3208 Spruce Ave,facing=180,39.066946,-94.533405
150,150,3211_E_33RD_ST_facing=180.jpg.Abandoned.jpg,Abandoned,LandBank_Data\3211_E_33RD_ST_facing=180.jpg.Abandoned.jpg,3211 E 33RD ST,facing=180,,
151,151,3213_E_59th_St_facing=180.jpg.Occupied.jpg,Occupied,LandBank_Data\3213_E_59th_St_facing=180.jpg.Occupied.jpg,3213 E 59th St,facing=180,39.01879,-94.54796
152,152,3222_COLLEGE_AVE_facing=210.jpg.Abandoned.jpg,Abandoned,LandBank_Data\3222_COLLEGE_AVE_facing=210.jpg.Abandoned.jpg,3222 COLLEGE AVE,facing=210,,
153,153,3222_COLLEGE_AVE_facing=60.jpg.Abandoned.jpg,Abandoned,LandBank_Data\3222_COLLEGE_AVE_facing=60.jpg.Abandoned.jpg,3222 COLLEGE AVE,facing=60,,
154,154,3222_COLLEGE_AVE_facing=90.jpg.Abandoned.jpg,Abandoned,LandBank_Data\3222_COLLEGE_AVE_facing=90.jpg.Abandoned.jpg,3222 COLLEGE AVE,facing=90,,
155,155,3222_E_Linwood_Blvd_facing=300.jpg.Abandoned.jpg,Abandoned,LandBank_Data\3222_E_Linwood_Blvd_facing=300.jpg.Abandoned.jpg,3222 E Linwood Blvd,facing=300,39.067783,-94.545022
156,156,3222_E_Linwood_Blvd_facing=90.jpg.Abandoned.jpg,Abandoned,LandBank_Data\3222_E_Linwood_Blvd_facing=90.jpg.Abandoned.jpg,3222 E Linwood Blvd,facing=90,39.067783,-94.545022
157,157,3228_COLLEGE_AVE_facing=90.jpg.Abandoned.jpg,Abandoned,LandBank_Data\3228_COLLEGE_AVE_facing=90.jpg.Abandoned.jpg,3228 COLLEGE AVE,facing=90,,
158,158,3230_Troost_Ave_facing=180.jpg.Occupied.jpg,Occupied,LandBank_Data\3230_Troost_Ave_facing=180.jpg.Occupied.jpg,3230 Troost Ave,facing=180,39.06729,-94.57188
159,159,3230_Troost_Ave_facing=60.jpg.Occupied.jpg,Occupied,LandBank_Data\3230_Troost_Ave_facing=60.jpg.Occupied.jpg,3230 Troost Ave,facing=60,39.06729,-94.57188
160,160,3237_PARK_AVE_facing=180.jpg.Abandoned.jpg,Abandoned,LandBank_Data\3237_PARK_AVE_facing=180.jpg.Abandoned.jpg,3237 PARK AVE,facing=180,,
161,161,3250_N_Ameristar_Dr_facing=60.jpg.Occupied.jpg,Occupied,LandBank_Data\3250_N_Ameristar_Dr_facing=60.jpg.Occupied.jpg,3250 N Ameristar Dr,facing=60,39.15307,-94.48325
162,162,3303_E_27th_ST_facing=180.jpg.Abandoned.jpg,Abandoned,LandBank_Data\3303_E_27th_ST_facing=180.jpg.Abandoned.jpg,3303 E 27th ST,facing=180,39.076811,-94.544142
163,163,3307_BALES_facing=90.jpg.Abandoned.jpg,Abandoned,LandBank_Data\3307_BALES_facing=90.jpg.Abandoned.jpg,3307 BALES,facing=90,39.065658,-94.54279
164,164,3307_PARK_AVE_facing=90.jpg.Abandoned.jpg,Abandoned,LandBank_Data\3307_PARK_AVE_facing=90.jpg.Abandoned.jpg,3307 PARK AVE,facing=90,39.066009,-94.556501
165,165,3309_E_62ND_ST_facing=60.jpg.Occupied.jpg,Occupied,LandBank_Data\3309_E_62ND_ST_facing=60.jpg.Occupied.jpg,3309 E 62ND ST,facing=60,39.01363,-94.54748
166,166,3312_Norton_Ave_facing=300.jpg.Abandoned.jpg,Abandoned,LandBank_Data\3312_Norton_Ave_facing=300.jpg.Abandoned.jpg,3312 Norton Ave,facing=300,39.065165,-94.535808
167,167,3314_Spruce_Ave_facing=60.jpg.Occupied.jpg,Occupied,LandBank_Data\3314_Spruce_Ave_facing=60.jpg.Occupied.jpg,3314 Spruce Ave,facing=60,39.06507,-94.53383
168,168,3315_SPRUCE_AVE_facing=90.jpg.Abandoned.jpg,Abandoned,LandBank_Data\3315_SPRUCE_AVE_facing=90.jpg.Abandoned.jpg,3315 SPRUCE AVE,facing=90,,
169,169,3318_GARFIELD_AVE_facing=90.jpg.Abandoned.jpg,Abandoned,LandBank_Data\3318_GARFIELD_AVE_facing=90.jpg.Abandoned.jpg,3318 GARFIELD AVE,facing=90,39.065652,-94.558848
170,170,3325_Chestnut_Ave_facing=60.jpg.Occupied.jpg,Occupied,LandBank_Data\3325_Chestnut_Ave_facing=60.jpg.Occupied.jpg,3325 Chestnut Ave,facing=60,39.0653,-94.55044
171,171,3325_Chestnut_Ave_facing=90.jpg.Occupied.jpg,Occupied,LandBank_Data\3325_Chestnut_Ave_facing=90.jpg.Occupied.jpg,3325 Chestnut Ave,facing=90,39.0653,-94.55044
172,172,3330_Park_Ave_facing=60.jpg.Occupied.jpg,Occupied,LandBank_Data\3330_Park_Ave_facing=60.jpg.Occupied.jpg,3330 Park Ave,facing=60,39.06524,-94.55689
173,173,3331_COLLEGE_AVE_facing=90.jpg.Abandoned.jpg,Abandoned,LandBank_Data\3331_COLLEGE_AVE_facing=90.jpg.Abandoned.jpg,3331 COLLEGE AVE,facing=90,,
174,174,3331_PARK_AVE_facing=90.jpg.Abandoned.jpg,Abandoned,LandBank_Data\3331_PARK_AVE_facing=90.jpg.Abandoned.jpg,3331 PARK AVE,facing=90,39.065262,-94.55655
175,175,3343_Woodland_facing=90.jpg.Abandoned.jpg,Abandoned,LandBank_Data\3343_Woodland_facing=90.jpg.Abandoned.jpg,3343 Woodland,facing=90,39.064909,-94.562359
176,176,3345_Chestnut_Ave_facing=90.jpg.Abandoned.jpg,Abandoned,LandBank_Data\3345_Chestnut_Ave_facing=90.jpg.Abandoned.jpg,3345 Chestnut Ave,facing=90,39.064628,-94.550801
177,177,3401_E_62nd_St_facing=180.jpg.Occupied.jpg,Occupied,LandBank_Data\3401_E_62nd_St_facing=180.jpg.Occupied.jpg,3401 E 62nd St,facing=180,39.01358,-94.54662
178,178,3401_E_62nd_St_facing=60.jpg.Occupied.jpg,Occupied,LandBank_Data\3401_E_62nd_St_facing=60.jpg.Occupied.jpg,3401 E 62nd St,facing=60,39.01358,-94.54662
179,179,3414_E_27TH_ST_facing=60.jpg.Occupied.jpg,Occupied,LandBank_Data\3414_E_27TH_ST_facing=60.jpg.Occupied.jpg,3414 E 27TH ST,facing=60,39.07692,-94.54253
180,180,3417_Highland_Ave_facing=300.jpg.Abandoned.jpg,Abandoned,LandBank_Data\3417_Highland_Ave_facing=300.jpg.Abandoned.jpg,3417 Highland Ave,facing=300,39.064001,-94.563507
181,181,3423_Brooklyn_Ave_facing=90.jpg.Abandoned.jpg,Abandoned,LandBank_Data\3423_Brooklyn_Ave_facing=90.jpg.Abandoned.jpg,3423 Brooklyn Ave,facing=90,39.063748,-94.557792
182,182,3429_Chestnut_Ave_facing=180.jpg.Abandoned.jpg,Abandoned,LandBank_Data\3429_Chestnut_Ave_facing=180.jpg.Abandoned.jpg,3429 Chestnut Ave,facing=180,39.063259,-94.550865
183,183,3429_Woodland_Ave_facing=90.jpg.Abandoned.jpg,Abandoned,LandBank_Data\3429_Woodland_Ave_facing=90.jpg.Abandoned.jpg,3429 Woodland Ave,facing=90,39.063639,-94.562431
184,184,3431_JACKSON_AVE_facing=90.jpg.Abandoned.jpg,Abandoned,LandBank_Data\3431_JACKSON_AVE_facing=90.jpg.Abandoned.jpg,3431 JACKSON AVE,facing=90,39.062778,-94.534769
185,185,3435_HOLMES_ST_facing=60.jpg.Occupied.jpg,Occupied,LandBank_Data\3435_HOLMES_ST_facing=60.jpg.Occupied.jpg,3435 HOLMES ST,facing=60,39.06444,-94.57596
186,186,3435_HOLMES_ST_facing=90.jpg.Occupied.jpg,Occupied,LandBank_Data\3435_HOLMES_ST_facing=90.jpg.Occupied.jpg,3435 HOLMES ST,facing=90,39.06444,-94.57596
187,187,3440_BELLEFONTAINE_AVE_facing=60.jpg.Abandoned.jpg,Abandoned,LandBank_Data\3440_BELLEFONTAINE_AVE_facing=60.jpg.Abandoned.jpg,3440 BELLEFONTAINE AVE,facing=60,39.062745,-94.547507
188,188,3508_E_36TH_ST_facing=180.jpg.Abandoned.jpg,Abandoned,LandBank_Data\3508_E_36TH_ST_facing=180.jpg.Abandoned.jpg,3508 E 36TH ST,facing=180,39.060544,-94.542475
189,189,3515_COLLEGE_AVE_facing=60.jpg.Abandoned.jpg,Abandoned,LandBank_Data\3515_COLLEGE_AVE_facing=60.jpg.Abandoned.jpg,3515 COLLEGE AVE,facing=60,,
190,190,3524_PARK_AVE_facing=180.jpg.Occupied.jpg,Occupied,LandBank_Data\3524_PARK_AVE_facing=180.jpg.Occupied.jpg,3524 PARK AVE,facing=180,39.06198,-94.55705
191,191,3615_FREMONT_AVE_facing=180.jpg.Abandoned.jpg,Abandoned,LandBank_Data\3615_FREMONT_AVE_facing=180.jpg.Abandoned.jpg,3615 FREMONT AVE,facing=180,,
192,192,3618_SOUTH_BENTON_AVE_facing=90.jpg.Abandoned.jpg,Abandoned,LandBank_Data\3618_SOUTH_BENTON_AVE_facing=90.jpg.Abandoned.jpg,3618 SOUTH BENTON AVE,facing=90,39.059567,-94.549911
193,193,3647_OLIVE_ST_facing=90.jpg.Abandoned.jpg,Abandoned,LandBank_Data\3647_OLIVE_ST_facing=90.jpg.Abandoned.jpg,3647 OLIVE ST,facing=90,39.059441,-94.555638
194,194,3700_PROSPECT_AVE_facing=60.jpg.Occupied.jpg,Occupied,LandBank_Data\3700_PROSPECT_AVE_facing=60.jpg.Occupied.jpg,3700 PROSPECT AVE,facing=60,39.05917,-94.55366
195,195,3700_PROSPECT_AVE_facing=90.jpg.Occupied.jpg,Occupied,LandBank_Data\3700_PROSPECT_AVE_facing=90.jpg.Occupied.jpg,3700 PROSPECT AVE,facing=90,39.05917,-94.55366
196,196,3709_Askew_Ave_facing=300.jpg.Abandoned.jpg,Abandoned,LandBank_Data\3709_Askew_Ave_facing=300.jpg.Abandoned.jpg,3709 Askew Ave,facing=300,39.058305,-94.541942
197,197,3742_Askew_Ave_facing=60.jpg.Abandoned.jpg,Abandoned,LandBank_Data\3742_Askew_Ave_facing=60.jpg.Abandoned.jpg,3742 Askew Ave,facing=60,39.057165,-94.541984
198,198,3801_E_12th_Ter_facing=60.jpg.Occupied.jpg,Occupied,LandBank_Data\3801_E_12th_Ter_facing=60.jpg.Occupied.jpg,3801 E 12th Ter,facing=60,39.0973,-94.53749
199,199,3801_E_12th_Ter_facing=90.jpg.Occupied.jpg,Occupied,LandBank_Data\3801_E_12th_Ter_facing=90.jpg.Occupied.jpg,3801 E 12th Ter,facing=90,39.0973,-94.53749
200,200,3801_E_Gregory_Blvd_facing=180.jpg.Occupied.jpg,Occupied,LandBank_Data\3801_E_Gregory_Blvd_facing=180.jpg.Occupied.jpg,3801 E Gregory Blvd,facing=180,38.99803,-94.54243
201,201,3801_E_Gregory_Blvd_facing=60.jpg.Occupied.jpg,Occupied,LandBank_Data\3801_E_Gregory_Blvd_facing=60.jpg.Occupied.jpg,3801 E Gregory Blvd,facing=60,38.99803,-94.54243
202,202,3803_SOUTH_BENTON_AVE_facing=90.jpg.Abandoned.jpg,Abandoned,LandBank_Data\3803_SOUTH_BENTON_AVE_facing=90.jpg.Abandoned.jpg,3803 SOUTH BENTON AVE,facing=90,39.056981,-94.550045
203,203,3806_MONTGALL_AVE_facing=300.jpg.Abandoned.jpg,Abandoned,LandBank_Data\3806_MONTGALL_AVE_facing=300.jpg.Abandoned.jpg,3806 MONTGALL AVE,facing=300,39.056891,-94.552363
204,204,3807_E_68th_St_facing=180.jpg.Abandoned.jpg,Abandoned,LandBank_Data\3807_E_68th_St_facing=180.jpg.Abandoned.jpg,3807 E 68th St,facing=180,39.002816,-94.542079
205,205,3807_E_68th_St_facing=90.jpg.Abandoned.jpg,Abandoned,LandBank_Data\3807_E_68th_St_facing=90.jpg.Abandoned.jpg,3807 E 68th St,facing=90,39.002816,-94.542079
206,206,3813_Central_St_facing=90.jpg.Occupied.jpg,Occupied,LandBank_Data\3813_Central_St_facing=90.jpg.Occupied.jpg,3813 Central St,facing=90,39.05801,-94.58915
207,207,3816_BELLEFONTAINE_AVE_facing=60.jpg.Abandoned.jpg,Abandoned,LandBank_Data\3816_BELLEFONTAINE_AVE_facing=60.jpg.Abandoned.jpg,3816 BELLEFONTAINE AVE,facing=60,,
208,208,3817_Central_St_facing=60.jpg.Occupied.jpg,Occupied,LandBank_Data\3817_Central_St_facing=60.jpg.Occupied.jpg,3817 Central St,facing=60,39.0578,-94.58916
209,209,3819_E_9th_Ter_facing=60.jpg.Occupied.jpg,Occupied,LandBank_Data\3819_E_9th_Ter_facing=60.jpg.Occupied.jpg,3819 E 9th Ter,facing=60,39.10092,-94.53666
210,210,3825_CHESTNUT_AVE_facing=210.jpg.Abandoned.jpg,Abandoned,LandBank_Data\3825_CHESTNUT_AVE_facing=210.jpg.Abandoned.jpg,3825 CHESTNUT AVE,facing=210,,
211,211,3825_CHESTNUT_AVE_facing=90.jpg.Abandoned.jpg,Abandoned,LandBank_Data\3825_CHESTNUT_AVE_facing=90.jpg.Abandoned.jpg,3825 CHESTNUT AVE,facing=90,,
212,212,3825_OLIVE_ST_facing=90.jpg.Abandoned.jpg,Abandoned,LandBank_Data\3825_OLIVE_ST_facing=90.jpg.Abandoned.jpg,3825 OLIVE ST,facing=90,39.056422,-94.555743
213,213,3853_E_59th_St_facing=210.jpg.Abandoned.jpg,Abandoned,LandBank_Data\3853_E_59th_St_facing=210.jpg.Abandoned.jpg,3853 E 59th St,facing=210,39.018713,-94.539168
214,214,3871_E_59TH_TER_facing=90.jpg.Abandoned.jpg,Abandoned,LandBank_Data\3871_E_59TH_TER_facing=90.jpg.Abandoned.jpg,3871 E 59TH TER,facing=90,39.017841,-94.538672
215,215,3900_BENTON_BLVD_facing=300.jpg.Abandoned.jpg,Abandoned,LandBank_Data\3900_BENTON_BLVD_facing=300.jpg.Abandoned.jpg,3900 BENTON BLVD,facing=300,39.055066,-94.546735
216,216,3910_E_58TH_TER_facing=180.jpg.Abandoned.jpg,Abandoned,LandBank_Data\3910_E_58TH_TER_facing=180.jpg.Abandoned.jpg,3910 E 58TH TER,facing=180,39.019753,-94.539908
217,217,3910_E_58TH_TER_facing=90.jpg.Abandoned.jpg,Abandoned,LandBank_Data\3910_E_58TH_TER_facing=90.jpg.Abandoned.jpg,3910 E 58TH TER,facing=90,39.019753,-94.539908
218,218,3911_E_60th_Ter_facing=300.jpg.Abandoned.jpg,Abandoned,LandBank_Data\3911_E_60th_Ter_facing=300.jpg.Abandoned.jpg,3911 E 60th Ter,facing=300,39.016126,-94.538044
219,219,3924_SPRUCE_AVE_facing=180.jpg.Abandoned.jpg,Abandoned,LandBank_Data\3924_SPRUCE_AVE_facing=180.jpg.Abandoned.jpg,3924 SPRUCE AVE,facing=180,39.053621,-94.534069
220,220,3927_Cleveland_Ave_facing=60.jpg.Abandoned.jpg,Abandoned,LandBank_Data\3927_Cleveland_Ave_facing=60.jpg.Abandoned.jpg,3927 Cleveland Ave,facing=60,39.053884,-94.539835
221,221,3929_E_58th_St_facing=210.jpg.Abandoned.jpg,Abandoned,LandBank_Data\3929_E_58th_St_facing=210.jpg.Abandoned.jpg,3929 E 58th St,facing=210,39.020542,-94.539667
222,222,4016_HIGHLAND_AVE_facing=90.jpg.Abandoned.jpg,Abandoned,LandBank_Data\4016_HIGHLAND_AVE_facing=90.jpg.Abandoned.jpg,4016 HIGHLAND AVE,facing=90,,
223,223,4030_AGNES_AVE_facing=90.jpg.Abandoned.jpg,Abandoned,LandBank_Data\4030_AGNES_AVE_facing=90.jpg.Abandoned.jpg,4030 AGNES AVE,facing=90,39.052299,-94.549173
224,224,4036_E_67TH_TER_facing=60.jpg.Abandoned.jpg,Abandoned,LandBank_Data\4036_E_67TH_TER_facing=60.jpg.Abandoned.jpg,4036 E 67TH TER,facing=60,39.003555,-94.538583
225,225,4045_WALNUT_ST_110_facing=180.jpg.Occupied.jpg,Occupied,LandBank_Data\4045_WALNUT_ST_110_facing=180.jpg.Occupied.jpg,4045 WALNUT ST 110,facing=180,39.05247,-94.58495
226,226,406_Monroe_Ave_facing=60.jpg.Occupied.jpg,Occupied,LandBank_Data\406_Monroe_Ave_facing=60.jpg.Occupied.jpg,406 Monroe Ave,facing=60,39.10918,-94.5378
227,227,4108_E_35TH_ST_facing=300.jpg.Abandoned.jpg,Abandoned,LandBank_Data\4108_E_35TH_ST_facing=300.jpg.Abandoned.jpg,4108 E 35TH ST,facing=300,39.06209,-94.535544
228,228,4108_E_35TH_ST_facing=60.jpg.Abandoned.jpg,Abandoned,LandBank_Data\4108_E_35TH_ST_facing=60.jpg.Abandoned.jpg,4108 E 35TH ST,facing=60,39.06209,-94.535544
229,229,4109_E_39TH_ST_facing=300.jpg.Abandoned.jpg,Abandoned,LandBank_Data\4109_E_39TH_ST_facing=300.jpg.Abandoned.jpg,4109 E 39TH ST,facing=300,39.054871,-94.535726
230,230,4116_PARK_AVE_facing=300.jpg.Abandoned.jpg,Abandoned,LandBank_Data\4116_PARK_AVE_facing=300.jpg.Abandoned.jpg,4116 PARK AVE,facing=300,,
231,231,4119_Tracy_facing=90.jpg.Abandoned.jpg,Abandoned,LandBank_Data\4119_Tracy_facing=90.jpg.Abandoned.jpg,4119 Tracy,facing=90,39.05169,-94.569869
232,232,4120_BENTON_BLVD_facing=300.jpg.Abandoned.jpg,Abandoned,LandBank_Data\4120_BENTON_BLVD_facing=300.jpg.Abandoned.jpg,4120 BENTON BLVD,facing=300,,
233,233,4122_WABASH_AVE_facing=60.jpg.Occupied.jpg,Occupied,LandBank_Data\4122_WABASH_AVE_facing=60.jpg.Occupied.jpg,4122 WABASH AVE,facing=60,39.05099,-94.55531
234,234,4124_Chestnut_Ave_facing=90.jpg.Abandoned.jpg,Abandoned,LandBank_Data\4124_Chestnut_Ave_facing=90.jpg.Abandoned.jpg,4124 Chestnut Ave,facing=90,39.050847,-94.551533
235,235,4131_McGee_St_facing=180.jpg.Occupied.jpg,Occupied,LandBank_Data\4131_McGee_St_facing=180.jpg.Occupied.jpg,4131 McGee St,facing=180,39.05048,-94.58261
236,236,417_SPRUCE_AVE_facing=60.jpg.Occupied.jpg,Occupied,LandBank_Data\417_SPRUCE_AVE_facing=60.jpg.Occupied.jpg,417 SPRUCE AVE,facing=60,39.10857,-94.5314
237,237,417_SPRUCE_AVE_facing=90.jpg.Occupied.jpg,Occupied,LandBank_Data\417_SPRUCE_AVE_facing=90.jpg.Occupied.jpg,417 SPRUCE AVE,facing=90,39.10857,-94.5314
238,238,4200_Troost_Ave_facing=180.jpg.Occupied.jpg,Occupied,LandBank_Data\4200_Troost_Ave_facing=180.jpg.Occupied.jpg,4200 Troost Ave,facing=180,39.05053,-94.57277
239,239,420_LAWNDALE_AVE_facing=60.jpg.Occupied.jpg,Occupied,LandBank_Data\420_LAWNDALE_AVE_facing=60.jpg.Occupied.jpg,420 LAWNDALE AVE,facing=60,39.10792,-94.51577
240,240,4220_E_56th_St_facing=180.jpg.Abandoned.jpg,Abandoned,LandBank_Data\4220_E_56th_St_facing=180.jpg.Abandoned.jpg,4220 E 56th St,facing=180,39.024045,-94.535823
241,241,4237_EUCLID_AVE_facing=90.jpg.Abandoned.jpg,Abandoned,LandBank_Data\4237_EUCLID_AVE_facing=90.jpg.Abandoned.jpg,4237 EUCLID AVE,facing=90,39.048927,-94.560901
242,242,424_Colorado_Ave_facing=60.jpg.Occupied.jpg,Occupied,LandBank_Data\424_Colorado_Ave_facing=60.jpg.Occupied.jpg,424 Colorado Ave,facing=60,39.10794,-94.52046
243,243,424_Colorado_Ave_facing=90.jpg.Occupied.jpg,Occupied,LandBank_Data\424_Colorado_Ave_facing=90.jpg.Occupied.jpg,424 Colorado Ave,facing=90,39.10794,-94.52046
244,244,427_N_Colorado_Ave_facing=60.jpg.Occupied.jpg,Occupied,LandBank_Data\427_N_Colorado_Ave_facing=60.jpg.Occupied.jpg,427 N Colorado Ave,facing=60,39.11706,-94.51927
245,245,4301_N_Corrington_Ave_facing=60.jpg.Occupied.jpg,Occupied,LandBank_Data\4301_N_Corrington_Ave_facing=60.jpg.Occupied.jpg,4301 N Corrington Ave,facing=60,39.1719,-94.49443
246,246,4301_N_Corrington_Ave_facing=90.jpg.Occupied.jpg,Occupied,LandBank_Data\4301_N_Corrington_Ave_facing=90.jpg.Occupied.jpg,4301 N Corrington Ave,facing=90,39.1719,-94.49443
247,247,4304_BELL_ST_facing=60.jpg.Occupied.jpg,Occupied,LandBank_Data\4304_BELL_ST_facing=60.jpg.Occupied.jpg,4304 BELL ST,facing=60,39.04999,-94.6067
248,248,4304_BELL_ST_facing=90.jpg.Occupied.jpg,Occupied,LandBank_Data\4304_BELL_ST_facing=90.jpg.Occupied.jpg,4304 BELL ST,facing=90,39.04999,-94.6067
249,249,4311_WAYNE_AVE_facing=90.jpg.Abandoned.jpg,Abandoned,LandBank_Data\4311_WAYNE_AVE_facing=90.jpg.Abandoned.jpg,4311 WAYNE AVE,facing=90,39.048164,-94.565599
250,250,4318_CLEVELAND_AVE_facing=180.jpg.Abandoned.jpg,Abandoned,LandBank_Data\4318_CLEVELAND_AVE_facing=180.jpg.Abandoned.jpg,4318 CLEVELAND AVE,facing=180,39.047082,-94.540183
251,251,431_WALLACE_AVE_facing=60.jpg.Abandoned.jpg,Abandoned,LandBank_Data\431_WALLACE_AVE_facing=60.jpg.Abandoned.jpg,431 WALLACE AVE,facing=60,,
252,252,4329_Chestnut_Ave_facing=90.jpg.Occupied.jpg,Occupied,LandBank_Data\4329_Chestnut_Ave_facing=90.jpg.Occupied.jpg,4329 Chestnut Ave,facing=90,39.04722,-94.55138
253,253,4333_ASKEW_AVE_facing=210.jpg.Abandoned.jpg,Abandoned,LandBank_Data\4333_ASKEW_AVE_facing=210.jpg.Abandoned.jpg,4333 ASKEW AVE,facing=210,,
254,254,4333_ASKEW_AVE_facing=60.jpg.Abandoned.jpg,Abandoned,LandBank_Data\4333_ASKEW_AVE_facing=60.jpg.Abandoned.jpg,4333 ASKEW AVE,facing=60,,
255,255,4333_ASKEW_AVE_facing=90.jpg.Abandoned.jpg,Abandoned,LandBank_Data\4333_ASKEW_AVE_facing=90.jpg.Abandoned.jpg,4333 ASKEW AVE,facing=90,,
256,256,4334_ASKEW_AVE_facing=90.jpg.Abandoned.jpg,Abandoned,LandBank_Data\4334_ASKEW_AVE_facing=90.jpg.Abandoned.jpg,4334 ASKEW AVE,facing=90,39.046638,-94.542511
257,257,4341_GARFIELD_AVE_facing=60.jpg.Abandoned.jpg,Abandoned,LandBank_Data\4341_GARFIELD_AVE_facing=60.jpg.Abandoned.jpg,4341 GARFIELD AVE,facing=60,39.046895,-94.559865
258,258,4341_NORTON_AVE_facing=90.jpg.Abandoned.jpg,Abandoned,LandBank_Data\4341_NORTON_AVE_facing=90.jpg.Abandoned.jpg,4341 NORTON AVE,facing=90,39.046173,-94.536771
259,259,4401_GARFIELD_AVE_facing=210.jpg.Abandoned.jpg,Abandoned,LandBank_Data\4401_GARFIELD_AVE_facing=210.jpg.Abandoned.jpg,4401 GARFIELD AVE,facing=210,,
260,260,4404_Independence_Ave_facing=60.jpg.Occupied.jpg,Occupied,LandBank_Data\4404_Independence_Ave_facing=60.jpg.Occupied.jpg,4404 Independence Ave,facing=60,39.10591,-94.53039
261,261,4405_GARFIELD_AVE_facing=90.jpg.Abandoned.jpg,Abandoned,LandBank_Data\4405_GARFIELD_AVE_facing=90.jpg.Abandoned.jpg,4405 GARFIELD AVE,facing=90,39.046309,-94.559894
262,262,4416_GARFIELD_AVE_facing=180.jpg.Abandoned.jpg,Abandoned,LandBank_Data\4416_GARFIELD_AVE_facing=180.jpg.Abandoned.jpg,4416 GARFIELD AVE,facing=180,39.045907,-94.559914
263,263,4420_Wayne_Ave_facing=60.jpg.Occupied.jpg,Occupied,LandBank_Data\4420_Wayne_Ave_facing=60.jpg.Occupied.jpg,4420 Wayne Ave,facing=60,39.04579,-94.56608
264,264,4420_Wayne_Ave_facing=90.jpg.Occupied.jpg,Occupied,LandBank_Data\4420_Wayne_Ave_facing=90.jpg.Occupied.jpg,4420 Wayne Ave,facing=90,39.04579,-94.56608
265,265,4426_Bales_Ave_facing=60.jpg.Occupied.jpg,Occupied,LandBank_Data\4426_Bales_Ave_facing=60.jpg.Occupied.jpg,4426 Bales Ave,facing=60,39.04513,-94.54406
266,266,4428_PARK_AVE_facing=60.jpg.Abandoned.jpg,Abandoned,LandBank_Data\4428_PARK_AVE_facing=60.jpg.Abandoned.jpg,4428 PARK AVE,facing=60,39.045433,-94.557618
267,267,4438_MONTGALL_AVE_facing=60.jpg.Occupied.jpg,Occupied,LandBank_Data\4438_MONTGALL_AVE_facing=60.jpg.Occupied.jpg,4438 MONTGALL AVE,facing=60,39.04491,-94.55331
268,268,4438_MONTGALL_AVE_facing=90.jpg.Occupied.jpg,Occupied,LandBank_Data\4438_MONTGALL_AVE_facing=90.jpg.Occupied.jpg,4438 MONTGALL AVE,facing=90,39.04491,-94.55331
269,269,4503_E_59TH_ST_facing=210.jpg.Abandoned.jpg,Abandoned,LandBank_Data\4503_E_59TH_ST_facing=210.jpg.Abandoned.jpg,4503 E 59TH ST,facing=210,39.018525,-94.533467
270,270,4507_E_59TH_ST_facing=210.jpg.Abandoned.jpg,Abandoned,LandBank_Data\4507_E_59TH_ST_facing=210.jpg.Abandoned.jpg,4507 E 59TH ST,facing=210,39.018517,-94.533286
271,271,4511_Prospect_Ave_facing=90.jpg.Abandoned.jpg,Abandoned,LandBank_Data\4511_Prospect_Ave_facing=90.jpg.Abandoned.jpg,4511 Prospect Ave,facing=90,39.044166,-94.55419
272,272,4523_CHESTNUT_AVE_facing=90.jpg.Abandoned.jpg,Abandoned,LandBank_Data\4523_CHESTNUT_AVE_facing=90.jpg.Abandoned.jpg,4523 CHESTNUT AVE,facing=90,,
273,273,4525_Prospect_Ave_facing=180.jpg.Occupied.jpg,Occupied,LandBank_Data\4525_Prospect_Ave_facing=180.jpg.Occupied.jpg,4525 Prospect Ave,facing=180,39.04354,-94.55385
274,274,4528_Troost_Ave_facing=60.jpg.Occupied.jpg,Occupied,LandBank_Data\4528_Troost_Ave_facing=60.jpg.Occupied.jpg,4528 Troost Ave,facing=60,39.0442,-94.57319
275,275,4528_Troost_Ave_facing=90.jpg.Occupied.jpg,Occupied,LandBank_Data\4528_Troost_Ave_facing=90.jpg.Occupied.jpg,4528 Troost Ave,facing=90,39.0442,-94.57319
276,276,4545_Wornall_Rd_facing=60.jpg.Occupied.jpg,Occupied,LandBank_Data\4545_Wornall_Rd_facing=60.jpg.Occupied.jpg,4545 Wornall Rd,facing=60,39.04448,-94.58935
277,277,4601_Prospect_Ave_facing=60.jpg.Occupied.jpg,Occupied,LandBank_Data\4601_Prospect_Ave_facing=60.jpg.Occupied.jpg,4601 Prospect Ave,facing=60,39.04262,-94.55398
278,278,4607_SOUTH_BENTON_AVE_facing=90.jpg.Abandoned.jpg,Abandoned,LandBank_Data\4607_SOUTH_BENTON_AVE_facing=90.jpg.Abandoned.jpg,4607 SOUTH BENTON AVE,facing=90,39.042375,-94.551051
279,279,4609_E_30TH_ST_facing=60.jpg.Abandoned.jpg,Abandoned,LandBank_Data\4609_E_30TH_ST_facing=60.jpg.Abandoned.jpg,4609 E 30TH ST,facing=60,39.070902,-94.529306
280,280,4611_E_31st_St_facing=210.jpg.Abandoned.jpg,Abandoned,LandBank_Data\4611_E_31st_St_facing=210.jpg.Abandoned.jpg,4611 E 31st St,facing=210,39.069114,-94.529322
281,281,4612_Chestnut_Ave_facing=90.jpg.Abandoned.jpg,Abandoned,LandBank_Data\4612_Chestnut_Ave_facing=90.jpg.Abandoned.jpg,4612 Chestnut Ave,facing=90,39.042207,-94.551998
282,282,4617_Lawn_Ave_facing=90.jpg.Abandoned.jpg,Abandoned,LandBank_Data\4617_Lawn_Ave_facing=90.jpg.Abandoned.jpg,4617 Lawn Ave,facing=90,39.041258,-94.530084
283,283,4629_ELMWOOD_AVE_facing=300.jpg.Abandoned.jpg,Abandoned,LandBank_Data\4629_ELMWOOD_AVE_facing=300.jpg.Abandoned.jpg,4629 ELMWOOD AVE,facing=300,39.040893,-94.531266
284,284,4634_CHESTNUT_AVE_facing=60.jpg.Abandoned.jpg,Abandoned,LandBank_Data\4634_CHESTNUT_AVE_facing=60.jpg.Abandoned.jpg,4634 CHESTNUT AVE,facing=60,39.041468,-94.552038
285,285,4645_SOUTH_BENTON_AVE_facing=300.jpg.Abandoned.jpg,Abandoned,LandBank_Data\4645_SOUTH_BENTON_AVE_facing=300.jpg.Abandoned.jpg,4645 SOUTH BENTON AVE,facing=300,,
286,286,4663_E_37th_Ter_facing=180.jpg.Abandoned.jpg,Abandoned,LandBank_Data\4663_E_37th_Ter_facing=180.jpg.Abandoned.jpg,4663 E 37th Ter,facing=180,39.056189,-94.528072
287,287,4710_E_16TH_ST_facing=180.jpg.Abandoned.jpg,Abandoned,LandBank_Data\4710_E_16TH_ST_facing=180.jpg.Abandoned.jpg,4710 E 16TH ST,facing=180,39.09246,-94.527228
288,288,4812_E_45th_St_facing=180.jpg.Abandoned.jpg,Abandoned,LandBank_Data\4812_E_45th_St_facing=180.jpg.Abandoned.jpg,4812 E 45th St,facing=180,39.043703,-94.528294
289,289,4904_Agnes_Ave_facing=210.jpg.Abandoned.jpg,Abandoned,LandBank_Data\4904_Agnes_Ave_facing=210.jpg.Abandoned.jpg,4904 Agnes Ave,facing=210,39.036995,-94.549945
290,290,4919_OLIVE_facing=180.jpg.Abandoned.jpg,Abandoned,LandBank_Data\4919_OLIVE_facing=180.jpg.Abandoned.jpg,4919 OLIVE,facing=180,,
291,291,4920_College_Ave_facing=60.jpg.Occupied.jpg,Occupied,LandBank_Data\4920_College_Ave_facing=60.jpg.Occupied.jpg,4920 College Ave,facing=60,39.0363,-94.54682
292,292,4930_Bellefontaine_Ave_facing=90.jpg.Abandoned.jpg,Abandoned,LandBank_Data\4930_Bellefontaine_Ave_facing=90.jpg.Abandoned.jpg,4930 Bellefontaine Ave,facing=90,39.035958,-94.548822
293,293,4945_AGNES_AVE_facing=90.jpg.Abandoned.jpg,Abandoned,LandBank_Data\4945_AGNES_AVE_facing=90.jpg.Abandoned.jpg,4945 AGNES AVE,facing=90,39.035578,-94.550027
294,294,5017_NE_Vivion_Rd_facing=180.jpg.Occupied.jpg,Occupied,LandBank_Data\5017_NE_Vivion_Rd_facing=180.jpg.Occupied.jpg,5017 NE Vivion Rd,facing=180,39.18748,-94.52033
295,295,5026_PARK_AVE_facing=180.jpg.Abandoned.jpg,Abandoned,LandBank_Data\5026_PARK_AVE_facing=180.jpg.Abandoned.jpg,5026 PARK AVE,facing=180,39.034667,-94.558194
296,296,5026_PARK_AVE_facing=90.jpg.Abandoned.jpg,Abandoned,LandBank_Data\5026_PARK_AVE_facing=90.jpg.Abandoned.jpg,5026 PARK AVE,facing=90,39.034667,-94.558194
297,297,5033_WALNUT_ST_facing=60.jpg.Occupied.jpg,Occupied,LandBank_Data\5033_WALNUT_ST_facing=60.jpg.Occupied.jpg,5033 WALNUT ST,facing=60,39.03538,-94.58577
298,298,5033_WALNUT_ST_facing=90.jpg.Occupied.jpg,Occupied,LandBank_Data\5033_WALNUT_ST_facing=90.jpg.Occupied.jpg,5033 WALNUT ST,facing=90,39.03538,-94.58577
299,299,5103_NE_44th_Ter_facing=60.jpg.Occupied.jpg,Occupied,LandBank_Data\5103_NE_44th_Ter_facing=60.jpg.Occupied.jpg,5103 NE 44th Ter,facing=60,39.17432,-94.51984
300,300,5103_NE_44th_Ter_facing=90.jpg.Occupied.jpg,Occupied,LandBank_Data\5103_NE_44th_Ter_facing=90.jpg.Occupied.jpg,5103 NE 44th Ter,facing=90,39.17432,-94.51984
301,301,5111_Walrond_Ave_facing=60.jpg.Occupied.jpg,Occupied,LandBank_Data\5111_Walrond_Ave_facing=60.jpg.Occupied.jpg,5111 Walrond Ave,facing=60,39.03303,-94.5475
302,302,5111_Walrond_Ave_facing=90.jpg.Occupied.jpg,Occupied,LandBank_Data\5111_Walrond_Ave_facing=90.jpg.Occupied.jpg,5111 Walrond Ave,facing=90,39.03303,-94.5475
303,303,511_Cherry_St_facing=90.jpg.Occupied.jpg,Occupied,LandBank_Data\511_Cherry_St_facing=90.jpg.Occupied.jpg,511 Cherry St,facing=90,39.10935,-94.57644
304,304,5128_College_Ave_facing=180.jpg.Abandoned.jpg,Abandoned,LandBank_Data\5128_College_Ave_facing=180.jpg.Abandoned.jpg,5128 College Ave,facing=180,39.03251,-94.54704
305,304,5128_College_Ave_facing=180.jpg.Abandoned.jpg,Abandoned,LandBank_Data\5128_College_Ave_facing=180.jpg.Abandoned.jpg,5128 College Ave,facing=180,39.032512,-94.546726
306,305,5149_SWOPE_PKWY_facing=300.jpg.Abandoned.jpg,Abandoned,LandBank_Data\5149_SWOPE_PKWY_facing=300.jpg.Abandoned.jpg,5149 SWOPE PKWY,facing=300,39.031514,-94.542298
307,306,517_E_97th_Ter_facing=90.jpg.Occupied.jpg,Occupied,LandBank_Data\517_E_97th_Ter_facing=90.jpg.Occupied.jpg,517 E 97th Ter,facing=90,38.95039,-94.58503
308,307,5217_FRANKLIN_AVE_facing=60.jpg.Occupied.jpg,Occupied,LandBank_Data\5217_FRANKLIN_AVE_facing=60.jpg.Occupied.jpg,5217 FRANKLIN AVE,facing=60,39.03088,-94.53274
309,308,5219_E_28th_Ter_facing=180.jpg.Abandoned.jpg,Abandoned,LandBank_Data\5219_E_28th_Ter_facing=180.jpg.Abandoned.jpg,5219 E 28th Ter,facing=180,39.073271,-94.521943
310,309,5234_Norton_Ave_facing=90.jpg.Abandoned.jpg,Abandoned,LandBank_Data\5234_Norton_Ave_facing=90.jpg.Abandoned.jpg,5234 Norton Ave,facing=90,,
311,310,5320_Michigan_Ave_facing=90.jpg.Occupied.jpg,Occupied,LandBank_Data\5320_Michigan_Ave_facing=90.jpg.Occupied.jpg,5320 Michigan Ave,facing=90,39.02974,-94.56349
312,311,5415_BONITA_ST_facing=300.jpg.Abandoned.jpg,Abandoned,LandBank_Data\5415_BONITA_ST_facing=300.jpg.Abandoned.jpg,5415 BONITA ST,facing=300,39.073857,-94.519587
313,312,5421_E_28TH_ST_facing=60.jpg.Abandoned.jpg,Abandoned,LandBank_Data\5421_E_28TH_ST_facing=60.jpg.Abandoned.jpg,5421 E 28TH ST,facing=60,39.074576,-94.519417
314,313,5421_E_28TH_ST_facing=90.jpg.Abandoned.jpg,Abandoned,LandBank_Data\5421_E_28TH_ST_facing=90.jpg.Abandoned.jpg,5421 E 28TH ST,facing=90,39.074576,-94.519417
315,314,5426_NORTON_AVE_facing=90.jpg.Abandoned.jpg,Abandoned,LandBank_Data\5426_NORTON_AVE_facing=90.jpg.Abandoned.jpg,5426 NORTON AVE,facing=90,39.026822,-94.537809
316,315,5432_NW_Waukomis_Dr_facing=60.jpg.Occupied.jpg,Occupied,LandBank_Data\5432_NW_Waukomis_Dr_facing=60.jpg.Occupied.jpg,5432 NW Waukomis Dr,facing=60,39.19428,-94.60797
317,316,5432_NW_Waukomis_Dr_facing=90.jpg.Occupied.jpg,Occupied,LandBank_Data\5432_NW_Waukomis_Dr_facing=90.jpg.Occupied.jpg,5432 NW Waukomis Dr,facing=90,39.19428,-94.60797
318,317,5500_Agnes_Ave_facing=60.jpg.Occupied.jpg,Occupied,LandBank_Data\5500_Agnes_Ave_facing=60.jpg.Occupied.jpg,5500 Agnes Ave,facing=60,39.0262,-94.55134
319,318,5529_Chestnut_Ave_facing=90.jpg.Occupied.jpg,Occupied,LandBank_Data\5529_Chestnut_Ave_facing=90.jpg.Occupied.jpg,5529 Chestnut Ave,facing=90,39.02549,-94.55283
320,319,5536_SOUTH_BENTON_AVE_facing=60.jpg.Occupied.jpg,Occupied,LandBank_Data\5536_SOUTH_BENTON_AVE_facing=60.jpg.Occupied.jpg,5536 SOUTH BENTON AVE,facing=60,39.02509,-94.55244
321,320,5600_JAUDON_AVE_facing=90.jpg.Abandoned.jpg,Abandoned,LandBank_Data\5600_JAUDON_AVE_facing=90.jpg.Abandoned.jpg,5600 JAUDON AVE,facing=90,39.024428,-94.550144
322,321,5604_Brooklyn_Ave_facing=60.jpg.Occupied.jpg,Occupied,LandBank_Data\5604_Brooklyn_Ave_facing=60.jpg.Occupied.jpg,5604 Brooklyn Ave,facing=60,39.0246,-94.5603
323,322,5610_E_28TH_TER_facing=60.jpg.Abandoned.jpg,Abandoned,LandBank_Data\5610_E_28TH_TER_facing=60.jpg.Abandoned.jpg,5610 E 28TH TER,facing=60,39.073074,-94.517448
324,323,5611_E_36th_St_facing=90.jpg.Abandoned.jpg,Abandoned,LandBank_Data\5611_E_36th_St_facing=90.jpg.Abandoned.jpg,5611 E 36th St,facing=90,39.059896,-94.517424
325,324,5612_E_27TH_TER_facing=180.jpg.Abandoned.jpg,Abandoned,LandBank_Data\5612_E_27TH_TER_facing=180.jpg.Abandoned.jpg,5612 E 27TH TER,facing=180,39.075239,-94.517274
326,325,5616_PROSPECT_AVE_facing=180.jpg.Abandoned.jpg,Abandoned,LandBank_Data\5616_PROSPECT_AVE_facing=180.jpg.Abandoned.jpg,5616 PROSPECT AVE,facing=180,39.023956,-94.555332
327,326,5617_Euclid_Ave_facing=300.jpg.Abandoned.jpg,Abandoned,LandBank_Data\5617_Euclid_Ave_facing=300.jpg.Abandoned.jpg,5617 Euclid Ave,facing=300,39.024428,-94.562288
328,327,5632_Highland_Ave_facing=60.jpg.Occupied.jpg,Occupied,LandBank_Data\5632_Highland_Ave_facing=60.jpg.Occupied.jpg,5632 Highland Ave,facing=60,39.02382,-94.56617
329,328,5632_Highland_Ave_facing=90.jpg.Occupied.jpg,Occupied,LandBank_Data\5632_Highland_Ave_facing=90.jpg.Occupied.jpg,5632 Highland Ave,facing=90,39.02382,-94.56617
330,329,5701_MICHIGAN_AVE_facing=300.jpg.Abandoned.jpg,Abandoned,LandBank_Data\5701_MICHIGAN_AVE_facing=300.jpg.Abandoned.jpg,5701 MICHIGAN AVE,facing=300,39.023066,-94.563554
331,330,5701_MICHIGAN_AVE_facing=90.jpg.Abandoned.jpg,Abandoned,LandBank_Data\5701_MICHIGAN_AVE_facing=90.jpg.Abandoned.jpg,5701 MICHIGAN AVE,facing=90,39.023066,-94.563554
332,331,5721_MYRTLE_AVE_facing=90.jpg.Abandoned.jpg,Abandoned,LandBank_Data\5721_MYRTLE_AVE_facing=90.jpg.Abandoned.jpg,5721 MYRTLE AVE,facing=90,39.02161,-94.539258
333,332,5728_OLIVE_ST_facing=90.jpg.Abandoned.jpg,Abandoned,LandBank_Data\5728_OLIVE_ST_facing=90.jpg.Abandoned.jpg,5728 OLIVE ST,facing=90,39.021802,-94.557798
334,333,5729_NE_Compton_Ave_facing=90.jpg.Occupied.jpg,Occupied,LandBank_Data\5729_NE_Compton_Ave_facing=90.jpg.Occupied.jpg,5729 NE Compton Ave,facing=90,39.19096,-94.5119
335,334,5816_SWOPE_PKWY_facing=60.jpg.Occupied.jpg,Occupied,LandBank_Data\5816_SWOPE_PKWY_facing=60.jpg.Occupied.jpg,5816 SWOPE PKWY,facing=60,39.02041,-94.54225
336,335,5821_PARK_AVE_facing=90.jpg.Abandoned.jpg,Abandoned,LandBank_Data\5821_PARK_AVE_facing=90.jpg.Abandoned.jpg,5821 PARK AVE,facing=90,39.020354,-94.559067
337,336,5921_WALROND_AVE_facing=90.jpg.Abandoned.jpg,Abandoned,LandBank_Data\5921_WALROND_AVE_facing=90.jpg.Abandoned.jpg,5921 WALROND AVE,facing=90,39.018223,-94.548877
338,337,6000_E_13th_St_facing=60.jpg.Occupied.jpg,Occupied,LandBank_Data\6000_E_13th_St_facing=60.jpg.Occupied.jpg,6000 E 13th St,facing=60,39.09596,-94.51219
339,338,6041_CHESTNUT_AVE_facing=90.jpg.Abandoned.jpg,Abandoned,LandBank_Data\6041_CHESTNUT_AVE_facing=90.jpg.Abandoned.jpg,6041 CHESTNUT AVE,facing=90,39.016118,-94.553679
340,339,6233_E_16th_St_facing=210.jpg.Abandoned.jpg,Abandoned,LandBank_Data\6233_E_16th_St_facing=210.jpg.Abandoned.jpg,6233 E 16th St,facing=210,39.092005,-94.508684
341,340,6301_East_35th_Terrace_facing=210.jpg.Abandoned.jpg,Abandoned,LandBank_Data\6301_East_35th_Terrace_facing=210.jpg.Abandoned.jpg,6301 East 35th Terrace,facing=210,,
342,341,6419_E_12th_St_facing=300.jpg.Abandoned.jpg,Abandoned,LandBank_Data\6419_E_12th_St_facing=300.jpg.Abandoned.jpg,6419 E 12th St,facing=300,39.09743,-94.506801
343,342,6513_E_12th_St_facing=60.jpg.Occupied.jpg,Occupied,LandBank_Data\6513_E_12th_St_facing=60.jpg.Occupied.jpg,6513 E 12th St,facing=60,39.09711,-94.50578
344,343,6601_E_100TH_TER_facing=60.jpg.Occupied.jpg,Occupied,LandBank_Data\6601_E_100TH_TER_facing=60.jpg.Occupied.jpg,6601 E 100TH TER,facing=60,38.94264,-94.51213
345,344,6601_E_100TH_TER_facing=90.jpg.Occupied.jpg,Occupied,LandBank_Data\6601_E_100TH_TER_facing=90.jpg.Occupied.jpg,6601 E 100TH TER,facing=90,38.94264,-94.51213
346,345,6601_Richmond_Ave_facing=180.jpg.Occupied.jpg,Occupied,LandBank_Data\6601_Richmond_Ave_facing=180.jpg.Occupied.jpg,6601 Richmond Ave,facing=180,39.00454,-94.49807
347,346,6601_Richmond_Ave_facing=60.jpg.Occupied.jpg,Occupied,LandBank_Data\6601_Richmond_Ave_facing=60.jpg.Occupied.jpg,6601 Richmond Ave,facing=60,39.00454,-94.49807
348,347,6618_Swope_Pkwy_facing=60.jpg.Occupied.jpg,Occupied,LandBank_Data\6618_Swope_Pkwy_facing=60.jpg.Occupied.jpg,6618 Swope Pkwy,facing=60,39.00619,-94.54292
349,348,6710_Walrond_Ave_facing=60.jpg.Occupied.jpg,Occupied,LandBank_Data\6710_Walrond_Ave_facing=60.jpg.Occupied.jpg,6710 Walrond Ave,facing=60,39.00449,-94.54992
350,349,6719_South_Benton_Ave_facing=90.jpg.Abandoned.jpg,Abandoned,LandBank_Data\6719_South_Benton_Ave_facing=90.jpg.Abandoned.jpg,6719 South Benton Ave,facing=90,39.00448,-94.553089
351,350,6801_E_LONGVIEW_RD_facing=60.jpg.Occupied.jpg,Occupied,LandBank_Data\6801_E_LONGVIEW_RD_facing=60.jpg.Occupied.jpg,6801 E LONGVIEW RD,facing=60,38.91231,-94.51364
352,351,6819_E_12th_St_facing=180.jpg.Occupied.jpg,Occupied,LandBank_Data\6819_E_12th_St_facing=180.jpg.Occupied.jpg,6819 E 12th St,facing=180,39.09702,-94.50224
353,352,6825_Cleveland_Ave_facing=90.jpg.Abandoned.jpg,Abandoned,LandBank_Data\6825_Cleveland_Ave_facing=90.jpg.Abandoned.jpg,6825 Cleveland Ave,facing=90,39.001769,-94.542746
354,353,6830_Bellefontaine_Ave_facing=300.jpg.Abandoned.jpg,Abandoned,LandBank_Data\6830_Bellefontaine_Ave_facing=300.jpg.Abandoned.jpg,6830 Bellefontaine Ave,facing=300,39.002061,-94.550858
355,354,6901_Jackson_Ave_facing=60.jpg.Occupied.jpg,Occupied,LandBank_Data\6901_Jackson_Ave_facing=60.jpg.Occupied.jpg,6901 Jackson Ave,facing=60,39.00059,-94.53776
356,355,6901_Troost_Ave_facing=180.jpg.Occupied.jpg,Occupied,LandBank_Data\6901_Troost_Ave_facing=180.jpg.Occupied.jpg,6901 Troost Ave,facing=180,39.00223,-94.57034
357,356,6901_Troost_Ave_facing=60.jpg.Occupied.jpg,Occupied,LandBank_Data\6901_Troost_Ave_facing=60.jpg.Occupied.jpg,6901 Troost Ave,facing=60,39.00223,-94.57034
358,357,6910_MONROE_AVE_facing=180.jpg.Occupied.jpg,Occupied,LandBank_Data\6910_MONROE_AVE_facing=180.jpg.Occupied.jpg,6910 MONROE AVE,facing=180,39.00063,-94.54429
359,358,7021_Chestnut_Ave_facing=90.jpg.Abandoned.jpg,Abandoned,LandBank_Data\7021_Chestnut_Ave_facing=90.jpg.Abandoned.jpg,7021 Chestnut Ave,facing=90,38.998971,-94.554522
360,359,705_E_75TH_ST_facing=60.jpg.Occupied.jpg,Occupied,LandBank_Data\705_E_75TH_ST_facing=60.jpg.Occupied.jpg,705 E 75TH ST,facing=60,38.99141,-94.57972
361,360,717_W_101st_Ter_CLUBHOUSE_facing=60.jpg.Occupied.jpg,Occupied,LandBank_Data\717_W_101st_Ter_CLUBHOUSE_facing=60.jpg.Occupied.jpg,717 W 101st Ter CLUBHOUSE,facing=60,38.94377,-94.60051
362,361,717_W_101st_Ter_CLUBHOUSE_facing=90.jpg.Occupied.jpg,Occupied,LandBank_Data\717_W_101st_Ter_CLUBHOUSE_facing=90.jpg.Occupied.jpg,717 W 101st Ter CLUBHOUSE,facing=90,38.94377,-94.60051
363,362,7228_WALROND_AVE_facing=210.jpg.Abandoned.jpg,Abandoned,LandBank_Data\7228_WALROND_AVE_facing=210.jpg.Abandoned.jpg,7228 WALROND AVE,facing=210,38.994844,-94.550076
364,363,7316_Bellefontaine_Ave_facing=90.jpg.Occupied.jpg,Occupied,LandBank_Data\7316_Bellefontaine_Ave_facing=90.jpg.Occupied.jpg,7316 Bellefontaine Ave,facing=90,38.9935,-94.55163
365,364,7317_Cleveland_Ave_facing=90.jpg.Occupied.jpg,Occupied,LandBank_Data\7317_Cleveland_Ave_facing=90.jpg.Occupied.jpg,7317 Cleveland Ave,facing=90,38.9931,-94.54285
366,365,7344_Forest_Ave_facing=60.jpg.Occupied.jpg,Occupied,LandBank_Data\7344_Forest_Ave_facing=60.jpg.Occupied.jpg,7344 Forest Ave,facing=60,38.99355,-94.57475
367,366,7404_Park_Ave_facing=180.jpg.Occupied.jpg,Occupied,LandBank_Data\7404_Park_Ave_facing=180.jpg.Occupied.jpg,7404 Park Ave,facing=180,38.99249,-94.56099
368,367,7404_Park_Ave_facing=60.jpg.Occupied.jpg,Occupied,LandBank_Data\7404_Park_Ave_facing=60.jpg.Occupied.jpg,7404 Park Ave,facing=60,38.99249,-94.56099
369,368,7410_CHESTNUT_AVE_facing=300.jpg.Abandoned.jpg,Abandoned,LandBank_Data\7410_CHESTNUT_AVE_facing=300.jpg.Abandoned.jpg,7410 CHESTNUT AVE,facing=300,38.99202,-94.554902
370,369,7560_Prospect_Ave_facing=60.jpg.Occupied.jpg,Occupied,LandBank_Data\7560_Prospect_Ave_facing=60.jpg.Occupied.jpg,7560 Prospect Ave,facing=60,38.98833,-94.55813
371,370,7602_E_111TH_TER_facing=180.jpg.Occupied.jpg,Occupied,LandBank_Data\7602_E_111TH_TER_facing=180.jpg.Occupied.jpg,7602 E 111TH TER,facing=180,38.92486,-94.50172
372,371,7602_E_111TH_TER_facing=60.jpg.Occupied.jpg,Occupied,LandBank_Data\7602_E_111TH_TER_facing=60.jpg.Occupied.jpg,7602 E 111TH TER,facing=60,38.92486,-94.50172
373,372,7607_E_113th_St_facing=60.jpg.Occupied.jpg,Occupied,LandBank_Data\7607_E_113th_St_facing=60.jpg.Occupied.jpg,7607 E 113th St,facing=60,38.92017,-94.5017
374,373,7807_AGNES_AVE_facing=60.jpg.Occupied.jpg,Occupied,LandBank_Data\7807_AGNES_AVE_facing=60.jpg.Occupied.jpg,7807 AGNES AVE,facing=60,38.98419,-94.55276
375,374,8101_Wornall_Rd_facing=60.jpg.Occupied.jpg,Occupied,LandBank_Data\8101_Wornall_Rd_facing=60.jpg.Occupied.jpg,8101 Wornall Rd,facing=60,38.9812,-94.59441
376,375,814_Beacon_Ave_facing=90.jpg.Occupied.jpg,Occupied,LandBank_Data\814_Beacon_Ave_facing=90.jpg.Occupied.jpg,814 Beacon Ave,facing=90,39.10169,-94.5089
377,376,8151_Holmes_Rd_facing=60.jpg.Occupied.jpg,Occupied,LandBank_Data\8151_Holmes_Rd_facing=60.jpg.Occupied.jpg,8151 Holmes Rd,facing=60,38.97973,-94.57971
378,377,815_Cherry_St_facing=60.jpg.Occupied.jpg,Occupied,LandBank_Data\815_Cherry_St_facing=60.jpg.Occupied.jpg,815 Cherry St,facing=60,39.10375,-94.57575
379,378,815_Cherry_St_facing=90.jpg.Occupied.jpg,Occupied,LandBank_Data\815_Cherry_St_facing=90.jpg.Occupied.jpg,815 Cherry St,facing=90,39.10375,-94.57575
380,379,8224_N_Oak_Trfy_facing=60.jpg.Occupied.jpg,Occupied,LandBank_Data\8224_N_Oak_Trfy_facing=60.jpg.Occupied.jpg,8224 N Oak Trfy,facing=60,39.24345,-94.57635
381,380,8224_N_Oak_Trfy_facing=90.jpg.Occupied.jpg,Occupied,LandBank_Data\8224_N_Oak_Trfy_facing=90.jpg.Occupied.jpg,8224 N Oak Trfy,facing=90,39.24345,-94.57635
382,381,8233_Tracy_Ave_facing=60.jpg.Occupied.jpg,Occupied,LandBank_Data\8233_Tracy_Ave_facing=60.jpg.Occupied.jpg,8233 Tracy Ave,facing=60,38.97783,-94.57345
383,382,8303_E_114th_St_facing=60.jpg.Occupied.jpg,Occupied,LandBank_Data\8303_E_114th_St_facing=60.jpg.Occupied.jpg,8303 E 114th St,facing=60,38.91591,-94.49548
384,383,8430_Holmes_Rd_facing=90.jpg.Occupied.jpg,Occupied,LandBank_Data\8430_Holmes_Rd_facing=90.jpg.Occupied.jpg,8430 Holmes Rd,facing=90,38.97403,-94.58152
385,384,8619_E_61st_Ter_facing=90.jpg.Occupied.jpg,Occupied,LandBank_Data\8619_E_61st_Ter_facing=90.jpg.Occupied.jpg,8619 E 61st Ter,facing=90,39.01275,-94.48674
386,385,8748_DANIEL_BOONE_RD_facing=60.jpg.Occupied.jpg,Occupied,LandBank_Data\8748_DANIEL_BOONE_RD_facing=60.jpg.Occupied.jpg,8748 DANIEL BOONE RD,facing=60,38.96887,-94.5934
387,386,8950_LEE'S_SUMMIT_RD_facing=180.jpg.Occupied.jpg,Occupied,LandBank_Data\8950_LEE'S_SUMMIT_RD_facing=180.jpg.Occupied.jpg,8950 LEE'S SUMMIT RD,facing=180,38.96069,-94.38884
388,387,9209_Cleveland_Ave_facing=60.jpg.Occupied.jpg,Occupied,LandBank_Data\9209_Cleveland_Ave_facing=60.jpg.Occupied.jpg,9209 Cleveland Ave,facing=60,38.95867,-94.54372
389,388,9209_Cleveland_Ave_facing=90.jpg.Occupied.jpg,Occupied,LandBank_Data\9209_Cleveland_Ave_facing=90.jpg.Occupied.jpg,9209 Cleveland Ave,facing=90,38.95867,-94.54372
390,389,9300_Old_Santa_Fe_Rd_facing=60.jpg.Occupied.jpg,Occupied,LandBank_Data\9300_Old_Santa_Fe_Rd_facing=60.jpg.Occupied.jpg,9300 Old Santa Fe Rd,facing=60,38.95546,-94.5084
391,390,9300_Old_Santa_Fe_Rd_facing=90.jpg.Occupied.jpg,Occupied,LandBank_Data\9300_Old_Santa_Fe_Rd_facing=90.jpg.Occupied.jpg,9300 Old Santa Fe Rd,facing=90,38.95546,-94.5084
392,391,9301_N_Main_St_facing=60.jpg.Occupied.jpg,Occupied,LandBank_Data\9301_N_Main_St_facing=60.jpg.Occupied.jpg,9301 N Main St,facing=60,39.26262,-94.57919
393,392,9322_Myrtle_Ave_facing=60.jpg.Occupied.jpg,Occupied,LandBank_Data\9322_Myrtle_Ave_facing=60.jpg.Occupied.jpg,9322 Myrtle Ave,facing=60,38.95642,-94.54271
394,393,9322_Myrtle_Ave_facing=90.jpg.Occupied.jpg,Occupied,LandBank_Data\9322_Myrtle_Ave_facing=90.jpg.Occupied.jpg,9322 Myrtle Ave,facing=90,38.95642,-94.54271
395,394,9327_Cleveland_Ave_facing=60.jpg.Occupied.jpg,Occupied,LandBank_Data\9327_Cleveland_Ave_facing=60.jpg.Occupied.jpg,9327 Cleveland Ave,facing=60,38.9568,-94.54383
396,395,935_Broadway_Blvd_facing=90.jpg.Occupied.jpg,Occupied,LandBank_Data\935_Broadway_Blvd_facing=90.jpg.Occupied.jpg,935 Broadway Blvd,facing=90,39.10256,-94.58803
397,396,9533_Charlotte_St_facing=60.jpg.Occupied.jpg,Occupied,LandBank_Data\9533_Charlotte_St_facing=60.jpg.Occupied.jpg,9533 Charlotte St,facing=60,38.95436,-94.57899
398,397,9533_Charlotte_St_facing=90.jpg.Occupied.jpg,Occupied,LandBank_Data\9533_Charlotte_St_facing=90.jpg.Occupied.jpg,9533 Charlotte St,facing=90,38.95436,-94.57899
